[{"title":"Skagboys","author":"Welsh, Irvine","year":null,"url":"http:\/\/www.randomhouse.co.uk\/authors\/irvine-welsh","placename":"Pilton","snippet":"No a schemie tramp like that fuckin fandan. But that Hong Kong Fuey, the Pilton cunt that goat his jaw tanned when he goat wide eftir ah bairned his slag ay a sister, he's the cunt ah really feel fuckin lit doon by. No a peep oot ay that cunt, but ah suppose he must've goat seek using fuckin straws tae eat his dinner.    "},{"title":"Skagboys","author":"Welsh, Irvine","year":null,"url":"http:\/\/www.randomhouse.co.uk\/authors\/irvine-welsh","placename":"Pilton","snippet":"She'll probably be able tae tell thaire's nae stuff inside her cause we never bothered wi a flunky. In a joltin chill ah suddenly think aboot Begbie and that mad wee Pilton biler in the boozer. Even though ah've shot nowt ye kin still git undetected    "},{"title":"Trainspotting","author":"Welsh, Irvine","year":null,"url":null,"placename":"Pilton","snippet":"Ah stick it oan toap ay the cistern. Locating the other takes several long dredges through the mess and the panhandling of the shite ay many good Muirhoose and Pilton punters. Ah gag once, but get ma white nugget ay gold, surprisingly even better preserved than the first.    "},{"title":"Ecstasy: Three Tales of Chemical Romance","author":"Welsh, Irvine","year":null,"url":null,"placename":"Pilton","snippet":"The mair ah thought aboot it, the mair uncool it was. Woodsy was planning to have a rave at the Rectangle Club in Pilton (or Reck-Tangle as he'd put on the flyers) on a Tuesday afternoon. That was pretty fuckin weird in itself.    "},{"title":"Skagboys","author":"Welsh, Irvine","year":null,"url":"http:\/\/www.randomhouse.co.uk\/authors\/irvine-welsh","placename":"Pilton","snippet":"We get ootside n pile intae Nelly's van, me n him in the back. We're drivin doon tae Pilton n Begbie's aw excited, giein us the instructions fae the front passenger seat. \u2014 Youse stey in the van n dinnae come oot till ah shout! Mind, wait till ah fuckin gie yis a shout!    "},{"title":"Ecstasy: Three Tales of Chemical Romance","author":"Welsh, Irvine","year":null,"url":null,"placename":"Pilton","snippet":"\u2013 Look, Lloyd, ah've goat this gig organised at the Reck-Tangle Club in Pilton. Ah want you oan the bill.    "},{"title":"Skagboys","author":"Welsh, Irvine","year":null,"url":"http:\/\/www.randomhouse.co.uk\/authors\/irvine-welsh","placename":"Pilton","snippet":"\u2014 Well, this dippit big brother cunt's been gaun oan aboot how he's gaunny dae this, n how he's gaunny dae that. Cunt seems tae huv some fuckin rep doon in Pilton, Franco scoffs.    "},{"title":"Skagboys","author":"Welsh, Irvine","year":null,"url":"http:\/\/www.randomhouse.co.uk\/authors\/irvine-welsh","placename":"Pilton","snippet":"He laughs at that, and gestures me to move aside, as Hamish havers oantae the girls aboot some gig he n Mark once played at the Triangle Club in Pilton. \u2014 How's it gaun?    "},{"title":"Ecstasy: Three Tales of Chemical Romance","author":"Welsh, Irvine","year":null,"url":null,"placename":"Pilton","snippet":"The Rectangle. Pilton. A Tuesday eftirnoon! It'll be pony, Ally laughs.    "},{"title":"Filth","author":"Welsh, Irvine","year":null,"url":null,"placename":"Pilton","snippet":"Waste ay fuckin time if ye ask me. Somebody's probably murdering some poor cunt doon in Pilton, and we're poncing aroond here wi some silly wee lassies, I say, during the coffee and enrolment.    "},{"title":"Skagboys","author":"Welsh, Irvine","year":null,"url":"http:\/\/www.randomhouse.co.uk\/authors\/irvine-welsh","placename":"Pilton","snippet":"\u2014 Mibbe no, but they fuckin Pilton tramps ur. Ah'm no fuckin well finished wi they cunts yit.    "},{"title":"Boswelliana","author":null,"year":null,"url":"http:\/\/digital.nls.uk\/82551411","placename":"Pilton","snippet":"The * See posfea. t Sir Philip Ainslie, of Pilton, Edinburghshire.    "}]