[{"title":"Tombstoning","author":"Johnstone, Doug","year":null,"url":null,"placename":"Rankeillor Street","snippet":"She worked for Historic Scotland, wasn't that in Salisbury Place? Only about five minutes from his Rankeillor Street flat in the Southside of the city. How long had she been in the same city as him?    "},{"title":"Hit and Run","author":"Johnstone, Doug","year":null,"url":null,"placename":"Rankeillor Street","snippet":"Instead of heading back to Rankeillor Street, he turned right before Scottish Widows. A trickle of students were coming and going from Pollock Halls.    "},{"title":"Hit and Run","author":"Johnstone, Doug","year":null,"url":null,"placename":"Rankeillor Street","snippet":"At the corner of Rankeillor Street he stopped and leaned against a low wall. Across the road was St Leonard's police station, where he'd passed out at the press conference.    "},{"title":"Hit and Run","author":"Johnstone, Doug","year":null,"url":null,"placename":"Rankeillor Street","snippet":"His feet took him to the end of Rankeillor Street and he turned left into the bus fumes and noise of South Clerk Street. Kebab houses, corner shops, pubs and greasy spoons, the pavement in the early evening teeming with people heading home from work or out to the pub.    "},{"title":"Hit and Run","author":"Johnstone, Doug","year":null,"url":null,"placename":"Rankeillor Street","snippet":"The light diffused to a vague haze in the distance, but the foreground was painfully sharp in the morning light. He could see down Rankeillor Street from here. He thought he spotted the Micra parked in the road, a smudge of red.    "},{"title":"Hit and Run","author":"Johnstone, Doug","year":null,"url":null,"placename":"Rankeillor Street","snippet":"'Charlie and Zoe have been suspended from the hospital and paper respectively. I wouldn't recommend going back to Rankeillor Street any time soon. I would say come and stay with me, but by the time you're fit to get out of here, I suspect the police will have other plans for you.'    "},{"title":"Hit and Run","author":"Johnstone, Doug","year":null,"url":null,"placename":"Rankeillor Street","snippet":"He looked at their heavy front door, the flat that Zoe's dad had bought for her when she started Uni, Billy and Charlie freeloading as usual. Further along the road at the end of Rankeillor Street was St Leonard's police station, an anonymous modern brick block. Beyond that loomed the ragged brown cliff of Salisbury Crags, buttressed by the near-vertical slope beneath, spreads of rough yellow gorse clinging on for dear life.    "},{"title":"Hit and Run","author":"Johnstone, Doug","year":null,"url":null,"placename":"Rankeillor Street","snippet":"They'd be home in a few minutes. Up Queen's Drive, hang a couple of rights past the Commie Pool and they'd be in Rankeillor Street in no time.    "},{"title":"Hit and Run","author":"Johnstone, Doug","year":null,"url":null,"placename":"Rankeillor Street","snippet":"He looked down at his feet then rubbed at his eyes, pushing his thumbs into the tops of his eye sockets until little flashes of light appeared in his vision. He shook his head and turned into Rankeillor Street.    "},{"title":"Hit and Run","author":"Johnstone, Doug","year":null,"url":null,"placename":"Rankeillor Street","snippet":"He closed his eyes, felt the soft fur of Jeanie's body alongside. He seemed to drift upwards, beyond everything, growing wings to swoop above the city, diving over the police station and Rankeillor Street, the Whitehouse place and The Crags pub. But his wings caught fire and he tumbled to the ground, thumping into the tarmac of Queen's Drive as Charlie and Zoe looked on.    "},{"title":"Tombstoning","author":"Johnstone, Doug","year":null,"url":null,"placename":"Rankeillor Street","snippet":"'Rankeillor Street, mate,' he said as he keeled into the back, ignoring the signs to put his seatbelt on. It was only then he remembered with a groan that it was the first weekend of the festival, and the traffic across the centre of town would be a fucking nightmare.    "},{"title":"Tombstoning","author":"Johnstone, Doug","year":null,"url":null,"placename":"Rankeillor Street","snippet":"'Really? I'm just down the road in Rankeillor Street.'    "},{"title":"Hit and Run","author":"Johnstone, Doug","year":null,"url":null,"placename":"Rankeillor Street","snippet":"They turned into Rankeillor Street.    "},{"title":"Hit and Run","author":"Johnstone, Doug","year":null,"url":null,"placename":"Rankeillor Street","snippet":"He waited a moment. '15 Rankeillor Street. Thank you.'    "},{"title":"Hit and Run","author":"Johnstone, Doug","year":null,"url":null,"placename":"Rankeillor Street","snippet":"He'd toyed with the idea of leaving her behind, she had no business here, but where could he have put her? He couldn't go back to Rankeillor Street and he had nowhere else. He hoped Rose got his message.    "},{"title":"Hit and Run","author":"Johnstone, Doug","year":null,"url":null,"placename":"Rankeillor Street","snippet":"'Rankeillor Street?'    "}]