[{"title":"The Works of Robert Louis Stevenson - Swanston Edition, Vol. 25","author":"Stevenson, Robert Louis","year":null,"url":"http:\/\/www.gutenberg.org\/ebooks\/30714","placename":"Mein","snippet":"\"Mein Herz ist im Hochland,\" xxiii.    "},{"title":"The Antiquary - Complete","author":"Scott, Walter","year":null,"url":"http:\/\/www.gutenberg.org\/ebooks\/7005","placename":"Mein","snippet":"Mein himmel! then there mustbe a number two, mein goot friend: for search is what you call to seekand dig, and this is but number one! Mine wort, there is one great bigprize in de wheel for us, goot Maister Ochiltree.\"    "},{"title":"The Antiquary - Complete","author":"Scott, Walter","year":null,"url":"http:\/\/www.gutenberg.org\/ebooks\/7005","placename":"Mein","snippet":"\"Ach, himmel!--Mein goot friend, what was it I said?--I did mean to sayyou should have de tree quarter for your half, and de one quarter to bemy fair half.\"    "},{"title":"The Antiquary - Complete","author":"Scott, Walter","year":null,"url":"http:\/\/www.gutenberg.org\/ebooks\/7005","placename":"Mein","snippet":"\"Mein friend,\" answered the adept, foreed by circumstances to speaksomething nearer the truth than he generally used to do, \"I believed itno more than you and no man at all, till I did hear them hone and moanand groan myself on de oder night, and till I did this day see de cause,which was an great chest all full of de pure silver from Mexico--and whatwould you ave nae think den?\"    "},{"title":"The Firm of Girdlestone","author":"Doyle, Arthur Conan","year":null,"url":"http:\/\/www.gutenberg.org\/ebooks\/13152","placename":"Mein","snippet":"\"Mein Gott!\" Von Baumser ejaculated.    "},{"title":"The Firm of Girdlestone","author":"Doyle, Arthur Conan","year":null,"url":"http:\/\/www.gutenberg.org\/ebooks\/13152","placename":"Mein","snippet":"\"Mein Gott!\" cried Von Baumser.    "},{"title":"The Firm of Girdlestone","author":"Doyle, Arthur Conan","year":null,"url":"http:\/\/www.gutenberg.org\/ebooks\/13152","placename":"Mein","snippet":"\"Mein Gott!\" he exclaimed,\"Gnadiger Vater!  Ach Himmel!  Was fur eine Schatze!  Donnerwetter!\" unda thousand other cacophonous expressions of satisfaction and amazement.    "},{"title":"By Adverse Winds. [A novel.]","author":"Smeaton, William Henry Oliphant.","year":"1895-01-01","url":"https:\/\/historicaltexts.jisc.ac.uk\/bl-003410436","placename":"Mein","snippet":"\"Mein Gott, ton't pring me into Gourt, vatefer you to,\"said the old fedow earnestly.    "},{"title":"By Adverse Winds. [A novel.]","author":"Smeaton, William Henry Oliphant.","year":"1895-01-01","url":"https:\/\/historicaltexts.jisc.ac.uk\/bl-003410436","placename":"Mein","snippet":"\" Mein Gott, unt vill you geep dot sveet yung greeture inzorrow ofer your det, unt you alife all ze time ?\"    "},{"title":"By Adverse Winds. [A novel.]","author":"Smeaton, William Henry Oliphant.","year":"1895-01-01","url":"https:\/\/historicaltexts.jisc.ac.uk\/bl-003410436","placename":"Mein","snippet":"\" Mein frent, dot laty zaid to me dot she vas ze vise of zeshentlemans who did bawn ze vatch.    "},{"title":"By Adverse Winds. [A novel.]","author":"Smeaton, William Henry Oliphant.","year":"1895-01-01","url":"https:\/\/historicaltexts.jisc.ac.uk\/bl-003410436","placename":"Mein","snippet":"\" Mein goot Herr Eopert Armitage \"\u2014\" Good gracious ! what do you mean ?\u2014who told you that    "},{"title":"By Adverse Winds. [A novel.]","author":"Smeaton, William Henry Oliphant.","year":"1895-01-01","url":"https:\/\/historicaltexts.jisc.ac.uk\/bl-003410436","placename":"Mein","snippet":"Bresently in goms a shentlemans and zez zu mir,' How mooch vor dot vatch in der vintow ?' I zez to heem,zez I, ' Mein Herr, dot vatch ees not for zale.    "},{"title":"By Adverse Winds. [A novel.]","author":"Smeaton, William Henry Oliphant.","year":"1895-01-01","url":"https:\/\/historicaltexts.jisc.ac.uk\/bl-003410436","placename":"Mein","snippet":"\" Mein frent, I hav' no lonker your vatch, bot shust listento me ; I\"\u2014    "},{"title":"By Adverse Winds. [A novel.]","author":"Smeaton, William Henry Oliphant.","year":"1895-01-01","url":"https:\/\/historicaltexts.jisc.ac.uk\/bl-003410436","placename":"Mein","snippet":"\" Mein Gott, bot you vas det! how den can you be alife ?\"    "},{"title":"By Adverse Winds. [A novel.]","author":"Smeaton, William Henry Oliphant.","year":"1895-01-01","url":"https:\/\/historicaltexts.jisc.ac.uk\/bl-003410436","placename":"Mein","snippet":"\" I vas tolt you vas det! Mein Gott, vat am I goin' zu do ?Himmel\u2014Holy Fader Apraham !\"    "},{"title":"By Adverse Winds. [A novel.]","author":"Smeaton, William Henry Oliphant.","year":"1895-01-01","url":"https:\/\/historicaltexts.jisc.ac.uk\/bl-003410436","placename":"Mein","snippet":"\" Ten tousan' fools ! Mein goot zur, du bist\u2014ja\u2014ja\u2014I villnot zay vat I vas going to zay.    "},{"title":"Hanleys; or, Wheels within wheels","author":"Caumont, Mary.","year":null,"url":"https:\/\/historicaltexts.jisc.ac.uk\/bl-000638170","placename":"Mein","snippet":"' Yes, I owe him much,' replied Alice; ' but I am alsograteful to Mrs. Schonfelder, and to you, Mein Herr, forbringing me home that day and sending for the doctor soquickly.'    "}]