[{"title":"The Lilac Sunbonnet: A Love Story","author":"Crockett, S. R. (Samuel Rutherford)","year":null,"url":"http:\/\/www.gutenberg.org\/ebooks\/4918","placename":"Moniaive","snippet":"From Moniaive they followed thewindings of a flashing burn, daching and roaring in a shallowlinn, here and there white with foam and fretting, and againdimpling black in some deep and quiet pool.    "},{"title":"The Lilac Sunbonnet: A Love Story","author":"Crockett, S. R. (Samuel Rutherford)","year":null,"url":"http:\/\/www.gutenberg.org\/ebooks\/4918","placename":"Moniaive","snippet":"Soon Ralph and Jock Gordon were striding across the moors towardsMoniaive.    "},{"title":"John and Betty's Scotch history visit,","author":"Williamson, Margaret. [from old catalog]","year":"1912-01-01","url":"http:\/\/babel.hathitrust.org\/cgi\/pt?id=loc.ark:\/13960\/t1pg2bx22","placename":"Moniaive","snippet":"* ^ Yes, Annie Laurie was born here, but, when she married James Ferguson, she lived at Craigdarroch House, only a short distance beyond  this next town of Moniaive.\"    "},{"title":"Ruth Farmer. A story","author":"Marchbank, Agnes.","year":"1896-01-01","url":"https:\/\/historicaltexts.jisc.ac.uk\/bl-002377152","placename":"Moniaive","snippet":"We'll be at Moniaive in less than notime.\"    "},{"title":"Ruth Farmer. A story","author":"Marchbank, Agnes.","year":"1896-01-01","url":"https:\/\/historicaltexts.jisc.ac.uk\/bl-002377152","placename":"Moniaive","snippet":"It was a note asking her to go at once to thePolice Office, as a child, supposed to be hers, hadbeen found at Moniaive.    "},{"title":"Ruth Farmer. A story","author":"Marchbank, Agnes.","year":"1896-01-01","url":"https:\/\/historicaltexts.jisc.ac.uk\/bl-002377152","placename":"Moniaive","snippet":"Mrs. Johnstone, meanwhile, seized the opportunity of stopping the ticking of the clock, for it isheld in Moniaive that the sound of a clock tickingbeside the dying, disturbs the spirit.    "},{"title":"Ruth Farmer. A story","author":"Marchbank, Agnes.","year":"1896-01-01","url":"https:\/\/historicaltexts.jisc.ac.uk\/bl-002377152","placename":"Moniaive","snippet":"He was ayoung man, but newly come to the Free Kirk ofMoniaive, and this was his first experience of a deathbed.    "},{"title":"Ruth Farmer. A story","author":"Marchbank, Agnes.","year":"1896-01-01","url":"https:\/\/historicaltexts.jisc.ac.uk\/bl-002377152","placename":"Moniaive","snippet":"The old postmaster of Moniaive was now- confinedto bed, and the sticks he used to hobble about withwere stuck up useless in the corner of the room wherehe lay.    "},{"title":"Ruth Farmer. A story","author":"Marchbank, Agnes.","year":"1896-01-01","url":"https:\/\/historicaltexts.jisc.ac.uk\/bl-002377152","placename":"Moniaive","snippet":"For, as there was no need to waste oilin showing outsiders what vvas in Davie Johnstone'swindows\u2014everybody in Moniaive knew their contents    "},{"title":"Ruth Farmer. A story","author":"Marchbank, Agnes.","year":"1896-01-01","url":"https:\/\/historicaltexts.jisc.ac.uk\/bl-002377152","placename":"Moniaive","snippet":"Everybody in andabout Moniaive knew that Davie Johnstone soldbread, fancy and plain, also self-rising flour, fine oatmeal, best fresh butter and eggs.    "},{"title":"Ruth Farmer. A story","author":"Marchbank, Agnes.","year":"1896-01-01","url":"https:\/\/historicaltexts.jisc.ac.uk\/bl-002377152","placename":"Moniaive","snippet":"To hear, however, thatshe was probably alive was indeed exciting; andhe there and then began to wonder how this newswould affect the village of Moniaive.    "},{"title":"Ruth Farmer. A story","author":"Marchbank, Agnes.","year":"1896-01-01","url":"https:\/\/historicaltexts.jisc.ac.uk\/bl-002377152","placename":"Moniaive","snippet":"In all ofthe cottage gardens spring flowers were making thingsbright\u2014cowslip and primrose and narcissus, scillasand hyacinths and anemones, daisies and pansies andauriculas, were lending all sorts of colour to thecottage gardens in Moniaive.    "},{"title":"Ruth Farmer. A story","author":"Marchbank, Agnes.","year":"1896-01-01","url":"https:\/\/historicaltexts.jisc.ac.uk\/bl-002377152","placename":"Moniaive","snippet":"\" Please, sir, I was at Moniaive, sir,\" said he, as heexamined the brim of his felt hat.    "},{"title":"Ruth Farmer. A story","author":"Marchbank, Agnes.","year":"1896-01-01","url":"https:\/\/historicaltexts.jisc.ac.uk\/bl-002377152","placename":"Moniaive","snippet":"Fortunately the coming andgoing of workmen to that place had recently madethings lively in Moniaive.    "},{"title":"Ruth Farmer. A story","author":"Marchbank, Agnes.","year":"1896-01-01","url":"https:\/\/historicaltexts.jisc.ac.uk\/bl-002377152","placename":"Moniaive","snippet":"Like all the womankind in Moniaive, Miss Betsy liked a good gossip,and wanted to see if any people or parcels weregoing from Havannah.    "},{"title":"Ruth Farmer. A story","author":"Marchbank, Agnes.","year":"1896-01-01","url":"https:\/\/historicaltexts.jisc.ac.uk\/bl-002377152","placename":"Moniaive","snippet":"The doings at Havannah were now the talk of thegood people of Moniaive, and Davie Johnstone walkedup daily to inspect the improvements, even wanderingat his own sweet will into the house, of which he soongot to know every corner.    "},{"title":"Ruth Farmer. A story","author":"Marchbank, Agnes.","year":"1896-01-01","url":"https:\/\/historicaltexts.jisc.ac.uk\/bl-002377152","placename":"Moniaive","snippet":"\" What's the reason for all thisto do ? Are the French coming up Glen Cairn toMoniaive ? \"    "},{"title":"Ruth Farmer. A story","author":"Marchbank, Agnes.","year":"1896-01-01","url":"https:\/\/historicaltexts.jisc.ac.uk\/bl-002377152","placename":"Moniaive","snippet":"John was one evening walking over the littlebridge that joins the two divisions of the village ofMoniaive.    "},{"title":"Ruth Farmer. A story","author":"Marchbank, Agnes.","year":"1896-01-01","url":"https:\/\/historicaltexts.jisc.ac.uk\/bl-002377152","placename":"Moniaive","snippet":"\" Go to Moniaive and visit the village people,\"laughed Paterson, a little scornfully.    "},{"title":"Lilac Sunbonnet","author":"Crockett, Samuel Rutherford.","year":"1894-01-01","url":"https:\/\/historicaltexts.jisc.ac.uk\/bl-000821642","placename":"Moniaive","snippet":"FromMoniaive they followed the windings of a flashingburn, dashing and roaring in a shallow linn, here andthere white with foam and fretting, and again dimplingblack in some deep and quiet pool.    "},{"title":"Lilac Sunbonnet","author":"Crockett, Samuel Rutherford.","year":"1894-01-01","url":"https:\/\/historicaltexts.jisc.ac.uk\/bl-000821642","placename":"Moniaive","snippet":"Soon Ralph and Jock Gordon were striding acrossthe moors towards Moniaive.    "}]