[{"title":"The Dew of Their Youth","author":"Crockett, S. R. (Samuel Rutherford)","year":null,"url":"http:\/\/www.gutenberg.org\/ebooks\/23736","placename":"Gallaberry","snippet":"I reasoned with her, but I might as well have tried logic on theGallaberry black-faced ewes.    "},{"title":"The Dew of Their Youth","author":"Crockett, S. R. (Samuel Rutherford)","year":null,"url":"http:\/\/www.gutenberg.org\/ebooks\/23736","placename":"Gallaberry","snippet":"I reasoned with her, but I might as well have tried logic on theGallaberry black-faced ewes.    "},{"title":"The Stickit minister :","author":"Crockett, S. R.","year":"1894-01-01","url":"http:\/\/babel.hathitrust.org\/cgi\/pt?id=uc2.ark:\/13960\/t4jm27r6g","placename":"Gallaberry","snippet":"\" Na,\" said Rob, seriously ; \" it's for Tarn M'Kittrick o' the Gallaberry.    "},{"title":"The Stickit minister :","author":"Crockett, S. R.","year":"1894-01-01","url":"http:\/\/babel.hathitrust.org\/cgi\/pt?id=uc2.ark:\/13960\/t4jm27r6g","placename":"Gallaberry","snippet":"\" Stan' up, then, Tam M'Kittrick frae the Gallaberry,  for I'm gaun to gie ye the best lickin' ye ever got in your life ! \"    "},{"title":"The Stickit minister :","author":"Crockett, S. R.","year":"1894-01-01","url":"http:\/\/babel.hathitrust.org\/cgi\/pt?id=uc2.ark:\/13960\/t4jm27r6g","placename":"Gallaberry","snippet":"I'm Tam M'Kittrick frae the Gallaberry ! \"    "},{"title":"The Stickit minister,","author":"Crockett, S. R.","year":"1893-01-01","url":"http:\/\/babel.hathitrust.org\/cgi\/pt?id=uc2.ark:\/13960\/t1mg7hb6q","placename":"Gallaberry","snippet":"\"Na,\" said Rob, seriously; \"it's for Tarn M'Kittrick o' the Gallaberry.    "},{"title":"The Stickit minister,","author":"Crockett, S. R.","year":"1893-01-01","url":"http:\/\/babel.hathitrust.org\/cgi\/pt?id=uc2.ark:\/13960\/t1mg7hb6q","placename":"Gallaberry","snippet":"\" Stan' up, then, Tarn M'Kittrick frae the Gallaberry,  for I'm gaun to gie ye the best lickin' ye ever got in your life ! \"    "},{"title":"The Stickit minister,","author":"Crockett, S. R.","year":"1893-01-01","url":"http:\/\/babel.hathitrust.org\/cgi\/pt?id=uc2.ark:\/13960\/t1mg7hb6q","placename":"Gallaberry","snippet":"I'm Tarn M'Kittrick frae the Gallaberry ! \"    "},{"title":"Stickit Minister, and some common men","author":"Crockett, Samuel Rutherford.","year":"1893-01-01","url":"https:\/\/historicaltexts.jisc.ac.uk\/bl-000821679","placename":"Gallaberry","snippet":"\" Na,\" said Rob, seriously ; \" it's for TamM'Kittrick o' the Gallaberry.    "},{"title":"Stickit Minister, and some common men","author":"Crockett, Samuel Rutherford.","year":"1893-01-01","url":"https:\/\/historicaltexts.jisc.ac.uk\/bl-000821679","placename":"Gallaberry","snippet":"\" Stan' up, then, Tam M'Kittrick frae the Gallaberry, for I'm gaun to gie ye the best lickin' yeever got in your life ! \"    "},{"title":"Stickit Minister, and some common men","author":"Crockett, Samuel Rutherford.","year":"1893-01-01","url":"https:\/\/historicaltexts.jisc.ac.uk\/bl-000821679","placename":"Gallaberry","snippet":"I'm TamM'Kittrick frae the Gallaberry ! \"    "}]