[{"title":"The Heather-Moon","author":"Williamson, C. N. (Charles Norris)","year":null,"url":"http:\/\/www.gutenberg.org\/ebooks\/19742","placename":"Ellisland","snippet":"At Ellisland, Burns lived for a longtime with his handsome wife, Jean Armour.    "},{"title":"The Heather-Moon","author":"Williamson, C. N. (Charles Norris)","year":null,"url":"http:\/\/www.gutenberg.org\/ebooks\/19742","placename":"Ellisland","snippet":"AtNew Cumnock he would spend a night sometimes on his way to Ellisland,his \"farm that would not pay,\" near Dumfries.    "},{"title":"The Heather-Moon","author":"Williamson, C. N. (Charles Norris)","year":null,"url":"http:\/\/www.gutenberg.org\/ebooks\/19742","placename":"Ellisland","snippet":"At Ellisland, Burns lived for a longtime with his handsome wife, Jean Armour.    "},{"title":"The Heather-Moon","author":"Williamson, C. N. (Charles Norris)","year":null,"url":"http:\/\/www.gutenberg.org\/ebooks\/19742","placename":"Ellisland","snippet":"AtNew Cumnock he would spend a night sometimes on his way to Ellisland,his \"farm that would not pay,\" near Dumfries.    "},{"title":"Wilson's Tales of the Borders and of Scotland, Volume 14","author":"Various","year":null,"url":"http:\/\/www.gutenberg.org\/ebooks\/34151","placename":"Ellisland","snippet":"Now,Brownhill was a very convenient half-way house betwixt Thornhill and hishome at Ellisland; and, accordingly, Burns' little stout pony (which Iremember well, though I forget the name) would seldom pass Brownhill.    "},{"title":"Wilson's Tales of the Borders and of Scotland, Volume 14","author":"Various","year":null,"url":"http:\/\/www.gutenberg.org\/ebooks\/34151","placename":"Ellisland","snippet":"Burns lived at this time at Ellisland, about two miles lower down thevale than the Three Brethren, and about three miles from Brownhill.    "},{"title":"Wilson's Tales of the Borders and of Scotland, Volume 14","author":"Various","year":null,"url":"http:\/\/www.gutenberg.org\/ebooks\/34151","placename":"Ellisland","snippet":"Now,Brownhill was a very convenient half-way house betwixt Thornhill and hishome at Ellisland; and, accordingly, Burns' little stout pony (which Iremember well, though I forget the name) would seldom pass Brownhill.    "},{"title":"Wilson's Tales of the Borders and of Scotland, Volume 14","author":"Various","year":null,"url":"http:\/\/www.gutenberg.org\/ebooks\/34151","placename":"Ellisland","snippet":"Burns lived at this time at Ellisland, about two miles lower down thevale than the Three Brethren, and about three miles from Brownhill.    "},{"title":"The Story of My Life, volumes 4-6","author":"Hare, Augustus J. C. (Augustus John Cuthbert)","year":null,"url":"http:\/\/www.gutenberg.org\/ebooks\/42770","placename":"Ellisland","snippet":"Ellisland, ii.    "},{"title":"The Story of My Life, volumes 4-6","author":"Hare, Augustus J. C. (Augustus John Cuthbert)","year":null,"url":"http:\/\/www.gutenberg.org\/ebooks\/42770","placename":"Ellisland","snippet":"Ellisland, ii.    "},{"title":"The Letters of Robert Burns","author":"Burns, Robert","year":null,"url":"http:\/\/www.gutenberg.org\/ebooks\/9863","placename":"Ellisland","snippet":"[Footnote 122: Of Wanlockhead. Burns got to know him during his   frequent journeys between Ellisland and Mauchline in 1788-9.]    "},{"title":"The Letters of Robert Burns","author":"Burns, Robert","year":null,"url":"http:\/\/www.gutenberg.org\/ebooks\/9863","placename":"Ellisland","snippet":"ELLISLAND, _Sept. 1st_, 1791.    "},{"title":"The Letters of Robert Burns","author":"Burns, Robert","year":null,"url":"http:\/\/www.gutenberg.org\/ebooks\/9863","placename":"Ellisland","snippet":"ELLISLAND, 11_th April_ 1791.    "},{"title":"The Letters of Robert Burns","author":"Burns, Robert","year":null,"url":"http:\/\/www.gutenberg.org\/ebooks\/9863","placename":"Ellisland","snippet":"ELLISLAND, 2_th March_ 1791.    "},{"title":"The Letters of Robert Burns","author":"Burns, Robert","year":null,"url":"http:\/\/www.gutenberg.org\/ebooks\/9863","placename":"Ellisland","snippet":"ELLISLAND, _near Dumfries 14th Feb. 1791._    "},{"title":"The Letters of Robert Burns","author":"Burns, Robert","year":null,"url":"http:\/\/www.gutenberg.org\/ebooks\/9863","placename":"Ellisland","snippet":"ELLISLAND, 28_th January_ 1791.    "},{"title":"The Letters of Robert Burns","author":"Burns, Robert","year":null,"url":"http:\/\/www.gutenberg.org\/ebooks\/9863","placename":"Ellisland","snippet":"ELLISLAND, 17_th January_ 1791.    "},{"title":"The Letters of Robert Burns","author":"Burns, Robert","year":null,"url":"http:\/\/www.gutenberg.org\/ebooks\/9863","placename":"Ellisland","snippet":"ELLISLAND, 17_th January_ 1791.    "},{"title":"The Letters of Robert Burns","author":"Burns, Robert","year":null,"url":"http:\/\/www.gutenberg.org\/ebooks\/9863","placename":"Ellisland","snippet":"ELLISLAND, 15th _October_ 1790.    "},{"title":"The Letters of Robert Burns","author":"Burns, Robert","year":null,"url":"http:\/\/www.gutenberg.org\/ebooks\/9863","placename":"Ellisland","snippet":"ELLISLAND, _July_ 16_th_, 1790.    "},{"title":"The Letters of Robert Burns","author":"Burns, Robert","year":null,"url":"http:\/\/www.gutenberg.org\/ebooks\/9863","placename":"Ellisland","snippet":"ELLISLAND, 16th DECEMBER 1789.    "},{"title":"The Letters of Robert Burns","author":"Burns, Robert","year":null,"url":"http:\/\/www.gutenberg.org\/ebooks\/9863","placename":"Ellisland","snippet":"ELLISLAND, 1_st Nov_.    "},{"title":"The Letters of Robert Burns","author":"Burns, Robert","year":null,"url":"http:\/\/www.gutenberg.org\/ebooks\/9863","placename":"Ellisland","snippet":"ELLISLAND, 14_th Aug_.    "},{"title":"The Letters of Robert Burns","author":"Burns, Robert","year":null,"url":"http:\/\/www.gutenberg.org\/ebooks\/9863","placename":"Ellisland","snippet":"ELLISLAND, NEAR DUMFRIES, 7_th Aug_.    "},{"title":"The Letters of Robert Burns","author":"Burns, Robert","year":null,"url":"http:\/\/www.gutenberg.org\/ebooks\/9863","placename":"Ellisland","snippet":"ELLISLAND, 31st _july_ 1789.    "},{"title":"The Letters of Robert Burns","author":"Burns, Robert","year":null,"url":"http:\/\/www.gutenberg.org\/ebooks\/9863","placename":"Ellisland","snippet":"ELLISLAND, 21_st June_ 1789.    "},{"title":"The Letters of Robert Burns","author":"Burns, Robert","year":null,"url":"http:\/\/www.gutenberg.org\/ebooks\/9863","placename":"Ellisland","snippet":"My direction is at Ellisland, near Dumfries.--Yours,    "},{"title":"The Letters of Robert Burns","author":"Burns, Robert","year":null,"url":"http:\/\/www.gutenberg.org\/ebooks\/9863","placename":"Ellisland","snippet":"ELLISLAND, _Mar. 9th_, 1789.    "},{"title":"The Letters of Robert Burns","author":"Burns, Robert","year":null,"url":"http:\/\/www.gutenberg.org\/ebooks\/9863","placename":"Ellisland","snippet":"ELLISLAND, 4_th March_ 1789.    "},{"title":"The Letters of Robert Burns","author":"Burns, Robert","year":null,"url":"http:\/\/www.gutenberg.org\/ebooks\/9863","placename":"Ellisland","snippet":"[Footnote 95: \"Fanny Burns, the Poet's relation, merited all the   commendations he has here bestowed. I remember her while she lived at   Ellisland, and better still as the wife of Adam Armour, the brother   of bonnie Jean.\"--CUNNINGHAM.]    "},{"title":"The Letters of Robert Burns","author":"Burns, Robert","year":null,"url":"http:\/\/www.gutenberg.org\/ebooks\/9863","placename":"Ellisland","snippet":"ELLISLAND, 23_rd Jan_.    "},{"title":"The Letters of Robert Burns","author":"Burns, Robert","year":null,"url":"http:\/\/www.gutenberg.org\/ebooks\/9863","placename":"Ellisland","snippet":"ELLISLAND, 20_th Jan_.    "},{"title":"The Letters of Robert Burns","author":"Burns, Robert","year":null,"url":"http:\/\/www.gutenberg.org\/ebooks\/9863","placename":"Ellisland","snippet":"ELLISLAND, _January_ 6_th_, 1789.    "},{"title":"The Letters of Robert Burns","author":"Burns, Robert","year":null,"url":"http:\/\/www.gutenberg.org\/ebooks\/9863","placename":"Ellisland","snippet":"ELLISLAND, 4_th Jan._    "},{"title":"The Letters of Robert Burns","author":"Burns, Robert","year":null,"url":"http:\/\/www.gutenberg.org\/ebooks\/9863","placename":"Ellisland","snippet":"ELLISLAND, _New-year-day Morning_, 1789.    "},{"title":"The Letters of Robert Burns","author":"Burns, Robert","year":null,"url":"http:\/\/www.gutenberg.org\/ebooks\/9863","placename":"Ellisland","snippet":"Pleasewrite me by first post, and direct to me at Ellisland, near Dumfries.    "},{"title":"The Letters of Robert Burns","author":"Burns, Robert","year":null,"url":"http:\/\/www.gutenberg.org\/ebooks\/9863","placename":"Ellisland","snippet":"ELLISLAND, 17_th December_ 1788.    "},{"title":"The Letters of Robert Burns","author":"Burns, Robert","year":null,"url":"http:\/\/www.gutenberg.org\/ebooks\/9863","placename":"Ellisland","snippet":"In a fortnight I move, bag and baggage, to Nithsdale; till then, mydirection is at this place; after that period, it will be at Ellisland,near Dumfries.    "},{"title":"The Letters of Robert Burns","author":"Burns, Robert","year":null,"url":"http:\/\/www.gutenberg.org\/ebooks\/9863","placename":"Ellisland","snippet":"Ellisland, _September_ 22_nd_ 1788.    "},{"title":"The Letters of Robert Burns","author":"Burns, Robert","year":null,"url":"http:\/\/www.gutenberg.org\/ebooks\/9863","placename":"Ellisland","snippet":"ELLISLAND, _Friday_, 12_th Sep._    "},{"title":"The Letters of Robert Burns","author":"Burns, Robert","year":null,"url":"http:\/\/www.gutenberg.org\/ebooks\/9863","placename":"Ellisland","snippet":"ELLISLAND, 9_th Sept._    "},{"title":"The Letters of Robert Burns","author":"Burns, Robert","year":null,"url":"http:\/\/www.gutenberg.org\/ebooks\/9863","placename":"Ellisland","snippet":"ELLISLAND, 16_th August_ 1788.    "},{"title":"The Letters of Robert Burns","author":"Burns, Robert","year":null,"url":"http:\/\/www.gutenberg.org\/ebooks\/9863","placename":"Ellisland","snippet":"ELLISLAND, _June 14th_, 1788.    "},{"title":"The Letters of Robert Burns","author":"Burns, Robert","year":null,"url":"http:\/\/www.gutenberg.org\/ebooks\/9863","placename":"Ellisland","snippet":"ELLISLAND, 13_th June_ 1788.    "},{"title":"The Letters of Robert Burns","author":"Burns, Robert","year":null,"url":"http:\/\/www.gutenberg.org\/ebooks\/9863","placename":"Ellisland","snippet":"[Footnote 76: Ellisland, near Dumfries.]    "},{"title":"The Letters of Robert Burns","author":"Burns, Robert","year":null,"url":"http:\/\/www.gutenberg.org\/ebooks\/9863","placename":"Ellisland","snippet":"Yesternight Icompleted a bargain with Mr. Miller, of Dalswinton, for the farm ofEllisland, on the banks of the Nith, between five and six miles aboveDumfries.    "},{"title":"The Letters of Robert Burns","author":"Burns, Robert","year":null,"url":"http:\/\/www.gutenberg.org\/ebooks\/9863","placename":"Ellisland","snippet":"Thetruth is that Burns came to Ellisland with numerous schemes of futurepoetical work, vigorous hopes of carrying some of them, and aninspiration and faculty of utterance unimpaired.    "},{"title":"The Letters of Robert Burns","author":"Burns, Robert","year":null,"url":"http:\/\/www.gutenberg.org\/ebooks\/9863","placename":"Ellisland","snippet":"His prose consists mostly of letters, but it also includes a noblefragment of autobiography; three journals of observations made atMossgiel, Edinburgh, and Ellisland respectively; two itineraries, theone of his border tour, the other of his tour in the Highlands; andhistorical notes to two collections of Scottish songs.    "},{"title":"The Letters of Robert Burns","author":"Burns, Robert","year":null,"url":"http:\/\/www.gutenberg.org\/ebooks\/9863","placename":"Ellisland","snippet":"[Footnote 122: Of Wanlockhead. Burns got to know him during his   frequent journeys between Ellisland and Mauchline in 1788-9.]    "},{"title":"The Letters of Robert Burns","author":"Burns, Robert","year":null,"url":"http:\/\/www.gutenberg.org\/ebooks\/9863","placename":"Ellisland","snippet":"ELLISLAND, _Sept. 1st_, 1791.    "},{"title":"The Letters of Robert Burns","author":"Burns, Robert","year":null,"url":"http:\/\/www.gutenberg.org\/ebooks\/9863","placename":"Ellisland","snippet":"ELLISLAND, 2_th March_ 1791.    "},{"title":"The Letters of Robert Burns","author":"Burns, Robert","year":null,"url":"http:\/\/www.gutenberg.org\/ebooks\/9863","placename":"Ellisland","snippet":"ELLISLAND, _near Dumfries 14th Feb. 1791._    "},{"title":"The Letters of Robert Burns","author":"Burns, Robert","year":null,"url":"http:\/\/www.gutenberg.org\/ebooks\/9863","placename":"Ellisland","snippet":"ELLISLAND, 28_th January_ 1791.    "},{"title":"The Letters of Robert Burns","author":"Burns, Robert","year":null,"url":"http:\/\/www.gutenberg.org\/ebooks\/9863","placename":"Ellisland","snippet":"ELLISLAND, 17_th January_ 1791.    "},{"title":"The Letters of Robert Burns","author":"Burns, Robert","year":null,"url":"http:\/\/www.gutenberg.org\/ebooks\/9863","placename":"Ellisland","snippet":"ELLISLAND, 17_th January_ 1791.    "},{"title":"The Letters of Robert Burns","author":"Burns, Robert","year":null,"url":"http:\/\/www.gutenberg.org\/ebooks\/9863","placename":"Ellisland","snippet":"ELLISLAND, 15th _October_ 1790.    "},{"title":"The Letters of Robert Burns","author":"Burns, Robert","year":null,"url":"http:\/\/www.gutenberg.org\/ebooks\/9863","placename":"Ellisland","snippet":"ELLISLAND, _July_ 16_th_, 1790.    "},{"title":"The Letters of Robert Burns","author":"Burns, Robert","year":null,"url":"http:\/\/www.gutenberg.org\/ebooks\/9863","placename":"Ellisland","snippet":"ELLISLAND, 16th DECEMBER 1789.    "},{"title":"The Letters of Robert Burns","author":"Burns, Robert","year":null,"url":"http:\/\/www.gutenberg.org\/ebooks\/9863","placename":"Ellisland","snippet":"ELLISLAND, 1_st Nov_.    "},{"title":"The Letters of Robert Burns","author":"Burns, Robert","year":null,"url":"http:\/\/www.gutenberg.org\/ebooks\/9863","placename":"Ellisland","snippet":"ELLISLAND, 14_th Aug_.    "},{"title":"The Letters of Robert Burns","author":"Burns, Robert","year":null,"url":"http:\/\/www.gutenberg.org\/ebooks\/9863","placename":"Ellisland","snippet":"ELLISLAND, NEAR DUMFRIES, 7_th Aug_.    "},{"title":"The Letters of Robert Burns","author":"Burns, Robert","year":null,"url":"http:\/\/www.gutenberg.org\/ebooks\/9863","placename":"Ellisland","snippet":"ELLISLAND, 31st _july_ 1789.    "},{"title":"The Letters of Robert Burns","author":"Burns, Robert","year":null,"url":"http:\/\/www.gutenberg.org\/ebooks\/9863","placename":"Ellisland","snippet":"ELLISLAND, 21_st June_ 1789.    "},{"title":"The Letters of Robert Burns","author":"Burns, Robert","year":null,"url":"http:\/\/www.gutenberg.org\/ebooks\/9863","placename":"Ellisland","snippet":"My direction is at Ellisland, near Dumfries.--Yours,    "},{"title":"The Letters of Robert Burns","author":"Burns, Robert","year":null,"url":"http:\/\/www.gutenberg.org\/ebooks\/9863","placename":"Ellisland","snippet":"ELLISLAND, _Mar. 9th_, 1789.    "},{"title":"The Letters of Robert Burns","author":"Burns, Robert","year":null,"url":"http:\/\/www.gutenberg.org\/ebooks\/9863","placename":"Ellisland","snippet":"ELLISLAND, 4_th March_ 1789.    "},{"title":"The Letters of Robert Burns","author":"Burns, Robert","year":null,"url":"http:\/\/www.gutenberg.org\/ebooks\/9863","placename":"Ellisland","snippet":"[Footnote 95: \"Fanny Burns, the Poet's relation, merited all the   commendations he has here bestowed. I remember her while she lived at   Ellisland, and better still as the wife of Adam Armour, the brother   of bonnie Jean.\"--CUNNINGHAM.]    "},{"title":"The Letters of Robert Burns","author":"Burns, Robert","year":null,"url":"http:\/\/www.gutenberg.org\/ebooks\/9863","placename":"Ellisland","snippet":"ELLISLAND, 23_rd Jan_.    "},{"title":"The Letters of Robert Burns","author":"Burns, Robert","year":null,"url":"http:\/\/www.gutenberg.org\/ebooks\/9863","placename":"Ellisland","snippet":"ELLISLAND, 20_th Jan_.    "},{"title":"The Letters of Robert Burns","author":"Burns, Robert","year":null,"url":"http:\/\/www.gutenberg.org\/ebooks\/9863","placename":"Ellisland","snippet":"ELLISLAND, _January_ 6_th_, 1789.    "},{"title":"The Letters of Robert Burns","author":"Burns, Robert","year":null,"url":"http:\/\/www.gutenberg.org\/ebooks\/9863","placename":"Ellisland","snippet":"ELLISLAND, 4_th Jan._    "},{"title":"The Letters of Robert Burns","author":"Burns, Robert","year":null,"url":"http:\/\/www.gutenberg.org\/ebooks\/9863","placename":"Ellisland","snippet":"ELLISLAND, _New-year-day Morning_, 1789.    "},{"title":"The Letters of Robert Burns","author":"Burns, Robert","year":null,"url":"http:\/\/www.gutenberg.org\/ebooks\/9863","placename":"Ellisland","snippet":"Pleasewrite me by first post, and direct to me at Ellisland, near Dumfries.    "},{"title":"The Letters of Robert Burns","author":"Burns, Robert","year":null,"url":"http:\/\/www.gutenberg.org\/ebooks\/9863","placename":"Ellisland","snippet":"ELLISLAND, 17_th December_ 1788.    "},{"title":"The Letters of Robert Burns","author":"Burns, Robert","year":null,"url":"http:\/\/www.gutenberg.org\/ebooks\/9863","placename":"Ellisland","snippet":"In a fortnight I move, bag and baggage, to Nithsdale; till then, mydirection is at this place; after that period, it will be at Ellisland,near Dumfries.    "},{"title":"The Letters of Robert Burns","author":"Burns, Robert","year":null,"url":"http:\/\/www.gutenberg.org\/ebooks\/9863","placename":"Ellisland","snippet":"Ellisland, _September_ 22_nd_ 1788.    "},{"title":"The Letters of Robert Burns","author":"Burns, Robert","year":null,"url":"http:\/\/www.gutenberg.org\/ebooks\/9863","placename":"Ellisland","snippet":"ELLISLAND, _Friday_, 12_th Sep._    "},{"title":"The Letters of Robert Burns","author":"Burns, Robert","year":null,"url":"http:\/\/www.gutenberg.org\/ebooks\/9863","placename":"Ellisland","snippet":"ELLISLAND, 9_th Sept._    "},{"title":"The Letters of Robert Burns","author":"Burns, Robert","year":null,"url":"http:\/\/www.gutenberg.org\/ebooks\/9863","placename":"Ellisland","snippet":"ELLISLAND, 16_th August_ 1788.    "},{"title":"The Letters of Robert Burns","author":"Burns, Robert","year":null,"url":"http:\/\/www.gutenberg.org\/ebooks\/9863","placename":"Ellisland","snippet":"ELLISLAND, _June 14th_, 1788.    "},{"title":"The Letters of Robert Burns","author":"Burns, Robert","year":null,"url":"http:\/\/www.gutenberg.org\/ebooks\/9863","placename":"Ellisland","snippet":"ELLISLAND, 13_th June_ 1788.    "},{"title":"The Letters of Robert Burns","author":"Burns, Robert","year":null,"url":"http:\/\/www.gutenberg.org\/ebooks\/9863","placename":"Ellisland","snippet":"[Footnote 76: Ellisland, near Dumfries.]    "},{"title":"The Letters of Robert Burns","author":"Burns, Robert","year":null,"url":"http:\/\/www.gutenberg.org\/ebooks\/9863","placename":"Ellisland","snippet":"Yesternight Icompleted a bargain with Mr. Miller, of Dalswinton, for the farm ofEllisland, on the banks of the Nith, between five and six miles aboveDumfries.    "},{"title":"The Letters of Robert Burns","author":"Burns, Robert","year":null,"url":"http:\/\/www.gutenberg.org\/ebooks\/9863","placename":"Ellisland","snippet":"Thetruth is that Burns came to Ellisland with numerous schemes of futurepoetical work, vigorous hopes of carrying some of them, and aninspiration and faculty of utterance unimpaired.    "},{"title":"The Letters of Robert Burns","author":"Burns, Robert","year":null,"url":"http:\/\/www.gutenberg.org\/ebooks\/9863","placename":"Ellisland","snippet":"His prose consists mostly of letters, but it also includes a noblefragment of autobiography; three journals of observations made atMossgiel, Edinburgh, and Ellisland respectively; two itineraries, theone of his border tour, the other of his tour in the Highlands; andhistorical notes to two collections of Scottish songs.    "},{"title":"Brown heath and blue bells :","author":"Winter, William","year":"1895-01-01","url":"http:\/\/babel.hathitrust.org\/cgi\/pt?id=loc.ark:\/13960\/t82j73z31","placename":"Ellisland","snippet":"In July, 1788, he established his residence at Ellisland,    "},{"title":"John and Betty's Scotch history visit,","author":"Williamson, Margaret. [from old catalog]","year":"1912-01-01","url":"http:\/\/babel.hathitrust.org\/cgi\/pt?id=loc.ark:\/13960\/t1pg2bx22","placename":"Ellisland","snippet":"I shall take you to Ellisland, I think.    "},{"title":"The library of choice literature :","author":null,"year":null,"url":"http:\/\/babel.hathitrust.org\/cgi\/pt?id=uc2.ark:\/13960\/t8rb6xx2s","placename":"Ellisland","snippet":"The pleasant farm at Ellisland failed, and Burns, selling    "},{"title":"The library of choice literature :","author":null,"year":null,"url":"http:\/\/babel.hathitrust.org\/cgi\/pt?id=uc2.ark:\/13960\/t8rb6xx2s","placename":"Ellisland","snippet":"\"Tarn O'Shanter,\" and \"Bonnie Doon,\" the songs of \" Highland Mary,\" \"John Anderson  my Joe,\" and \"AuldLang Syne,\" are all flowers of Ellisland.    "},{"title":"The library of choice literature :","author":null,"year":null,"url":"http:\/\/babel.hathitrust.org\/cgi\/pt?id=uc2.ark:\/13960\/t8rb6xx2s","placename":"Ellisland","snippet":"His wanderings ended, Burns settled at twenty-nine upon the pleasant farm of Ellisland,  in Nithsdalc, over the hills from his native Ayrshire.    "},{"title":"Black's picturesque tourist of Scotland.","author":null,"year":"1857-01-01","url":"http:\/\/babel.hathitrust.org\/cgi\/pt?id=uc2.ark:\/13960\/t6251qt9z","placename":"Ellisland","snippet":"That \" noblest of all his ballads,\" as the Address \"to Mary in Heaven\"\" has justly been designated,  was composed at Ellisland, in 1789, on the anniversary of the day on which he heard of the death of his early love.    "},{"title":"Song and scenery;","author":"Moffat, James C.","year":"1874-01-01","url":"http:\/\/babel.hathitrust.org\/cgi\/pt?id=loc.ark:\/13960\/t6f19hb8s","placename":"Ellisland","snippet":"There are the scenes connected with the last days of Burns ; there, on the banks of the Nith at Ellisland, is the farm, where for the last time he attempted to make Pegasus work profitably in the plow ; there, at Dumfries, is the last house he occupied ; and there, in the cemetery  of Dumfries, is his grave.    "},{"title":"The history of a man.","author":"Gilfillan, George","year":"1856-01-01","url":"http:\/\/babel.hathitrust.org\/cgi\/pt?id=uc2.ark:\/13960\/t34170255","placename":"Ellisland","snippet":"When a young man, he said to me, he had come from Sanquhar, where he was born, to Ellisland, to have a night with the poet.    "},{"title":"Sparks from a locomotive;","author":"Fuller, Hiram","year":"1859-01-01","url":"http:\/\/babel.hathitrust.org\/cgi\/pt?id=loc.ark:\/13960\/t57d3jz0s","placename":"Ellisland","snippet":"To Mr. Kirkpatrick, who occupies the Burns farm at Ellisland, seven miles out, and who called to take me to his place in order that he might \" gie me a Hieland welcome,\" and to the members of the \" Banquet Committee,\" who held a special meeting and voted me a ticket (after having \" refused applications for hundreds,\") because I had \" come all the way from America,\" I also wish to convey my grateful acknowledgments.    "},{"title":"Benedict's wanderings, in Ireland, Scotland, Italy and Sicily ...","author":"Dawson, Edward W[alter] [from old catalog]","year":"1873-01-01","url":"http:\/\/babel.hathitrust.org\/cgi\/pt?id=loc.ark:\/13960\/t5gb2m817","placename":"Ellisland","snippet":"After his appointment as an exciseman, the duties of his ride, \" the area of ten muirland parishes,\" required so much of his time, that he was obliged to resign his lease of Ellisland, and remove to Dumfries.    "},{"title":"Benedict's wanderings, in Ireland, Scotland, Italy and Sicily ...","author":"Dawson, Edward W[alter] [from old catalog]","year":"1873-01-01","url":"http:\/\/babel.hathitrust.org\/cgi\/pt?id=loc.ark:\/13960\/t5gb2m817","placename":"Ellisland","snippet":"The latter was the seat of Mr. Miller, to whom belonged the farm of Ellisland.    "},{"title":"Benedict's wanderings, in Ireland, Scotland, Italy and Sicily ...","author":"Dawson, Edward W[alter] [from old catalog]","year":"1873-01-01","url":"http:\/\/babel.hathitrust.org\/cgi\/pt?id=loc.ark:\/13960\/t5gb2m817","placename":"Ellisland","snippet":"It was at Ellisland he wrote the tale of ' Tarn o' Shanter, 1 and the beautiful lines ' To Mary in Heaven\/ It was there, indeed, that others among his most popular poems were comix  >sed.    "},{"title":"Our coaching trip,","author":"Carnegie, Andrew","year":"1882-01-01","url":"http:\/\/babel.hathitrust.org\/cgi\/pt?id=uc2.ark:\/13960\/t7xk8b66q","placename":"Ellisland","snippet":"Proceeding next to Dumfries,  the party were kindl}\" entertained by Mr. Nelson,  of Friars Carse (Ellisland), where Mr. and Mrs. Carnegie renewed their recollections of our national poet, \" Robert Burns.\"    "},{"title":"Our coaching trip,","author":"Carnegie, Andrew","year":"1882-01-01","url":"http:\/\/babel.hathitrust.org\/cgi\/pt?id=yale.39002085619097","placename":"Ellisland","snippet":"Proceeding next to Dumfries, the party were kindly entertained by Mr. Nelson, of Friars Carse (Ellisland), where Mr. and Mrs.Carnegie renewed their recollections of our nationalpoet, \" Robert Burns.\"    "},{"title":"The complete works of Robert Burns :","author":"Burns, Robert","year":null,"url":"http:\/\/babel.hathitrust.org\/cgi\/pt?id=uc2.ark:\/13960\/t9r21784k","placename":"Ellisland","snippet":"Ellisland was naturally poorer than either of the other two.\u2014 J. H.    "},{"title":"The complete works of Robert Burns :","author":"Burns, Robert","year":null,"url":"http:\/\/babel.hathitrust.org\/cgi\/pt?id=uc2.ark:\/13960\/t9r21784k","placename":"Ellisland","snippet":"The letter of instruction hy the Board of Excise to the officer who trained Bums for his forthcoming duties was dated 31st March 17SS, and the poet steadih- engaged in his course of drill at Tarbolton or its neighborhood, so as to enable him to remove to Ellisland early in June.    "},{"title":"The complete works of Robert Burns :","author":"Burns, Robert","year":null,"url":"http:\/\/babel.hathitrust.org\/cgi\/pt?id=uc2.ark:\/13960\/t9r21784k","placename":"Ellisland","snippet":"And even when b}' old Glenconner's advice he selected Ellisland, he informed Ainslie that \"the ad\\4ce had staggered him a good deal.\"    "},{"title":"The complete works of Robert Burns :","author":"Burns, Robert","year":null,"url":"http:\/\/babel.hathitrust.org\/cgi\/pt?id=uc2.ark:\/13960\/t9r21784k","placename":"Ellisland","snippet":"The poet's lease of Ellisland extended to seventy-six j-ears, at an annual rent of ^50 for the first three years, and \u00a310 per annum during the remainder ; at same time a sum of ^300 was stipulated to be granted by the landlord to build a new farm-steading, and to enclose the fields.    "},{"title":"The complete works of Robert Burns :","author":"Burns, Robert","year":null,"url":"http:\/\/babel.hathitrust.org\/cgi\/pt?id=uc2.ark:\/13960\/t9r21784k","placename":"Ellisland","snippet":"Burns had his choice of these ; but, as we have seen, he was advised to take Ellisland, on the opposite side of the Nith from Dalswinton.    "},{"title":"The complete works of Robert Burns :","author":"Burns, Robert","year":null,"url":"http:\/\/babel.hathitrust.org\/cgi\/pt?id=uc2.ark:\/13960\/t9r21784k","placename":"Ellisland","snippet":"with the mansion house, it embraced several farms ; three of which were respective!}- named Bankhead, Foregirth, and Ellisland.    "},{"title":"The complete works of Robert Burns :","author":"Burns, Robert","year":null,"url":"http:\/\/babel.hathitrust.org\/cgi\/pt?id=uc2.ark:\/13960\/t9r21784k","placename":"Ellisland","snippet":"Yesternight I completed a bargain with Mr. Miller, of Dalswinton, for the farm of Ellisland, on the banks of the Nith, between five    "},{"title":"The complete works of Robert Burns :","author":"Burns, Robert","year":null,"url":"http:\/\/babel.hathitrust.org\/cgi\/pt?id=uc2.ark:\/13960\/t9r21784k","placename":"Ellisland","snippet":"Jean's confinement  occurred about 13th March, a few days after the poet's return to Edinburgh, to execute his lease of Ellisland, and to obtain an order for his Excise instructions.    "},{"title":"The complete works of Robert Burns :","author":"Burns, Robert","year":null,"url":"http:\/\/babel.hathitrust.org\/cgi\/pt?id=uc2.ark:\/13960\/t9r21784k","placename":"Ellisland","snippet":"\u2014 Ellisland, Sep. 8, 1788.' {See page 15, Vol.    "},{"title":"The complete works of Robert Burns :","author":"Burns, Robert","year":null,"url":"http:\/\/babel.hathitrust.org\/cgi\/pt?id=uc2.ark:\/13960\/t9r21784k","placename":"Ellisland","snippet":"Of the five preceding sketches of character, those of Dr. Greenfield, Professor Stewart, and Bailie Creech, were made known to the pubHc for the first time on the publication of the entire MS. The comparatively favorable picture given of the last named gentleman forms a pleasing contrast to the versified sketch of him composed at Ellisland as a portion of \"The Poet's Progress.\"    "},{"title":"The complete works of Robert Burns :","author":"Burns, Robert","year":null,"url":"http:\/\/babel.hathitrust.org\/cgi\/pt?id=uc2.ark:\/13960\/t9r21784k","placename":"Ellisland","snippet":"With such a narrative, therefore, we open the prose portion of our Second Volume, which covers all the period between the appearance of the Kilmarnock Edition and the Poet's settlement at Ellisland.    "},{"title":"Robert Burns and Mrs. Dunlop;","author":"Burns, Robert","year":"1898-01-01","url":"http:\/\/babel.hathitrust.org\/cgi\/pt?id=uc2.ark:\/13960\/t7xk89c52","placename":"Ellisland","snippet":"She afterwards visited Ellisland to obtain an interview with Burns, but failed, as the poet had broken his arm, and was confined to bed.    "},{"title":"Robert Burns and Mrs. Dunlop;","author":"Burns, Robert","year":"1898-01-01","url":"http:\/\/babel.hathitrust.org\/cgi\/pt?id=uc2.ark:\/13960\/t7xk89c52","placename":"Ellisland","snippet":"Ellisland, dth Sept. 1789.    "},{"title":"Robert Burns and Mrs. Dunlop;","author":"Burns, Robert","year":"1898-01-01","url":"http:\/\/babel.hathitrust.org\/cgi\/pt?id=uc2.ark:\/13960\/t7xk89c52","placename":"Ellisland","snippet":"Ellisland, \\<^th August 1789.    "},{"title":"Robert Burns and Mrs. Dunlop;","author":"Burns, Robert","year":"1898-01-01","url":"http:\/\/babel.hathitrust.org\/cgi\/pt?id=uc2.ark:\/13960\/t7xk89c52","placename":"Ellisland","snippet":"Ellisland, i-jthjidy 1789.    "},{"title":"Robert Burns and Mrs. Dunlop;","author":"Burns, Robert","year":"1898-01-01","url":"http:\/\/babel.hathitrust.org\/cgi\/pt?id=uc2.ark:\/13960\/t7xk89c52","placename":"Ellisland","snippet":"Then, having meanwhile received the Burns letter dated Ellisland, 21st June, Mrs. Dunlop immediately began this second letter, which, being interrupted by her journey to Loudoun Castle, with her daughter, Mrs. Henri, remained unfinished till after her return to Dunlop House in July, and was not franked by Kerr, at Edinburgh, until the 17th of that month.    "},{"title":"Robert Burns and Mrs. Dunlop;","author":"Burns, Robert","year":"1898-01-01","url":"http:\/\/babel.hathitrust.org\/cgi\/pt?id=uc2.ark:\/13960\/t7xk89c52","placename":"Ellisland","snippet":"(i) The Rev. Joseph Kirkpatrick was minister of Dunscore (the parish in which Ellisland is situated), and Burns with his family attended Dunscore Church.    "},{"title":"Robert Burns and Mrs. Dunlop;","author":"Burns, Robert","year":"1898-01-01","url":"http:\/\/babel.hathitrust.org\/cgi\/pt?id=uc2.ark:\/13960\/t7xk89c52","placename":"Ellisland","snippet":"Ellisland, z\\st June 1789.    "},{"title":"Robert Burns and Mrs. Dunlop;","author":"Burns, Robert","year":"1898-01-01","url":"http:\/\/babel.hathitrust.org\/cgi\/pt?id=uc2.ark:\/13960\/t7xk89c52","placename":"Ellisland","snippet":"Apparently some projected marriage of Gilbert to a lady \" above his station \" was discussed on the occasion, as well, perhaps, as the suggestion that Gilbert might take over the farm of Ellisland.    "},{"title":"Robert Burns and Mrs. Dunlop;","author":"Burns, Robert","year":"1898-01-01","url":"http:\/\/babel.hathitrust.org\/cgi\/pt?id=uc2.ark:\/13960\/t7xk89c52","placename":"Ellisland","snippet":"Ellisland, \/^th May 1789.    "},{"title":"Robert Burns and Mrs. Dunlop;","author":"Burns, Robert","year":"1898-01-01","url":"http:\/\/babel.hathitrust.org\/cgi\/pt?id=uc2.ark:\/13960\/t7xk89c52","placename":"Ellisland","snippet":"Ellisland, 2\\st April 1789.    "},{"title":"Robert Burns and Mrs. Dunlop;","author":"Burns, Robert","year":"1898-01-01","url":"http:\/\/babel.hathitrust.org\/cgi\/pt?id=uc2.ark:\/13960\/t7xk89c52","placename":"Ellisland","snippet":"Ellisland, -yd April 1789.    "},{"title":"Robert Burns and Mrs. Dunlop;","author":"Burns, Robert","year":"1898-01-01","url":"http:\/\/babel.hathitrust.org\/cgi\/pt?id=uc2.ark:\/13960\/t7xk89c52","placename":"Ellisland","snippet":"Ellisland, 2$fk March 1789.    "},{"title":"Robert Burns and Mrs. Dunlop;","author":"Burns, Robert","year":"1898-01-01","url":"http:\/\/babel.hathitrust.org\/cgi\/pt?id=uc2.ark:\/13960\/t7xk89c52","placename":"Ellisland","snippet":"Here we have him, in March 1789, when he had not been a year in Ellisland, speaking of his farm as \" a very, very hard bargain, if at all practicable.\"    "},{"title":"Robert Burns and Mrs. Dunlop;","author":"Burns, Robert","year":"1898-01-01","url":"http:\/\/babel.hathitrust.org\/cgi\/pt?id=uc2.ark:\/13960\/t7xk89c52","placename":"Ellisland","snippet":"Ellisland, Dumfries.    "},{"title":"Robert Burns and Mrs. Dunlop;","author":"Burns, Robert","year":"1898-01-01","url":"http:\/\/babel.hathitrust.org\/cgi\/pt?id=uc2.ark:\/13960\/t7xk89c52","placename":"Ellisland","snippet":"Ellisland, March i,th, 1789.    "},{"title":"Robert Burns and Mrs. Dunlop;","author":"Burns, Robert","year":"1898-01-01","url":"http:\/\/babel.hathitrust.org\/cgi\/pt?id=uc2.ark:\/13960\/t7xk89c52","placename":"Ellisland","snippet":"Ellisland, t,th Feb. 1789.    "},{"title":"Robert Burns and Mrs. Dunlop;","author":"Burns, Robert","year":"1898-01-01","url":"http:\/\/babel.hathitrust.org\/cgi\/pt?id=uc2.ark:\/13960\/t7xk89c52","placename":"Ellisland","snippet":"Burns, Ellisland, near Dumfries.    "},{"title":"Robert Burns and Mrs. Dunlop;","author":"Burns, Robert","year":"1898-01-01","url":"http:\/\/babel.hathitrust.org\/cgi\/pt?id=uc2.ark:\/13960\/t7xk89c52","placename":"Ellisland","snippet":"Ellisland, Nezv-year-day Morning 1789.    "},{"title":"Robert Burns and Mrs. Dunlop;","author":"Burns, Robert","year":"1898-01-01","url":"http:\/\/babel.hathitrust.org\/cgi\/pt?id=uc2.ark:\/13960\/t7xk89c52","placename":"Ellisland","snippet":"Ellisland, Dumfries.    "},{"title":"Robert Burns and Mrs. Dunlop;","author":"Burns, Robert","year":"1898-01-01","url":"http:\/\/babel.hathitrust.org\/cgi\/pt?id=uc2.ark:\/13960\/t7xk89c52","placename":"Ellisland","snippet":"Ellisland, \\-]th December 1788.    "},{"title":"Robert Burns and Mrs. Dunlop;","author":"Burns, Robert","year":"1898-01-01","url":"http:\/\/babel.hathitrust.org\/cgi\/pt?id=uc2.ark:\/13960\/t7xk89c52","placename":"Ellisland","snippet":"In the first week of December he brought his wife to the banks of the Nith, lodging her temporarily in a neighbouring farm-house, as the building at Ellisland was not yet quite finished.    "},{"title":"Robert Burns and Mrs. Dunlop;","author":"Burns, Robert","year":"1898-01-01","url":"http:\/\/babel.hathitrust.org\/cgi\/pt?id=uc2.ark:\/13960\/t7xk89c52","placename":"Ellisland","snippet":"Then, Mosegill and Mauchline crossed out, and \" at Ellisland near Dumfries \" written in.    "},{"title":"Robert Burns and Mrs. Dunlop;","author":"Burns, Robert","year":"1898-01-01","url":"http:\/\/babel.hathitrust.org\/cgi\/pt?id=uc2.ark:\/13960\/t7xk89c52","placename":"Ellisland","snippet":"Ellisland, z(ith Oct.    "},{"title":"Robert Burns and Mrs. Dunlop;","author":"Burns, Robert","year":"1898-01-01","url":"http:\/\/babel.hathitrust.org\/cgi\/pt?id=uc2.ark:\/13960\/t7xk89c52","placename":"Ellisland","snippet":"Burns, at Ellisland,    "},{"title":"Robert Burns and Mrs. Dunlop;","author":"Burns, Robert","year":"1898-01-01","url":"http:\/\/babel.hathitrust.org\/cgi\/pt?id=uc2.ark:\/13960\/t7xk89c52","placename":"Ellisland","snippet":"Ellisland, idth August 1788.    "},{"title":"Robert Burns and Mrs. Dunlop;","author":"Burns, Robert","year":"1898-01-01","url":"http:\/\/babel.hathitrust.org\/cgi\/pt?id=uc2.ark:\/13960\/t7xk89c52","placename":"Ellisland","snippet":"If it is correctly  dated, it cannot have been addressed to Mrs. Duniop, seeing that the authenticity of the letter to her of the same date (see p. 1 19) is not disputed ; and the reference to Coila, if not also the allusion to the transition stage between Ayrshire and Ellisland, six it down to the year 1788.    "},{"title":"Robert Burns and Mrs. Dunlop;","author":"Burns, Robert","year":"1898-01-01","url":"http:\/\/babel.hathitrust.org\/cgi\/pt?id=uc2.ark:\/13960\/t7xk89c52","placename":"Ellisland","snippet":"Ellisland, x^^th (i^h)\/une 1788.    "},{"title":"Robert Burns and Mrs. Dunlop;","author":"Burns, Robert","year":"1898-01-01","url":"http:\/\/babel.hathitrust.org\/cgi\/pt?id=uc2.ark:\/13960\/t7xk89c52","placename":"Ellisland","snippet":"Burns went to reside at Ellisland on 13th June.    "},{"title":"Robert Burns and Mrs. Dunlop;","author":"Burns, Robert","year":"1898-01-01","url":"http:\/\/babel.hathitrust.org\/cgi\/pt?id=uc2.ark:\/13960\/t7xk89c52","placename":"Ellisland","snippet":"On the 13th, as he wrote to Miss Chalmers, he \" compleated a bargain with Mr. Miller of Dalswinton for the farm of Ellisland.\"    "},{"title":"Robert Burns and Mrs. Dunlop;","author":"Burns, Robert","year":"1898-01-01","url":"http:\/\/babel.hathitrust.org\/cgi\/pt?id=uc2.ark:\/13960\/t7xk89c52","placename":"Ellisland","snippet":"A day or two after, probably  on the 25th, he went to Ellisland to spy out the land, and returned to Mossgiel on the 2nd or 3rd of March.    "},{"title":"The works of Robert Burns: with an account of his life, and criticism on his writings.","author":"Burns, Robert","year":"1830-01-01","url":"http:\/\/babel.hathitrust.org\/cgi\/pt?id=loc.ark:\/13960\/t77s86n39","placename":"Ellisland","snippet":"My brother was living in Ellisland.    "},{"title":"The works of Robert Burns: with an account of his life, and criticism on his writings.","author":"Burns, Robert","year":"1830-01-01","url":"http:\/\/babel.hathitrust.org\/cgi\/pt?id=loc.ark:\/13960\/t77s86n39","placename":"Ellisland","snippet":"Ellisland, llth December 1791.    "},{"title":"The works of Robert Burns: with an account of his life, and criticism on his writings.","author":"Burns, Robert","year":"1830-01-01","url":"http:\/\/babel.hathitrust.org\/cgi\/pt?id=loc.ark:\/13960\/t77s86n39","placename":"Ellisland","snippet":"Ellisland, llth April, 1791.    "},{"title":"The works of Robert Burns: with an account of his life, and criticism on his writings.","author":"Burns, Robert","year":"1830-01-01","url":"http:\/\/babel.hathitrust.org\/cgi\/pt?id=loc.ark:\/13960\/t77s86n39","placename":"Ellisland","snippet":"Ellisland, near Dumfries, Uth Feb. 1791.    "},{"title":"The works of Robert Burns: with an account of his life, and criticism on his writings.","author":"Burns, Robert","year":"1830-01-01","url":"http:\/\/babel.hathitrust.org\/cgi\/pt?id=loc.ark:\/13960\/t77s86n39","placename":"Ellisland","snippet":"Ellisland, <Zllh February, 1791.    "},{"title":"The works of Robert Burns: with an account of his life, and criticism on his writings.","author":"Burns, Robert","year":"1830-01-01","url":"http:\/\/babel.hathitrust.org\/cgi\/pt?id=loc.ark:\/13960\/t77s86n39","placename":"Ellisland","snippet":"Ellisland.    "},{"title":"The works of Robert Burns: with an account of his life, and criticism on his writings.","author":"Burns, Robert","year":"1830-01-01","url":"http:\/\/babel.hathitrust.org\/cgi\/pt?id=loc.ark:\/13960\/t77s86n39","placename":"Ellisland","snippet":"Ellisland, 19lh April, 1790.    "},{"title":"The works of Robert Burns: with an account of his life, and criticism on his writings.","author":"Burns, Robert","year":"1830-01-01","url":"http:\/\/babel.hathitrust.org\/cgi\/pt?id=loc.ark:\/13960\/t77s86n39","placename":"Ellisland","snippet":"Ellisland, 2d March, 17S0.    "},{"title":"The works of Robert Burns: with an account of his life, and criticism on his writings.","author":"Burns, Robert","year":"1830-01-01","url":"http:\/\/babel.hathitrust.org\/cgi\/pt?id=loc.ark:\/13960\/t77s86n39","placename":"Ellisland","snippet":"Ellisland, 25\/A January, 1790.    "},{"title":"The works of Robert Burns: with an account of his life, and criticism on his writings.","author":"Burns, Robert","year":"1830-01-01","url":"http:\/\/babel.hathitrust.org\/cgi\/pt?id=loc.ark:\/13960\/t77s86n39","placename":"Ellisland","snippet":"Ellisland, Uth.    "},{"title":"The works of Robert Burns: with an account of his life, and criticism on his writings.","author":"Burns, Robert","year":"1830-01-01","url":"http:\/\/babel.hathitrust.org\/cgi\/pt?id=loc.ark:\/13960\/t77s86n39","placename":"Ellisland","snippet":"Ellisland, 6lh Sept. 17S9.    "},{"title":"The works of Robert Burns: with an account of his life, and criticism on his writings.","author":"Burns, Robert","year":"1830-01-01","url":"http:\/\/babel.hathitrust.org\/cgi\/pt?id=loc.ark:\/13960\/t77s86n39","placename":"Ellisland","snippet":"Ellisland, ith May, 1739.    "},{"title":"The works of Robert Burns: with an account of his life, and criticism on his writings.","author":"Burns, Robert","year":"1830-01-01","url":"http:\/\/babel.hathitrust.org\/cgi\/pt?id=loc.ark:\/13960\/t77s86n39","placename":"Ellisland","snippet":"Ellisland, ith April, 1759.    "},{"title":"The works of Robert Burns: with an account of his life, and criticism on his writings.","author":"Burns, Robert","year":"1830-01-01","url":"http:\/\/babel.hathitrust.org\/cgi\/pt?id=loc.ark:\/13960\/t77s86n39","placename":"Ellisland","snippet":"Ellisland, near Dumfries, 20th Jan. 1789.    "},{"title":"The works of Robert Burns: with an account of his life, and criticism on his writings.","author":"Burns, Robert","year":"1830-01-01","url":"http:\/\/babel.hathitrust.org\/cgi\/pt?id=loc.ark:\/13960\/t77s86n39","placename":"Ellisland","snippet":"Ellisland.    "},{"title":"The works of Robert Burns: with an account of his life, and criticism on his writings.","author":"Burns, Robert","year":"1830-01-01","url":"http:\/\/babel.hathitrust.org\/cgi\/pt?id=loc.ark:\/13960\/t77s86n39","placename":"Ellisland","snippet":"Ellisland, New-Year-Day Morning.    "},{"title":"The works of Robert Burns: with an account of his life, and criticism on his writings.","author":"Burns, Robert","year":"1830-01-01","url":"http:\/\/babel.hathitrust.org\/cgi\/pt?id=loc.ark:\/13960\/t77s86n39","placename":"Ellisland","snippet":"Ellisland, IZlh June, 17SS.    "},{"title":"The works of Robert Burns: with an account of his life, and criticism on his writings.","author":"Burns, Robert","year":"1830-01-01","url":"http:\/\/babel.hathitrust.org\/cgi\/pt?id=loc.ark:\/13960\/t77s86n39","placename":"Ellisland","snippet":"Hoping to support himself aud his family on this humble income till promotion should reach him, he disposed of his stock and of his crop on Ellisland by public auction, and removed to a small house which he had taken in Dumfries, about the end of the year 1791 .    "},{"title":"The works of Robert Burns: with an account of his life, and criticism on his writings.","author":"Burns, Robert","year":"1830-01-01","url":"http:\/\/babel.hathitrust.org\/cgi\/pt?id=loc.ark:\/13960\/t77s86n39","placename":"Ellisland","snippet":"In the summer of 1791, two English gentlemen, who had before met with him in Edinburgh, paid a visit to him at Ellisland.    "},{"title":"The works of Robert Burns: with an account of his life, and criticism on his writings.","author":"Burns, Robert","year":"1830-01-01","url":"http:\/\/babel.hathitrust.org\/cgi\/pt?id=loc.ark:\/13960\/t77s86n39","placename":"Ellisland","snippet":"\" I hae a wife o' my am, I'll partake wi' nae body ;\" f Mrs. Burns was about to be confined in child bed, and the house at Ellisland was rebuilding.    "},{"title":"The works of Robert Burns: with an account of his life, and criticism on his writings.","author":"Burns, Robert","year":"1830-01-01","url":"http:\/\/babel.hathitrust.org\/cgi\/pt?id=loc.ark:\/13960\/t77s86n39","placename":"Ellisland","snippet":"Ellisland, Sunday, \\ith June, 1788.    "},{"title":"The works of Robert Burns: with an account of his life, and criticism on his writings.","author":"Burns, Robert","year":"1830-01-01","url":"http:\/\/babel.hathitrust.org\/cgi\/pt?id=loc.ark:\/13960\/t77s86n39","placename":"Ellisland","snippet":"It was not \u2022onvenicnt for Mrs. Burns to remove immediately from Ayrshire, and our poet therefore took up his residence  alone at Ellisland, to prepare for the reception of iiis wife and children, who joined him towards the end of the year.    "},{"title":"The works of Robert Burns: with an account of his life, and criticism on his writings.","author":"Burns, Robert","year":"1830-01-01","url":"http:\/\/babel.hathitrust.org\/cgi\/pt?id=loc.ark:\/13960\/t77s86n39","placename":"Ellisland","snippet":"Having made Choice of the farm of Ellisland, he employed two of his friends, skilled in the value of land, to examine it, and with their approbation offered a rent to Mr. Miller,  which was immediately accepted.    "},{"title":"The works of Robert Burns: with an account of his life, and criticism on his writings.","author":"Burns, Robert","year":"1830-01-01","url":"http:\/\/babel.hathitrust.org\/cgi\/pt?id=loc.ark:\/13960\/t77s86n39","placename":"Ellisland","snippet":"Willi the remainder of this sum, and some farther eventful profits from his poems, he determined on settling himself  for life in the occupation of agriculture, and took from Mr. Miller, of Dalswinton, the farm of Ellisland,  on the banks of the river Nith, six miles abovj Dumfries, on which he entered at Whitsunday, 1788.    "},{"title":"The works of Robert Burns: with an account of his life, and criticism on his writings.","author":"Burns, Robert","year":"1830-01-01","url":"http:\/\/babel.hathitrust.org\/cgi\/pt?id=loc.ark:\/13960\/t77s86n39","placename":"Ellisland","snippet":"Prologue, spoken at the Theatre Ellisland, on New-Year's -Day Evening, - 82    "},{"title":"The works of Robert Burns: with an account of his life, and criticism on his writings.","author":"Burns, Robert","year":"1830-01-01","url":"http:\/\/babel.hathitrust.org\/cgi\/pt?id=loc.ark:\/13960\/t77s86n39","placename":"Ellisland","snippet":"Ellisland,21st Oct. 1789.    "},{"title":"The works of Robert Burns;","author":"Burns, Robert","year":"1816-01-01","url":"http:\/\/babel.hathitrust.org\/cgi\/pt?id=loc.ark:\/13960\/t76t1jw9v","placename":"Ellisland","snippet":"The anniversary of Mary CampbeWs death, (for that was her name,) awakening in the sensitive  miiid of Burm the most lively emotions, he retired from his family, then residing on the farm of Ellisland, and wandered, solitary, on the banks of the Nith, and about the farm-yard, in the extremest  agitation of mind, nearly the whole of the night : his agitation was so great, that he threw himself on the side of a coi*n-stack, and there conceived  his sublime and tender elegy\u2014his address to Mary in Heaven, e.    "},{"title":"The works of Robert Burns;","author":"Burns, Robert","year":"1816-01-01","url":"http:\/\/babel.hathitrust.org\/cgi\/pt?id=loc.ark:\/13960\/t76t1jw9v","placename":"Ellisland","snippet":"* Alluding to the time when he held the farm of Ellisland, as tenant to Mr. 5f.    "},{"title":"The works of Robert Burns;","author":"Burns, Robert","year":"1816-01-01","url":"http:\/\/babel.hathitrust.org\/cgi\/pt?id=loc.ark:\/13960\/t76t1jw9v","placename":"Ellisland","snippet":"Ellisland, Feb. 9, 1790.    "},{"title":"The works of Robert Burns;","author":"Burns, Robert","year":"1816-01-01","url":"http:\/\/babel.hathitrust.org\/cgi\/pt?id=loc.ark:\/13960\/t76t1jw9v","placename":"Ellisland","snippet":"Ellisland, Nov. 1, 1789.    "},{"title":"The works of Robert Burns;","author":"Burns, Robert","year":"1816-01-01","url":"http:\/\/babel.hathitrust.org\/cgi\/pt?id=loc.ark:\/13960\/t76t1jw9v","placename":"Ellisland","snippet":"Ellisland, Oct. 16, 1789.    "},{"title":"The works of Robert Burns;","author":"Burns, Robert","year":"1816-01-01","url":"http:\/\/babel.hathitrust.org\/cgi\/pt?id=loc.ark:\/13960\/t76t1jw9v","placename":"Ellisland","snippet":"Ellisland, June 8, 1789.    "},{"title":"The works of Robert Burns;","author":"Burns, Robert","year":"1816-01-01","url":"http:\/\/babel.hathitrust.org\/cgi\/pt?id=loc.ark:\/13960\/t76t1jw9v","placename":"Ellisland","snippet":"Ellisland, May 30, 1789.    "},{"title":"The works of Robert Burns;","author":"Burns, Robert","year":"1816-01-01","url":"http:\/\/babel.hathitrust.org\/cgi\/pt?id=loc.ark:\/13960\/t76t1jw9v","placename":"Ellisland","snippet":"In a fortnight I move, bag and baggage, to Nithsdale : till then, my direction is at this place ; after that period, it will be at Ellisland, near Dumfries.    "},{"title":"The works of Robert Burns;","author":"Burns, Robert","year":"1816-01-01","url":"http:\/\/babel.hathitrust.org\/cgi\/pt?id=loc.ark:\/13960\/t76t1jw9v","placename":"Ellisland","snippet":"Burns, in returning from his visits at Glenriddel to his farm at Ellisland, had to pass through a little wild wood in which stood the hermitage.    "},{"title":"The works of Robert Burns;","author":"Burns, Robert","year":"1816-01-01","url":"http:\/\/babel.hathitrust.org\/cgi\/pt?id=loc.ark:\/13960\/t76t1jw9v","placename":"Ellisland","snippet":"Ellisland, near Dumfries, Sept. 16, 1788.    "},{"title":"The works of Robert Burns;","author":"Burns, Robert","year":"1816-01-01","url":"http:\/\/babel.hathitrust.org\/cgi\/pt?id=loc.ark:\/13960\/t76t1jw9v","placename":"Ellisland","snippet":"Ellisland, Sept. 9, 1788.    "},{"title":"The works of Robert Burns;","author":"Burns, Robert","year":"1816-01-01","url":"http:\/\/babel.hathitrust.org\/cgi\/pt?id=loc.ark:\/13960\/t76t1jw9v","placename":"Ellisland","snippet":"Ellisland, June 14, 1788.    "},{"title":"The works of Robert Burns;","author":"Burns, Robert","year":"1816-01-01","url":"http:\/\/babel.hathitrust.org\/cgi\/pt?id=loc.ark:\/13960\/t76t1jw9v","placename":"Ellisland","snippet":"Ellisland, Jan. 22, 1788.    "},{"title":"The works of Robert Burns;","author":"Burns, Robert","year":"1816-01-01","url":"http:\/\/babel.hathitrust.org\/cgi\/pt?id=loc.ark:\/13960\/t76t1jw9v","placename":"Ellisland","snippet":"Yesternight I coml) leted a bargain with Mr. Miller, of Dalswinton, for the farm of Ellisland, on the banks of the Nith, between five and six miles above Dumfries.    "},{"title":"The works of Robert Burns;","author":"Burns, Robert","year":"1816-01-01","url":"http:\/\/babel.hathitrust.org\/cgi\/pt?id=loc.ark:\/13960\/t76t1jw9v","placename":"Ellisland","snippet":"Ellisland, Monday morning, 1790,    "},{"title":"The works of Robert Burns;","author":"Burns, Robert","year":"1816-01-01","url":"http:\/\/babel.hathitrust.org\/cgi\/pt?id=loc.ark:\/13960\/t76t1jw9v","placename":"Ellisland","snippet":"Ellisland, near Dumfries, l4th February, 1791.    "},{"title":"The works of Robert Burns;","author":"Burns, Robert","year":"1816-01-01","url":"http:\/\/babel.hathitrust.org\/cgi\/pt?id=loc.ark:\/13960\/t76t1jw9v","placename":"Ellisland","snippet":"Ellisland, 7th February, 1791.    "},{"title":"The works of Robert Burns;","author":"Burns, Robert","year":"1816-01-01","url":"http:\/\/babel.hathitrust.org\/cgi\/pt?id=loc.ark:\/13960\/t76t1jw9v","placename":"Ellisland","snippet":"Ellisland, 23d Januarij, 1791.    "},{"title":"The works of Robert Burns;","author":"Burns, Robert","year":"1816-01-01","url":"http:\/\/babel.hathitrust.org\/cgi\/pt?id=loc.ark:\/13960\/t76t1jw9v","placename":"Ellisland","snippet":"Ellisland, 10th April, 1790.    "},{"title":"The works of Robert Burns;","author":"Burns, Robert","year":"1816-01-01","url":"http:\/\/babel.hathitrust.org\/cgi\/pt?id=loc.ark:\/13960\/t76t1jw9v","placename":"Ellisland","snippet":"Ellisland, 2d March, 1790.    "},{"title":"The works of Robert Burns;","author":"Burns, Robert","year":"1816-01-01","url":"http:\/\/babel.hathitrust.org\/cgi\/pt?id=loc.ark:\/13960\/t76t1jw9v","placename":"Ellisland","snippet":"Ellisland, 13th February, 1790.    "},{"title":"The works of Robert Burns;","author":"Burns, Robert","year":"1816-01-01","url":"http:\/\/babel.hathitrust.org\/cgi\/pt?id=loc.ark:\/13960\/t76t1jw9v","placename":"Ellisland","snippet":"Ellisland, 13th December, 1789.    "},{"title":"The works of Robert Burns;","author":"Burns, Robert","year":"1816-01-01","url":"http:\/\/babel.hathitrust.org\/cgi\/pt?id=loc.ark:\/13960\/t76t1jw9v","placename":"Ellisland","snippet":"Ellisland, 4th April, 1789.    "},{"title":"The works of Robert Burns;","author":"Burns, Robert","year":"1816-01-01","url":"http:\/\/babel.hathitrust.org\/cgi\/pt?id=loc.ark:\/13960\/t76t1jw9v","placename":"Ellisland","snippet":"Ellisland, 2d April, 1789.    "},{"title":"The works of Robert Burns;","author":"Burns, Robert","year":"1816-01-01","url":"http:\/\/babel.hathitrust.org\/cgi\/pt?id=loc.ark:\/13960\/t76t1jw9v","placename":"Ellisland","snippet":"Ellisland, 4th March, 1789.    "},{"title":"The works of Robert Burns;","author":"Burns, Robert","year":"1816-01-01","url":"http:\/\/babel.hathitrust.org\/cgi\/pt?id=loc.ark:\/13960\/t76t1jw9v","placename":"Ellisland","snippet":"Ellisland, near Dumfries, Ath January, 1789.    "},{"title":"The works of Robert Burns;","author":"Burns, Robert","year":"1816-01-01","url":"http:\/\/babel.hathitrust.org\/cgi\/pt?id=loc.ark:\/13960\/t76t1jw9v","placename":"Ellisland","snippet":"Ellisland, neio-year-day morning, 1789, This, dear madam, is a morning of wishes, and would to God, that I came under the apostle James' description ! \u2014 the prayer of a righteous man availeth much.    "},{"title":"The works of Robert Burns;","author":"Burns, Robert","year":"1816-01-01","url":"http:\/\/babel.hathitrust.org\/cgi\/pt?id=loc.ark:\/13960\/t76t1jw9v","placename":"Ellisland","snippet":"Ellisland, nth December, 1788,    "},{"title":"The works of Robert Burns;","author":"Burns, Robert","year":"1816-01-01","url":"http:\/\/babel.hathitrust.org\/cgi\/pt?id=loc.ark:\/13960\/t76t1jw9v","placename":"Ellisland","snippet":"Ellisland, Ufh August, 1788.    "},{"title":"The works of Robert Burns;","author":"Burns, Robert","year":"1816-01-01","url":"http:\/\/babel.hathitrust.org\/cgi\/pt?id=loc.ark:\/13960\/t76t1jw9v","placename":"Ellisland","snippet":"Ellisland, iZth June, 1788.    "},{"title":"Sylvander and Clarinda;","author":"Burns, Robert","year":null,"url":"http:\/\/babel.hathitrust.org\/cgi\/pt?id=uc2.ark:\/13960\/t6833r818","placename":"Ellisland","snippet":"Ellisland, 14th June, 1788.    "},{"title":"The complete poetical and prose works of Robert Burns:","author":"Burns, Robert","year":"1859-01-01","url":"http:\/\/babel.hathitrust.org\/cgi\/pt?id=loc.ark:\/13960\/t4pk0xn8h","placename":"Ellisland","snippet":"\u2014 ^It is probable from the allusions contained in this letter that it was written after the brief visit of the poet to Edinburgh, in which he finally concluded the bargain with Mr. Miller, to take the farm of Ellisland.    "},{"title":"The complete poetical and prose works of Robert Burns:","author":"Burns, Robert","year":"1859-01-01","url":"http:\/\/babel.hathitrust.org\/cgi\/pt?id=loc.ark:\/13960\/t4pk0xn8h","placename":"Ellisland","snippet":"Friars' Carse, closely adjacent  to Ellisland, on the bank of the Nith, was the residence of this couple.    "},{"title":"The complete poetical and prose works of Robert Burns:","author":"Burns, Robert","year":"1859-01-01","url":"http:\/\/babel.hathitrust.org\/cgi\/pt?id=loc.ark:\/13960\/t4pk0xn8h","placename":"Ellisland","snippet":"\u2014 A mare, the property of Mr. William Nicol, and lent by that gentleman to Burns, in whose keeping it became ill, aad died at his farm, of Ellisland.    "},{"title":"The complete poetical and prose works of Robert Burns:","author":"Burns, Robert","year":"1859-01-01","url":"http:\/\/babel.hathitrust.org\/cgi\/pt?id=loc.ark:\/13960\/t4pk0xn8h","placename":"Ellisland","snippet":"Page 173, Note 219.\u2014 Mr. Cunningham mentions that the poor animal whose sufferings  excited this burst of indignation on the part of the poet, was shot by a lad named James Thomson, son of a farmer near Ellisland.    "},{"title":"The complete poetical and prose works of Robert Burns:","author":"Burns, Robert","year":"1859-01-01","url":"http:\/\/babel.hathitrust.org\/cgi\/pt?id=loc.ark:\/13960\/t4pk0xn8h","placename":"Ellisland","snippet":"These lines were written in the year 1788, at the period when Burns was commencing his household and farming career at Ellisland.    "},{"title":"The complete poetical and prose works of Robert Burns:","author":"Burns, Robert","year":"1859-01-01","url":"http:\/\/babel.hathitrust.org\/cgi\/pt?id=loc.ark:\/13960\/t4pk0xn8h","placename":"Ellisland","snippet":"My brother was living in Ellisland, when Captain Grose, on his perigrinations through Scotlaml, staid some time at Carse-house in the neighbourhood,  with Captain Robert Riddel, of Glenriddel,  a particular friend of my brother's.    "},{"title":"The complete poetical and prose works of Robert Burns:","author":"Burns, Robert","year":"1859-01-01","url":"http:\/\/babel.hathitrust.org\/cgi\/pt?id=loc.ark:\/13960\/t4pk0xn8h","placename":"Ellisland","snippet":"Mr. Burns gave the preference to the farm of Ellisland, most charmingly situated on the banks of the Nith, containing upwards of a hundred acres of most excellent land\" (this must be taken with a deduction), \" then worth a rent of from eighty to a hundred pounds.    "},{"title":"The complete poetical and prose works of Robert Burns:","author":"Burns, Robert","year":"1859-01-01","url":"http:\/\/babel.hathitrust.org\/cgi\/pt?id=loc.ark:\/13960\/t4pk0xn8h","placename":"Ellisland","snippet":"Ellisland, 1791.    "},{"title":"The complete poetical and prose works of Robert Burns:","author":"Burns, Robert","year":"1859-01-01","url":"http:\/\/babel.hathitrust.org\/cgi\/pt?id=loc.ark:\/13960\/t4pk0xn8h","placename":"Ellisland","snippet":"Ellisland, March I2th.    "},{"title":"The complete poetical and prose works of Robert Burns:","author":"Burns, Robert","year":"1859-01-01","url":"http:\/\/babel.hathitrust.org\/cgi\/pt?id=loc.ark:\/13960\/t4pk0xn8h","placename":"Ellisland","snippet":"Ellisland, Feb. 28th, 1791.    "},{"title":"The complete poetical and prose works of Robert Burns:","author":"Burns, Robert","year":"1859-01-01","url":"http:\/\/babel.hathitrust.org\/cgi\/pt?id=loc.ark:\/13960\/t4pk0xn8h","placename":"Ellisland","snippet":"Ellisland, near Dumfries, Feb.Uth, 1791.    "},{"title":"The complete poetical and prose works of Robert Burns:","author":"Burns, Robert","year":"1859-01-01","url":"http:\/\/babel.hathitrust.org\/cgi\/pt?id=loc.ark:\/13960\/t4pk0xn8h","placename":"Ellisland","snippet":"Ellisland, October 15<\/i, 1790.    "},{"title":"The complete poetical and prose works of Robert Burns:","author":"Burns, Robert","year":"1859-01-01","url":"http:\/\/babel.hathitrust.org\/cgi\/pt?id=loc.ark:\/13960\/t4pk0xn8h","placename":"Ellisland","snippet":"Ellisland, August 8th, 1790.    "},{"title":"The complete poetical and prose works of Robert Burns:","author":"Burns, Robert","year":"1859-01-01","url":"http:\/\/babel.hathitrust.org\/cgi\/pt?id=loc.ark:\/13960\/t4pk0xn8h","placename":"Ellisland","snippet":"Ellisland, August 2nd, 1790.    "},{"title":"The complete poetical and prose works of Robert Burns:","author":"Burns, Robert","year":"1859-01-01","url":"http:\/\/babel.hathitrust.org\/cgi\/pt?id=loc.ark:\/13960\/t4pk0xn8h","placename":"Ellisland","snippet":"Ellisland, April 10th, 1790.    "},{"title":"The complete poetical and prose works of Robert Burns:","author":"Burns, Robert","year":"1859-01-01","url":"http:\/\/babel.hathitrust.org\/cgi\/pt?id=loc.ark:\/13960\/t4pk0xn8h","placename":"Ellisland","snippet":"Ellisland, March 2nd, 1790.    "},{"title":"The complete poetical and prose works of Robert Burns:","author":"Burns, Robert","year":"1859-01-01","url":"http:\/\/babel.hathitrust.org\/cgi\/pt?id=loc.ark:\/13960\/t4pk0xn8h","placename":"Ellisland","snippet":"Ellisland, February VSth, 1790.    "},{"title":"The complete poetical and prose works of Robert Burns:","author":"Burns, Robert","year":"1859-01-01","url":"http:\/\/babel.hathitrust.org\/cgi\/pt?id=loc.ark:\/13960\/t4pk0xn8h","placename":"Ellisland","snippet":"Ellisland, January 25th, 1790.    "},{"title":"The complete poetical and prose works of Robert Burns:","author":"Burns, Robert","year":"1859-01-01","url":"http:\/\/babel.hathitrust.org\/cgi\/pt?id=loc.ark:\/13960\/t4pk0xn8h","placename":"Ellisland","snippet":"Ellisland, January \\Uh, 1790.    "},{"title":"The complete poetical and prose works of Robert Burns:","author":"Burns, Robert","year":"1859-01-01","url":"http:\/\/babel.hathitrust.org\/cgi\/pt?id=loc.ark:\/13960\/t4pk0xn8h","placename":"Ellisland","snippet":"Ellisland, January Wtk, 1790.    "},{"title":"The complete poetical and prose works of Robert Burns:","author":"Burns, Robert","year":"1859-01-01","url":"http:\/\/babel.hathitrust.org\/cgi\/pt?id=loc.ark:\/13960\/t4pk0xn8h","placename":"Ellisland","snippet":"Ellisland, December 2Qth, 1789.    "},{"title":"The complete poetical and prose works of Robert Burns:","author":"Burns, Robert","year":"1859-01-01","url":"http:\/\/babel.hathitrust.org\/cgi\/pt?id=loc.ark:\/13960\/t4pk0xn8h","placename":"Ellisland","snippet":"Ellisland, December 16th.    "},{"title":"The complete poetical and prose works of Robert Burns:","author":"Burns, Robert","year":"1859-01-01","url":"http:\/\/babel.hathitrust.org\/cgi\/pt?id=loc.ark:\/13960\/t4pk0xn8h","placename":"Ellisland","snippet":"Ellisland, December 13\/ A, 1789.    "},{"title":"The complete poetical and prose works of Robert Burns:","author":"Burns, Robert","year":"1859-01-01","url":"http:\/\/babel.hathitrust.org\/cgi\/pt?id=loc.ark:\/13960\/t4pk0xn8h","placename":"Ellisland","snippet":"Ellisland, Novemler -ith, 1789.    "},{"title":"The complete poetical and prose works of Robert Burns:","author":"Burns, Robert","year":"1859-01-01","url":"http:\/\/babel.hathitrust.org\/cgi\/pt?id=loc.ark:\/13960\/t4pk0xn8h","placename":"Ellisland","snippet":"Ellisland, 1789.    "},{"title":"The complete poetical and prose works of Robert Burns:","author":"Burns, Robert","year":"1859-01-01","url":"http:\/\/babel.hathitrust.org\/cgi\/pt?id=loc.ark:\/13960\/t4pk0xn8h","placename":"Ellisland","snippet":"Ellisland, Oct.    "},{"title":"The complete poetical and prose works of Robert Burns:","author":"Burns, Robert","year":"1859-01-01","url":"http:\/\/babel.hathitrust.org\/cgi\/pt?id=loc.ark:\/13960\/t4pk0xn8h","placename":"Ellisland","snippet":"Ellisland, 'in^.    "},{"title":"The complete poetical and prose works of Robert Burns:","author":"Burns, Robert","year":"1859-01-01","url":"http:\/\/babel.hathitrust.org\/cgi\/pt?id=loc.ark:\/13960\/t4pk0xn8h","placename":"Ellisland","snippet":"Ellisland, Jane 2\\st, 1789.    "},{"title":"The complete poetical and prose works of Robert Burns:","author":"Burns, Robert","year":"1859-01-01","url":"http:\/\/babel.hathitrust.org\/cgi\/pt?id=loc.ark:\/13960\/t4pk0xn8h","placename":"Ellisland","snippet":"Ellisland, Feb. 9t\/i, 1789.    "},{"title":"The complete poetical and prose works of Robert Burns:","author":"Burns, Robert","year":"1859-01-01","url":"http:\/\/babel.hathitrust.org\/cgi\/pt?id=loc.ark:\/13960\/t4pk0xn8h","placename":"Ellisland","snippet":"Ellisland, Feb.    "},{"title":"The complete poetical and prose works of Robert Burns:","author":"Burns, Robert","year":"1859-01-01","url":"http:\/\/babel.hathitrust.org\/cgi\/pt?id=loc.ark:\/13960\/t4pk0xn8h","placename":"Ellisland","snippet":"Ellisland, New-year-day Morning, 1789.    "},{"title":"The complete poetical and prose works of Robert Burns:","author":"Burns, Robert","year":"1859-01-01","url":"http:\/\/babel.hathitrust.org\/cgi\/pt?id=loc.ark:\/13960\/t4pk0xn8h","placename":"Ellisland","snippet":"Ellisland, December 11 th, 1788.    "},{"title":"The complete poetical and prose works of Robert Burns:","author":"Burns, Robert","year":"1859-01-01","url":"http:\/\/babel.hathitrust.org\/cgi\/pt?id=loc.ark:\/13960\/t4pk0xn8h","placename":"Ellisland","snippet":"Ellisland, September 22nd, 1783.    "},{"title":"The complete poetical and prose works of Robert Burns:","author":"Burns, Robert","year":"1859-01-01","url":"http:\/\/babel.hathitrust.org\/cgi\/pt?id=loc.ark:\/13960\/t4pk0xn8h","placename":"Ellisland","snippet":"Ellisland, near Dumfries, Sept. \\Glh, 1788.    "},{"title":"The complete poetical and prose works of Robert Burns:","author":"Burns, Robert","year":"1859-01-01","url":"http:\/\/babel.hathitrust.org\/cgi\/pt?id=loc.ark:\/13960\/t4pk0xn8h","placename":"Ellisland","snippet":"Ellisland, Amjust IQth, 1783.    "},{"title":"The complete poetical and prose works of Robert Burns:","author":"Burns, Robert","year":"1859-01-01","url":"http:\/\/babel.hathitrust.org\/cgi\/pt?id=loc.ark:\/13960\/t4pk0xn8h","placename":"Ellisland","snippet":"Ellisland, June 30th, 1788.    "},{"title":"The complete poetical and prose works of Robert Burns:","author":"Burns, Robert","year":"1859-01-01","url":"http:\/\/babel.hathitrust.org\/cgi\/pt?id=loc.ark:\/13960\/t4pk0xn8h","placename":"Ellisland","snippet":"Ellisland, June Uth, 1788.    "},{"title":"The complete poetical and prose works of Robert Burns:","author":"Burns, Robert","year":"1859-01-01","url":"http:\/\/babel.hathitrust.org\/cgi\/pt?id=loc.ark:\/13960\/t4pk0xn8h","placename":"Ellisland","snippet":"Ellisland, June \\Wi, 1783.    "},{"title":"The complete poetical and prose works of Robert Burns:","author":"Burns, Robert","year":"1859-01-01","url":"http:\/\/babel.hathitrust.org\/cgi\/pt?id=loc.ark:\/13960\/t4pk0xn8h","placename":"Ellisland","snippet":"Yesternight I completed a bargain with Mr. Miller of Dalswintoa for the farm of Ellisland,  on the banks of the Nith, between five and six miles above Dumfries.    "},{"title":"The complete poetical and prose works of Robert Burns:","author":"Burns, Robert","year":"1859-01-01","url":"http:\/\/babel.hathitrust.org\/cgi\/pt?id=loc.ark:\/13960\/t4pk0xn8h","placename":"Ellisland","snippet":"And pray, a' guid things may attend you 1 Ellisland, Monday Morning.    "},{"title":"The complete poetical and prose works of Robert Burns:","author":"Burns, Robert","year":"1859-01-01","url":"http:\/\/babel.hathitrust.org\/cgi\/pt?id=loc.ark:\/13960\/t4pk0xn8h","placename":"Ellisland","snippet":"It is also well known that he did not leave behind him a shilling of debt ; and I have learned from good authority  that his household was much more frugally managed at Dumfries than at Ellisland  \u2014 as in the former place, but not in the latter, he had it in his power to exercise a personal control over the expenditure.    "},{"title":"The complete poetical and prose works of Robert Burns:","author":"Burns, Robert","year":"1859-01-01","url":"http:\/\/babel.hathitrust.org\/cgi\/pt?id=loc.ark:\/13960\/t4pk0xn8h","placename":"Ellisland","snippet":"Hoping to support himself aiui his fannly on this humble income till promotion should reach him, he disposed of his stock and of hi-5 crop on Ellisland by public auction, and removed to a small house which he had taken in Dumfries, about the end of the year 1791.    "},{"title":"The complete poetical and prose works of Robert Burns:","author":"Burns, Robert","year":"1859-01-01","url":"http:\/\/babel.hathitrust.org\/cgi\/pt?id=loc.ark:\/13960\/t4pk0xn8h","placename":"Ellisland","snippet":"gentlemen, who had before met with him in Edinburgh, ])aid a visit to him at Ellisland.    "},{"title":"The complete poetical and prose works of Robert Burns:","author":"Burns, Robert","year":"1859-01-01","url":"http:\/\/babel.hathitrust.org\/cgi\/pt?id=loc.ark:\/13960\/t4pk0xn8h","placename":"Ellisland","snippet":"\"Ellisland, Sunday, \\4t7i June, 1788.    "},{"title":"The complete poetical and prose works of Robert Burns:","author":"Burns, Robert","year":"1859-01-01","url":"http:\/\/babel.hathitrust.org\/cgi\/pt?id=loc.ark:\/13960\/t4pk0xn8h","placename":"Ellisland","snippet":"It was not till the ensuing winter that Mrs. Burns joined her husband at Ellisland \u2014 \u25a0 their only child Robert following her in the subsequent spring.]    "},{"title":"The complete poetical and prose works of Robert Burns:","author":"Burns, Robert","year":"1859-01-01","url":"http:\/\/babel.hathitrust.org\/cgi\/pt?id=loc.ark:\/13960\/t4pk0xn8h","placename":"Ellisland","snippet":"(93) It was not convenient  for Mrs. Burns to remove immediately from Ayrshire, and our poet therefore took up his residence alone at Ellisland, to prepare  for the recejition of his wife and children,  who joined him towards the end of the year.    "},{"title":"The complete poetical and prose works of Robert Burns:","author":"Burns, Robert","year":"1859-01-01","url":"http:\/\/babel.hathitrust.org\/cgi\/pt?id=loc.ark:\/13960\/t4pk0xn8h","placename":"Ellisland","snippet":"Having made choice of the farm of Ellisland, he employed two of his friends skilled in the value of land, to examine it, and, with their approbation, offe '(1 a rent to Mr. Miller, which was immediately  accepted.    "},{"title":"The complete poetical and prose works of Robert Burns:","author":"Burns, Robert","year":"1881-01-01","url":"http:\/\/babel.hathitrust.org\/cgi\/pt?id=loc.ark:\/13960\/t43r1df6g","placename":"Ellisland","snippet":"\u2014 It is probable from the allusions contained in this letter that it was written after the brief visit of the poet to Edinburgh, in which he finally concluded the bargain with Mr. INIiller, to take the farm of Ellisland.    "},{"title":"The complete poetical and prose works of Robert Burns:","author":"Burns, Robert","year":"1881-01-01","url":"http:\/\/babel.hathitrust.org\/cgi\/pt?id=loc.ark:\/13960\/t43r1df6g","placename":"Ellisland","snippet":"\u2014 Mr. Cunningham states that the heroine of this song was the wife of a farmer near Ellisland, and gives the following ainusuig account of her : \u2014 ' She was a very singular woman : tea, she said, would be the ruin of the nation ; \u2022ugar was a sore evil ; w beaten bread was only sit for babes ; earthenware was a pick- jwcket; wooden floor* were but sit for    "},{"title":"The complete poetical and prose works of Robert Burns:","author":"Burns, Robert","year":"1881-01-01","url":"http:\/\/babel.hathitrust.org\/cgi\/pt?id=loc.ark:\/13960\/t43r1df6g","placename":"Ellisland","snippet":"Friars' Carse, closely adjacent  to Ellisland, on the bank of the Nith, was the residence of this couple.    "},{"title":"The complete poetical and prose works of Robert Burns:","author":"Burns, Robert","year":"1881-01-01","url":"http:\/\/babel.hathitrust.org\/cgi\/pt?id=loc.ark:\/13960\/t43r1df6g","placename":"Ellisland","snippet":"Page 186, Note 268.\u2014 The favour which formed the burthen of the foregoing poetical epistle, was the translation of the poet from the fatiguing Excise division of Ellisland, to the less laborious one of Dumfries, which favour is acknowledged aa having been obtained, in these lines.    "},{"title":"The complete poetical and prose works of Robert Burns:","author":"Burns, Robert","year":"1881-01-01","url":"http:\/\/babel.hathitrust.org\/cgi\/pt?id=loc.ark:\/13960\/t43r1df6g","placename":"Ellisland","snippet":"William Nicol, and lent by that gentleman to Burns, in whose keeping it became ill, and died at his farm, of Ellisland.    "},{"title":"The complete poetical and prose works of Robert Burns:","author":"Burns, Robert","year":"1881-01-01","url":"http:\/\/babel.hathitrust.org\/cgi\/pt?id=loc.ark:\/13960\/t43r1df6g","placename":"Ellisland","snippet":"Page 17;5, Note 219.\u2014 Mr. Cunningham mentions that the poor animal whose sufferings  excited this burst of indignation on the part of the poet, was shot by a lad named James Thomson, son of a farmer near Ellisland.    "},{"title":"The complete poetical and prose works of Robert Burns:","author":"Burns, Robert","year":"1881-01-01","url":"http:\/\/babel.hathitrust.org\/cgi\/pt?id=loc.ark:\/13960\/t43r1df6g","placename":"Ellisland","snippet":"\u2014 Mr. James Ten- oant had been an early and constant friend of Robert Burns and his family, and had taken an active part in the selection of the f\u00bbrm of Ellisland for the poet.    "},{"title":"The complete poetical and prose works of Robert Burns:","author":"Burns, Robert","year":"1881-01-01","url":"http:\/\/babel.hathitrust.org\/cgi\/pt?id=loc.ark:\/13960\/t43r1df6g","placename":"Ellisland","snippet":"These lines were written in the year 1788, at the period when Burns was commencing his household and farming career at Ellisland.    "},{"title":"The complete poetical and prose works of Robert Burns:","author":"Burns, Robert","year":"1881-01-01","url":"http:\/\/babel.hathitrust.org\/cgi\/pt?id=loc.ark:\/13960\/t43r1df6g","placename":"Ellisland","snippet":"Mr. Bums gave the preference to tlie farm of Ellisland, most charmingly situated on the banks of the Nith, containing upwards of a hundred acres of most excellent land \" (thia must be taken with a deduction), \" then worth a rent of from eighty to a hundred pouudi.    "},{"title":"The complete poetical and prose works of Robert Burns:","author":"Burns, Robert","year":"1881-01-01","url":"http:\/\/babel.hathitrust.org\/cgi\/pt?id=loc.ark:\/13960\/t43r1df6g","placename":"Ellisland","snippet":"Ellisland, Vi\\)i.    "},{"title":"The complete poetical and prose works of Robert Burns:","author":"Burns, Robert","year":"1881-01-01","url":"http:\/\/babel.hathitrust.org\/cgi\/pt?id=loc.ark:\/13960\/t43r1df6g","placename":"Ellisland","snippet":"Ellisland, 1791.    "},{"title":"The complete poetical and prose works of Robert Burns:","author":"Burns, Robert","year":"1881-01-01","url":"http:\/\/babel.hathitrust.org\/cgi\/pt?id=loc.ark:\/13960\/t43r1df6g","placename":"Ellisland","snippet":"Ellisland, Decemher llth, 1791 JIany thanks to you.    "},{"title":"The complete poetical and prose works of Robert Burns:","author":"Burns, Robert","year":"1881-01-01","url":"http:\/\/babel.hathitrust.org\/cgi\/pt?id=loc.ark:\/13960\/t43r1df6g","placename":"Ellisland","snippet":"Ellisland, Oct.    "},{"title":"The complete poetical and prose works of Robert Burns:","author":"Burns, Robert","year":"1881-01-01","url":"http:\/\/babel.hathitrust.org\/cgi\/pt?id=loc.ark:\/13960\/t43r1df6g","placename":"Ellisland","snippet":"Ellisland, Sept. 1st, 1791.    "},{"title":"The complete poetical and prose works of Robert Burns:","author":"Burns, Robert","year":"1881-01-01","url":"http:\/\/babel.hathitrust.org\/cgi\/pt?id=loc.ark:\/13960\/t43r1df6g","placename":"Ellisland","snippet":"Ellisland, March \\2th, 1791.    "},{"title":"The complete poetical and prose works of Robert Burns:","author":"Burns, Robert","year":"1881-01-01","url":"http:\/\/babel.hathitrust.org\/cgi\/pt?id=loc.ark:\/13960\/t43r1df6g","placename":"Ellisland","snippet":"Ellisland, 1791.    "},{"title":"The complete poetical and prose works of Robert Burns:","author":"Burns, Robert","year":"1881-01-01","url":"http:\/\/babel.hathitrust.org\/cgi\/pt?id=loc.ark:\/13960\/t43r1df6g","placename":"Ellisland","snippet":"Ellisland, near Dumfriet, Feb.    "},{"title":"The complete poetical and prose works of Robert Burns:","author":"Burns, Robert","year":"1881-01-01","url":"http:\/\/babel.hathitrust.org\/cgi\/pt?id=loc.ark:\/13960\/t43r1df6g","placename":"Ellisland","snippet":"Ellisland, Feb. 7th, 1791.    "},{"title":"The complete poetical and prose works of Robert Burns:","author":"Burns, Robert","year":"1881-01-01","url":"http:\/\/babel.hathitrust.org\/cgi\/pt?id=loc.ark:\/13960\/t43r1df6g","placename":"Ellisland","snippet":"Ellisland, 1791,    "},{"title":"The complete poetical and prose works of Robert Burns:","author":"Burns, Robert","year":"1881-01-01","url":"http:\/\/babel.hathitrust.org\/cgi\/pt?id=loc.ark:\/13960\/t43r1df6g","placename":"Ellisland","snippet":"Ellisland, 1791.    "},{"title":"The complete poetical and prose works of Robert Burns:","author":"Burns, Robert","year":"1881-01-01","url":"http:\/\/babel.hathitrust.org\/cgi\/pt?id=loc.ark:\/13960\/t43r1df6g","placename":"Ellisland","snippet":"Ellisland, February 1791.    "},{"title":"The complete poetical and prose works of Robert Burns:","author":"Burns, Robert","year":"1881-01-01","url":"http:\/\/babel.hathitrust.org\/cgi\/pt?id=loc.ark:\/13960\/t43r1df6g","placename":"Ellisland","snippet":"Ellisland, \\anuary nth, 1791,    "},{"title":"The complete poetical and prose works of Robert Burns:","author":"Burns, Robert","year":"1881-01-01","url":"http:\/\/babel.hathitrust.org\/cgi\/pt?id=loc.ark:\/13960\/t43r1df6g","placename":"Ellisland","snippet":"Ellisland January Ylth, 1791.    "},{"title":"The complete poetical and prose works of Robert Burns:","author":"Burns, Robert","year":"1881-01-01","url":"http:\/\/babel.hathitrust.org\/cgi\/pt?id=loc.ark:\/13960\/t43r1df6g","placename":"Ellisland","snippet":"Ellisland, Wth January, 1791.    "},{"title":"The complete poetical and prose works of Robert Burns:","author":"Burns, Robert","year":"1881-01-01","url":"http:\/\/babel.hathitrust.org\/cgi\/pt?id=loc.ark:\/13960\/t43r1df6g","placename":"Ellisland","snippet":"Ellisland, November, 1790.    "},{"title":"The complete poetical and prose works of Robert Burns:","author":"Burns, Robert","year":"1881-01-01","url":"http:\/\/babel.hathitrust.org\/cgi\/pt?id=loc.ark:\/13960\/t43r1df6g","placename":"Ellisland","snippet":"Ellisland, October \\Uh, 1790.    "},{"title":"The complete poetical and prose works of Robert Burns:","author":"Burns, Robert","year":"1881-01-01","url":"http:\/\/babel.hathitrust.org\/cgi\/pt?id=loc.ark:\/13960\/t43r1df6g","placename":"Ellisland","snippet":"Ellisland, July IGth, 1790.    "},{"title":"The complete poetical and prose works of Robert Burns:","author":"Burns, Robert","year":"1881-01-01","url":"http:\/\/babel.hathitrust.org\/cgi\/pt?id=loc.ark:\/13960\/t43r1df6g","placename":"Ellisland","snippet":"Ellisland, April 10th, 1790.    "},{"title":"The complete poetical and prose works of Robert Burns:","author":"Burns, Robert","year":"1881-01-01","url":"http:\/\/babel.hathitrust.org\/cgi\/pt?id=loc.ark:\/13960\/t43r1df6g","placename":"Ellisland","snippet":"Ellisland, March 2nd, 1790.    "},{"title":"The complete poetical and prose works of Robert Burns:","author":"Burns, Robert","year":"1881-01-01","url":"http:\/\/babel.hathitrust.org\/cgi\/pt?id=loc.ark:\/13960\/t43r1df6g","placename":"Ellisland","snippet":"Ellisland, February I3th, 1790.    "},{"title":"The complete poetical and prose works of Robert Burns:","author":"Burns, Robert","year":"1881-01-01","url":"http:\/\/babel.hathitrust.org\/cgi\/pt?id=loc.ark:\/13960\/t43r1df6g","placename":"Ellisland","snippet":"Ellisland, Feb. 9th, 1790.    "},{"title":"The complete poetical and prose works of Robert Burns:","author":"Burns, Robert","year":"1881-01-01","url":"http:\/\/babel.hathitrust.org\/cgi\/pt?id=loc.ark:\/13960\/t43r1df6g","placename":"Ellisland","snippet":"Ellisland, January 2Zth., 1790.    "},{"title":"The complete poetical and prose works of Robert Burns:","author":"Burns, Robert","year":"1881-01-01","url":"http:\/\/babel.hathitrust.org\/cgi\/pt?id=loc.ark:\/13960\/t43r1df6g","placename":"Ellisland","snippet":"Ellisland, January \\Uh, 1790.    "},{"title":"The complete poetical and prose works of Robert Burns:","author":"Burns, Robert","year":"1881-01-01","url":"http:\/\/babel.hathitrust.org\/cgi\/pt?id=loc.ark:\/13960\/t43r1df6g","placename":"Ellisland","snippet":"Ellisland, January llik, 1790.    "},{"title":"The complete poetical and prose works of Robert Burns:","author":"Burns, Robert","year":"1881-01-01","url":"http:\/\/babel.hathitrust.org\/cgi\/pt?id=loc.ark:\/13960\/t43r1df6g","placename":"Ellisland","snippet":"Ellisland, December 2Qth, 1789.    "},{"title":"The complete poetical and prose works of Robert Burns:","author":"Burns, Robert","year":"1881-01-01","url":"http:\/\/babel.hathitrust.org\/cgi\/pt?id=loc.ark:\/13960\/t43r1df6g","placename":"Ellisland","snippet":"Ellisland, December 16th.    "},{"title":"The complete poetical and prose works of Robert Burns:","author":"Burns, Robert","year":"1881-01-01","url":"http:\/\/babel.hathitrust.org\/cgi\/pt?id=loc.ark:\/13960\/t43r1df6g","placename":"Ellisland","snippet":"Ellisland, December 13M, 1789.    "},{"title":"The complete poetical and prose works of Robert Burns:","author":"Burns, Robert","year":"1881-01-01","url":"http:\/\/babel.hathitrust.org\/cgi\/pt?id=loc.ark:\/13960\/t43r1df6g","placename":"Ellisland","snippet":"Ellisland, November ith, 1789.    "},{"title":"The complete poetical and prose works of Robert Burns:","author":"Burns, Robert","year":"1881-01-01","url":"http:\/\/babel.hathitrust.org\/cgi\/pt?id=loc.ark:\/13960\/t43r1df6g","placename":"Ellisland","snippet":"Ellisland, Nov. 1st, 1789.    "},{"title":"The complete poetical and prose works of Robert Burns:","author":"Burns, Robert","year":"1881-01-01","url":"http:\/\/babel.hathitrust.org\/cgi\/pt?id=loc.ark:\/13960\/t43r1df6g","placename":"Ellisland","snippet":"Ellisland, 1789.    "},{"title":"The complete poetical and prose works of Robert Burns:","author":"Burns, Robert","year":"1881-01-01","url":"http:\/\/babel.hathitrust.org\/cgi\/pt?id=loc.ark:\/13960\/t43r1df6g","placename":"Ellisland","snippet":"Ellisland, Oct.    "},{"title":"The complete poetical and prose works of Robert Burns:","author":"Burns, Robert","year":"1881-01-01","url":"http:\/\/babel.hathitrust.org\/cgi\/pt?id=loc.ark:\/13960\/t43r1df6g","placename":"Ellisland","snippet":"Ellisland, Sept. 6th, 1789.    "},{"title":"The complete poetical and prose works of Robert Burns:","author":"Burns, Robert","year":"1881-01-01","url":"http:\/\/babel.hathitrust.org\/cgi\/pt?id=loc.ark:\/13960\/t43r1df6g","placename":"Ellisland","snippet":"Ellisland, near Dumfries, Awj.    "},{"title":"The complete poetical and prose works of Robert Burns:","author":"Burns, Robert","year":"1881-01-01","url":"http:\/\/babel.hathitrust.org\/cgi\/pt?id=loc.ark:\/13960\/t43r1df6g","placename":"Ellisland","snippet":"Ellisland, June Idth, 1789    "},{"title":"The complete poetical and prose works of Robert Burns:","author":"Burns, Robert","year":"1881-01-01","url":"http:\/\/babel.hathitrust.org\/cgi\/pt?id=loc.ark:\/13960\/t43r1df6g","placename":"Ellisland","snippet":"Ellisland, June 8tk, 1789.    "},{"title":"The complete poetical and prose works of Robert Burns:","author":"Burns, Robert","year":"1881-01-01","url":"http:\/\/babel.hathitrust.org\/cgi\/pt?id=loc.ark:\/13960\/t43r1df6g","placename":"Ellisland","snippet":"Ellisland, June 4sa, 1789.    "},{"title":"The complete poetical and prose works of Robert Burns:","author":"Burns, Robert","year":"1881-01-01","url":"http:\/\/babel.hathitrust.org\/cgi\/pt?id=loc.ark:\/13960\/t43r1df6g","placename":"Ellisland","snippet":"Ellisland, May 30th, 1789.    "},{"title":"The complete poetical and prose works of Robert Burns:","author":"Burns, Robert","year":"1881-01-01","url":"http:\/\/babel.hathitrust.org\/cgi\/pt?id=loc.ark:\/13960\/t43r1df6g","placename":"Ellisland","snippet":"Ellisland, May 26th, 1789.    "},{"title":"The complete poetical and prose works of Robert Burns:","author":"Burns, Robert","year":"1881-01-01","url":"http:\/\/babel.hathitrust.org\/cgi\/pt?id=loc.ark:\/13960\/t43r1df6g","placename":"Ellisland","snippet":"Ellisland, Feb. 9th, 1789.    "},{"title":"The complete poetical and prose works of Robert Burns:","author":"Burns, Robert","year":"1881-01-01","url":"http:\/\/babel.hathitrust.org\/cgi\/pt?id=loc.ark:\/13960\/t43r1df6g","placename":"Ellisland","snippet":"Ellisland, Feb. 3rd, 1789.    "},{"title":"The complete poetical and prose works of Robert Burns:","author":"Burns, Robert","year":"1881-01-01","url":"http:\/\/babel.hathitrust.org\/cgi\/pt?id=loc.ark:\/13960\/t43r1df6g","placename":"Ellisland","snippet":"Ellisland, Jan. 20th, 1789.    "},{"title":"The complete poetical and prose works of Robert Burns:","author":"Burns, Robert","year":"1881-01-01","url":"http:\/\/babel.hathitrust.org\/cgi\/pt?id=loc.ark:\/13960\/t43r1df6g","placename":"Ellisland","snippet":"Ellisland, Jan.    "},{"title":"The complete poetical and prose works of Robert Burns:","author":"Burns, Robert","year":"1881-01-01","url":"http:\/\/babel.hathitrust.org\/cgi\/pt?id=loc.ark:\/13960\/t43r1df6g","placename":"Ellisland","snippet":"Ellisland, Neiu-y ear-day Morning, 1789.    "},{"title":"The complete poetical and prose works of Robert Burns:","author":"Burns, Robert","year":"1881-01-01","url":"http:\/\/babel.hathitrust.org\/cgi\/pt?id=loc.ark:\/13960\/t43r1df6g","placename":"Ellisland","snippet":"Ellisland, Becemher 17 th, 1788.    "},{"title":"The complete poetical and prose works of Robert Burns:","author":"Burns, Robert","year":"1881-01-01","url":"http:\/\/babel.hathitrust.org\/cgi\/pt?id=loc.ark:\/13960\/t43r1df6g","placename":"Ellisland","snippet":"Ellisland, September 22nd, 1783.    "},{"title":"The complete poetical and prose works of Robert Burns:","author":"Burns, Robert","year":"1881-01-01","url":"http:\/\/babel.hathitrust.org\/cgi\/pt?id=loc.ark:\/13960\/t43r1df6g","placename":"Ellisland","snippet":"Ellisland, Sept. 9th, 1788.    "},{"title":"The Letters of Robert Burns","author":"Burns, Robert","year":null,"url":"http:\/\/www.gutenberg.org\/ebooks\/9863","placename":"Ellisland","snippet":"ELLISLAND, 11_th April_ 1791.    "},{"title":"The complete poetical and prose works of Robert Burns:","author":"Burns, Robert","year":"1881-01-01","url":"http:\/\/babel.hathitrust.org\/cgi\/pt?id=loc.ark:\/13960\/t43r1df6g","placename":"Ellisland","snippet":"Ellisland, August I6lh, 1788.    "},{"title":"The complete poetical and prose works of Robert Burns:","author":"Burns, Robert","year":"1881-01-01","url":"http:\/\/babel.hathitrust.org\/cgi\/pt?id=loc.ark:\/13960\/t43r1df6g","placename":"Ellisland","snippet":"Ellisland, August, 1788.    "},{"title":"The complete poetical and prose works of Robert Burns:","author":"Burns, Robert","year":"1881-01-01","url":"http:\/\/babel.hathitrust.org\/cgi\/pt?id=loc.ark:\/13960\/t43r1df6g","placename":"Ellisland","snippet":"Ellisland, June \\Ztli, 1788.    "},{"title":"The complete poetical and prose works of Robert Burns:","author":"Burns, Robert","year":"1881-01-01","url":"http:\/\/babel.hathitrust.org\/cgi\/pt?id=loc.ark:\/13960\/t43r1df6g","placename":"Ellisland","snippet":"Yesternight I completed a bari^ain with Mr. Miller of Dalswiuton for the farm of Ellisland,  on the banks of the Nith, between nve and six miles above Dumfries.    "},{"title":"The complete poetical and prose works of Robert Burns:","author":"Burns, Robert","year":"1881-01-01","url":"http:\/\/babel.hathitrust.org\/cgi\/pt?id=loc.ark:\/13960\/t43r1df6g","placename":"Ellisland","snippet":"Ellisland, Monday Evening    "},{"title":"The complete poetical and prose works of Robert Burns:","author":"Burns, Robert","year":"1881-01-01","url":"http:\/\/babel.hathitrust.org\/cgi\/pt?id=loc.ark:\/13960\/t43r1df6g","placename":"Ellisland","snippet":"It is also well known tliat he did not leave behind him a shilhng of debt ; and I have learned from good autli o- rity that his household was much mere frugally managed at Dumfries than at Ellisland  \u2014 as in the former place, but not in the latter, he had it in his power to exercise a personal control over the expenditure.    "},{"title":"The complete poetical and prose works of Robert Burns:","author":"Burns, Robert","year":"1881-01-01","url":"http:\/\/babel.hathitrust.org\/cgi\/pt?id=loc.ark:\/13960\/t43r1df6g","placename":"Ellisland","snippet":"in 1786; Francis Wallace,  born at Ellisland, April 9, 1791 ; William Nicol, born at Dumfries, November \"1, 1792; and James Glencairn.    "},{"title":"The complete works of Robert Burns.","author":"Burns, Robert","year":null,"url":"http:\/\/babel.hathitrust.org\/cgi\/pt?id=uc2.ark:\/13960\/t3vt1nk2g","placename":"Ellisland","snippet":"Ic one of Burns's letters, dated 4th May, 1780, when preparing to leave Ayrshire for Ellisland, he commissions his uncle to procure for him three or four stones of feathers to make beds for his new farmhouse.    "},{"title":"The complete works of Robert Burns.","author":"Burns, Robert","year":null,"url":"http:\/\/babel.hathitrust.org\/cgi\/pt?id=uc2.ark:\/13960\/t3vt1nk2g","placename":"Ellisland","snippet":"On 21st June, 1791, while the poet was still at Ellisland, Gilbert married Miss    "},{"title":"The complete works of Robert Burns.","author":"Burns, Robert","year":null,"url":"http:\/\/babel.hathitrust.org\/cgi\/pt?id=uc2.ark:\/13960\/t3vt1nk2g","placename":"Ellisland","snippet":"The money realized by his Poems appears to have been expended by the time he left Ellisland : he obtained no more that we are aware of from that source, excepting the small sum thrust upon him by Mr. Thomson.    "},{"title":"The complete works of Robert Burns.","author":"Burns, Robert","year":null,"url":"http:\/\/babel.hathitrust.org\/cgi\/pt?id=uc2.ark:\/13960\/t3vt1nk2g","placename":"Ellisland","snippet":"At Martinmas (Nov. n), the poet having disposed of his stock and other effects at Ellisland, and surrendered the lease of the farm to Mr. Miller the proprietor, removed with his family to the town of Dumfries.    "},{"title":"The complete works of Robert Burns.","author":"Burns, Robert","year":null,"url":"http:\/\/babel.hathitrust.org\/cgi\/pt?id=uc2.ark:\/13960\/t3vt1nk2g","placename":"Ellisland","snippet":"At the close of the month the poet sold his crop at Ellisland, \"and sold it well.\"    "},{"title":"The complete works of Robert Burns.","author":"Burns, Robert","year":null,"url":"http:\/\/babel.hathitrust.org\/cgi\/pt?id=uc2.ark:\/13960\/t3vt1nk2g","placename":"Ellisland","snippet":"Formed the acquaintance of Captain Riddell of Glenriddell, a gentleman of literary and antiquarian tastes, who resided at Friars Carse, within a mile of Ellisland.    "},{"title":"The complete works of Robert Burns.","author":"Burns, Robert","year":null,"url":"http:\/\/babel.hathitrust.org\/cgi\/pt?id=uc2.ark:\/13960\/t3vt1nk2g","placename":"Ellisland","snippet":"In June the poet went to reside on his farm, his wife remaining at Mauehline until a new house should be built at Ellisland.    "},{"title":"The complete works of Robert Burns.","author":"Burns, Robert","year":null,"url":"http:\/\/babel.hathitrust.org\/cgi\/pt?id=uc2.ark:\/13960\/t3vt1nk2g","placename":"Ellisland","snippet":"Returned to Edinburgh in March, ;md on the 13th took a lease of the farm of Ellisland, on the banks of the Nith.    "},{"title":"The complete works of Robert Burns.","author":"Burns, Robert","year":null,"url":"http:\/\/babel.hathitrust.org\/cgi\/pt?id=uc2.ark:\/13960\/t3vt1nk2g","placename":"Ellisland","snippet":"Instead of the knowes and meadows of Mossgiel and Ellisland, with their lovely sunrises and twilights, we have to connect him with the streets, the gossip, and the dissipation of a third-rate Scottish town.    "},{"title":"The complete works of Robert Burns.","author":"Burns, Robert","year":null,"url":"http:\/\/babel.hathitrust.org\/cgi\/pt?id=uc2.ark:\/13960\/t3vt1nk2g","placename":"Ellisland","snippet":"In November Ellisland became the property of Mr. Morine, and Burns immediately sold his farm stock and implements \u2014    "},{"title":"The complete works of Robert Burns.","author":"Burns, Robert","year":null,"url":"http:\/\/babel.hathitrust.org\/cgi\/pt?id=uc2.ark:\/13960\/t3vt1nk2g","placename":"Ellisland","snippet":"The Ellisland crops were sold, and the sale was made the occasion of a drunken orgie.    "},{"title":"The complete works of Robert Burns.","author":"Burns, Robert","year":null,"url":"http:\/\/babel.hathitrust.org\/cgi\/pt?id=uc2.ark:\/13960\/t3vt1nk2g","placename":"Ellisland","snippet":"As but for his Excise salary Burns must have succumbed under farming difficulties, he was now anxious to be quit of Ellisland, and to confine himself entirely to his official duties ; and it so happened that Mr. Miller was willing to release him of the portion of the lease which was yet to run, preparatory to a final sale of that part of the lands.    "},{"title":"The complete works of Robert Burns.","author":"Burns, Robert","year":null,"url":"http:\/\/babel.hathitrust.org\/cgi\/pt?id=uc2.ark:\/13960\/t3vt1nk2g","placename":"Ellisland","snippet":"One evening, when the past \u2014 heavy with unshed tears \u2014 lay near his heart, he composed the strain, To Mary in Heaven; and in the course of one summer day, in a perfect riot and whirlwind of ecstasy, every faculty and power in full blossom, he dashed off Tarn O' Shanter \u2014 immortal, unapproachable! If Ellisland had but paid, Burns might have been happy as farmer and poet, \u2014 or as Exciseman, farmer and poet, \u2014 for the characters were by no means incompatible.    "},{"title":"The complete works of Robert Burns.","author":"Burns, Robert","year":null,"url":"http:\/\/babel.hathitrust.org\/cgi\/pt?id=uc2.ark:\/13960\/t3vt1nk2g","placename":"Ellisland","snippet":"He worked his brain as he worked his servants on the acres at Ellisland, or his horse as he rode on the scent of a smuggler through the Nithsdale moors.    "},{"title":"The complete works of Robert Burns.","author":"Burns, Robert","year":null,"url":"http:\/\/babel.hathitrust.org\/cgi\/pt?id=uc2.ark:\/13960\/t3vt1nk2g","placename":"Ellisland","snippet":"Every, other day letters and newspapers were arriving at Ellisland,  connecting him with distant places and events ; and the stranger who dropped in upon him from London or Edinburgh, or even from places more remote, brought talk, ideas, observations  on this thing and the other more or less valuable, stimulus,  excitement \u2014 all tending to enrich intellectual life.    "},{"title":"The complete works of Robert Burns.","author":"Burns, Robert","year":null,"url":"http:\/\/babel.hathitrust.org\/cgi\/pt?id=uc2.ark:\/13960\/t3vt1nk2g","placename":"Ellisland","snippet":"This work, taken in conjunction with labor at Ellisland, which, constantly    "},{"title":"The complete works of Robert Burns.","author":"Burns, Robert","year":null,"url":"http:\/\/babel.hathitrust.org\/cgi\/pt?id=uc2.ark:\/13960\/t3vt1nk2g","placename":"Ellisland","snippet":"Burns' s farming operations during the second year of his occupancy of Ellisland were not successful, and in the more unrestrained letters of the period we find him complaining of his hard fate in being obliged to make one guinea do the work of five.    "},{"title":"The complete works of Robert Burns.","author":"Burns, Robert","year":null,"url":"http:\/\/babel.hathitrust.org\/cgi\/pt?id=uc2.ark:\/13960\/t3vt1nk2g","placename":"Ellisland","snippet":"Meanwhile, the house at Ellisland was getting finished.    "},{"title":"The complete works of Robert Burns.","author":"Burns, Robert","year":null,"url":"http:\/\/babel.hathitrust.org\/cgi\/pt?id=uc2.ark:\/13960\/t3vt1nk2g","placename":"Ellisland","snippet":"During his solitary  life at Ellisland, he wrote two or three of his finest songs, each of them in praise of Jean, and each giving evidence that his heart was at rest.    "},{"title":"The complete works of Robert Burns.","author":"Burns, Robert","year":null,"url":"http:\/\/babel.hathitrust.org\/cgi\/pt?id=uc2.ark:\/13960\/t3vt1nk2g","placename":"Ellisland","snippet":"When Burns entered into possession of Ellisland, at Whitsunday,  1788, he left his wife at Mauchline till the new dwelling- house should be erected.    "},{"title":"The complete works of Robert Burns.","author":"Burns, Robert","year":null,"url":"http:\/\/babel.hathitrust.org\/cgi\/pt?id=uc2.ark:\/13960\/t3vt1nk2g","placename":"Ellisland","snippet":"\"Yesternight I completed a bargain with Mr. Miller, of Dalswinton,  for the farm of Ellisland, on the banks of the Nith, between five and six miles above Dumfries.    "},{"title":"The complete works of Robert Burns.","author":"Burns, Robert","year":null,"url":"http:\/\/babel.hathitrust.org\/cgi\/pt?id=uc2.ark:\/13960\/t3vt1nk2g","placename":"Ellisland","snippet":"He took a friend with him on whose sagacity and business skill he could confide ; and after a deliberate inspection of the lands, he was better .satisfied than he had been on a former occasion, and at once made an offer to Mr. Miller for the farm at Ellisland,  which was accepted.    "},{"title":"The complete works of Robert Burns.","author":"Burns, Robert","year":null,"url":"http:\/\/babel.hathitrust.org\/cgi\/pt?id=uc2.ark:\/13960\/t3vt1nk2g","placename":"Ellisland","snippet":"the common day of Jean Armour, Ellisland, and the Excise.    "},{"title":"The complete works of Robert Burns.","author":"Burns, Robert","year":null,"url":"http:\/\/babel.hathitrust.org\/cgi\/pt?id=uc2.ark:\/13960\/t3vt1nk2g","placename":"Ellisland","snippet":"The song of Craigieburn Wood\u2014 a product of the Ellisland period \u2014 was, as we have seen, composed to forward the wooing-efforts of a brother-exciseman, John Gillespie,  who had conceived a violent affection for Jean Lorimer, which did not become mutual.    "},{"title":"The complete works of Robert Burns.","author":"Burns, Robert","year":null,"url":"http:\/\/babel.hathitrust.org\/cgi\/pt?id=uc2.ark:\/13960\/t3vt1nk2g","placename":"Ellisland","snippet":"Cromek recorded this letter, most erroneously, as having been written from Ellisland in May 1789.    "},{"title":"The complete works of Robert Burns.","author":"Burns, Robert","year":null,"url":"http:\/\/babel.hathitrust.org\/cgi\/pt?id=uc2.ark:\/13960\/t3vt1nk2g","placename":"Ellisland","snippet":"It is dated from Ellisland, and shows that their intercourse was not always official.    "},{"title":"The complete works of Robert Burns:","author":"Burns, Robert","year":"1854-01-01","url":"http:\/\/babel.hathitrust.org\/cgi\/pt?id=loc.ark:\/13960\/t2z32c284","placename":"Ellisland","snippet":"Ellisland, 11 th December, 1791.    "},{"title":"The complete works of Robert Burns:","author":"Burns, Robert","year":"1854-01-01","url":"http:\/\/babel.hathitrust.org\/cgi\/pt?id=loc.ark:\/13960\/t2z32c284","placename":"Ellisland","snippet":"Ellisland, 1791.    "},{"title":"The complete works of Robert Burns:","author":"Burns, Robert","year":"1854-01-01","url":"http:\/\/babel.hathitrust.org\/cgi\/pt?id=loc.ark:\/13960\/t2z32c284","placename":"Ellisland","snippet":"Ellisland, 1791.    "},{"title":"The complete works of Robert Burns:","author":"Burns, Robert","year":"1854-01-01","url":"http:\/\/babel.hathitrust.org\/cgi\/pt?id=loc.ark:\/13960\/t2z32c284","placename":"Ellisland","snippet":"Ellisland, Sept. 1, 1791.    "},{"title":"The complete works of Robert Burns:","author":"Burns, Robert","year":"1854-01-01","url":"http:\/\/babel.hathitrust.org\/cgi\/pt?id=loc.ark:\/13960\/t2z32c284","placename":"Ellisland","snippet":"[Lord Buclian printed this letter in his Essay on the Life of Thomson, in 1792. His lordship invited Burns to leave his corn unreaped, walk from Ellisland to Dryburgh, and help him to crown Thomson's bust with bays, on Ednam  Hill, on the 22d of September.]    "},{"title":"The complete works of Robert Burns:","author":"Burns, Robert","year":"1854-01-01","url":"http:\/\/babel.hathitrust.org\/cgi\/pt?id=loc.ark:\/13960\/t2z32c284","placename":"Ellisland","snippet":"Ellisland, 11th Aj.ml, 1791.    "},{"title":"The complete works of Robert Burns:","author":"Burns, Robert","year":"1854-01-01","url":"http:\/\/babel.hathitrust.org\/cgi\/pt?id=loc.ark:\/13960\/t2z32c284","placename":"Ellisland","snippet":"Ellisland, 1791.    "},{"title":"The complete works of Robert Burns:","author":"Burns, Robert","year":"1854-01-01","url":"http:\/\/babel.hathitrust.org\/cgi\/pt?id=loc.ark:\/13960\/t2z32c284","placename":"Ellisland","snippet":"Ellisland, 1791.    "},{"title":"The complete works of Robert Burns:","author":"Burns, Robert","year":"1854-01-01","url":"http:\/\/babel.hathitrust.org\/cgi\/pt?id=loc.ark:\/13960\/t2z32c284","placename":"Ellisland","snippet":"Ellisland, 19rt March, 1791.    "},{"title":"The complete works of Robert Burns:","author":"Burns, Robert","year":"1854-01-01","url":"http:\/\/babel.hathitrust.org\/cgi\/pt?id=loc.ark:\/13960\/t2z32c284","placename":"Ellisland","snippet":"Ellisland, Jicar Dumfries, lith Feb. 1791.    "},{"title":"The complete works of Robert Burns:","author":"Burns, Robert","year":"1854-01-01","url":"http:\/\/babel.hathitrust.org\/cgi\/pt?id=loc.ark:\/13960\/t2z32c284","placename":"Ellisland","snippet":"Ellisland, llh Feb. 1791.    "},{"title":"The complete works of Robert Burns:","author":"Burns, Robert","year":"1854-01-01","url":"http:\/\/babel.hathitrust.org\/cgi\/pt?id=loc.ark:\/13960\/t2z32c284","placename":"Ellisland","snippet":"Ellisland, 2M January, 1791.    "},{"title":"The complete works of Robert Burns:","author":"Burns, Robert","year":"1854-01-01","url":"http:\/\/babel.hathitrust.org\/cgi\/pt?id=loc.ark:\/13960\/t2z32c284","placename":"Ellisland","snippet":"\u25a0 Ellisland, 17th January, 1791.    "},{"title":"The complete works of Robert Burns:","author":"Burns, Robert","year":"1854-01-01","url":"http:\/\/babel.hathitrust.org\/cgi\/pt?id=loc.ark:\/13960\/t2z32c284","placename":"Ellisland","snippet":"Ellisland, 17th January, 1791.    "},{"title":"The complete works of Robert Burns:","author":"Burns, Robert","year":"1854-01-01","url":"http:\/\/babel.hathitrust.org\/cgi\/pt?id=loc.ark:\/13960\/t2z32c284","placename":"Ellisland","snippet":"Ellisland, 15th October, 1790.    "},{"title":"The complete works of Robert Burns:","author":"Burns, Robert","year":"1854-01-01","url":"http:\/\/babel.hathitrust.org\/cgi\/pt?id=loc.ark:\/13960\/t2z32c284","placename":"Ellisland","snippet":"Ellisland, 25(h January, 1790.    "},{"title":"The complete works of Robert Burns:","author":"Burns, Robert","year":"1854-01-01","url":"http:\/\/babel.hathitrust.org\/cgi\/pt?id=loc.ark:\/13960\/t2z32c284","placename":"Ellisland","snippet":"Ellisland, lAih Januunj, 1790.    "},{"title":"The complete works of Robert Burns:","author":"Burns, Robert","year":"1854-01-01","url":"http:\/\/babel.hathitrust.org\/cgi\/pt?id=loc.ark:\/13960\/t2z32c284","placename":"Ellisland","snippet":"Ellisland, llth January, 1790.    "},{"title":"The complete works of Robert Burns:","author":"Burns, Robert","year":"1854-01-01","url":"http:\/\/babel.hathitrust.org\/cgi\/pt?id=loc.ark:\/13960\/t2z32c284","placename":"Ellisland","snippet":"Ellisland, \\Wi Deccvihcr, 1789.    "},{"title":"The complete works of Robert Burns:","author":"Burns, Robert","year":"1854-01-01","url":"http:\/\/babel.hathitrust.org\/cgi\/pt?id=loc.ark:\/13960\/t2z32c284","placename":"Ellisland","snippet":"Ellisland, near Dumfries, \"tth Aiiff.    "},{"title":"The complete works of Robert Burns:","author":"Burns, Robert","year":"1854-01-01","url":"http:\/\/babel.hathitrust.org\/cgi\/pt?id=loc.ark:\/13960\/t2z32c284","placename":"Ellisland","snippet":"Ellisland, 2\\st June, 1789.    "},{"title":"The complete works of Robert Burns:","author":"Burns, Robert","year":"1854-01-01","url":"http:\/\/babel.hathitrust.org\/cgi\/pt?id=loc.ark:\/13960\/t2z32c284","placename":"Ellisland","snippet":"Ellisland, 4th June, 1789.    "},{"title":"The complete works of Robert Burns:","author":"Burns, Robert","year":"1854-01-01","url":"http:\/\/babel.hathitrust.org\/cgi\/pt?id=loc.ark:\/13960\/t2z32c284","placename":"Ellisland","snippet":"Ellisland, ZOth 3Iay, 1789.    "},{"title":"The complete works of Robert Burns:","author":"Burns, Robert","year":"1854-01-01","url":"http:\/\/babel.hathitrust.org\/cgi\/pt?id=loc.ark:\/13960\/t2z32c284","placename":"Ellisland","snippet":"Ellisland, 26ih Man, 1789.    "},{"title":"The complete works of Robert Burns:","author":"Burns, Robert","year":"1854-01-01","url":"http:\/\/babel.hathitrust.org\/cgi\/pt?id=loc.ark:\/13960\/t2z32c284","placename":"Ellisland","snippet":"My direction is at Ellisland, near Dumfries Yours,    "},{"title":"The complete works of Robert Burns:","author":"Burns, Robert","year":"1854-01-01","url":"http:\/\/babel.hathitrust.org\/cgi\/pt?id=loc.ark:\/13960\/t2z32c284","placename":"Ellisland","snippet":"Ellisland, 2Zd March, 1789.    "},{"title":"The complete works of Robert Burns:","author":"Burns, Robert","year":"1854-01-01","url":"http:\/\/babel.hathitrust.org\/cgi\/pt?id=loc.ark:\/13960\/t2z32c284","placename":"Ellisland","snippet":"Ellisland, 4kih March, 1789.    "},{"title":"The complete works of Robert Burns:","author":"Burns, Robert","year":"1854-01-01","url":"http:\/\/babel.hathitrust.org\/cgi\/pt?id=loc.ark:\/13960\/t2z32c284","placename":"Ellisland","snippet":"[The poet soems, in this letter, to perceive (lint Ellisland  was not the bargain he had reckonnd it: he intimated.    "},{"title":"The complete works of Robert Burns:","author":"Burns, Robert","year":"1854-01-01","url":"http:\/\/babel.hathitrust.org\/cgi\/pt?id=loc.ark:\/13960\/t2z32c284","placename":"Ellisland","snippet":"Please write me by first post, and direct to me at Ellisland, near Dumfries.    "},{"title":"The complete works of Robert Burns:","author":"Burns, Robert","year":"1854-01-01","url":"http:\/\/babel.hathitrust.org\/cgi\/pt?id=loc.ark:\/13960\/t2z32c284","placename":"Ellisland","snippet":"Ellisland, September 22, 1788.    "},{"title":"The complete works of Robert Burns:","author":"Burns, Robert","year":"1854-01-01","url":"http:\/\/babel.hathitrust.org\/cgi\/pt?id=loc.ark:\/13960\/t2z32c284","placename":"Ellisland","snippet":"[Monson, of Maucliline, mnde most of tlie poet's furniture,  for Ellisland : from Maucliline, too, came that eight-slay cbck, which was sold, at the death of the poet's widow, for thirty-eight pounds, to one who would have paid one hundred, sooner than wanted it.]    "},{"title":"The complete works of Robert Burns:","author":"Burns, Robert","year":"1854-01-01","url":"http:\/\/babel.hathitrust.org\/cgi\/pt?id=loc.ark:\/13960\/t2z32c284","placename":"Ellisland","snippet":"Ellisland, August, 1788.    "},{"title":"The complete works of Robert Burns:","author":"Burns, Robert","year":"1854-01-01","url":"http:\/\/babel.hathitrust.org\/cgi\/pt?id=loc.ark:\/13960\/t2z32c284","placename":"Ellisland","snippet":"[In this, the poet's first letter from Ellisland, he lays down his whole system of in-door and out-door economy : while his wife took care of the household, he was to manage the farm, and \" pen a stanza\" during his hours of leisure.]    "},{"title":"The complete works of Robert Burns:","author":"Burns, Robert","year":"1854-01-01","url":"http:\/\/babel.hathitrust.org\/cgi\/pt?id=loc.ark:\/13960\/t2z32c284","placename":"Ellisland","snippet":"Miller, of Dalswinton,  for the farm of Ellisland, on the banks of the Nith, between five and six miles above Dumfries.    "},{"title":"The complete works of Robert Burns:","author":"Burns, Robert","year":"1854-01-01","url":"http:\/\/babel.hathitrust.org\/cgi\/pt?id=loc.ark:\/13960\/t2z32c284","placename":"Ellisland","snippet":"[The charm which Diimfiies threw over the poet, seems to liave dissolved like a spell, when he sat down in Ellisland: he spoke, for a time, with little respect of either place or people.]    "},{"title":"The complete works of Robert Burns:","author":"Burns, Robert","year":"1854-01-01","url":"http:\/\/babel.hathitrust.org\/cgi\/pt?id=loc.ark:\/13960\/t2z32c284","placename":"Ellisland","snippet":"[Burns had built his house at Ellisland, sowed his first    "},{"title":"The complete works of Robert Burns:","author":"Burns, Robert","year":"1854-01-01","url":"http:\/\/babel.hathitrust.org\/cgi\/pt?id=loc.ark:\/13960\/t2z32c284","placename":"Ellisland","snippet":"[Tlie deatli of Glciicairn, who wns liis patron, and tlie death of Glenriddel, wlio was liis friend, and liad, while lie lived at Ellisland, hcen his ncighhour, weiglied hard on tlie mind of Burns, who, about tliis time, began to regard his own future fortune with more of dismay than of hope. Riddel united antiquarian pursuits with those of literature, and experienced all the vulgar prejudices entertained  by tlie peasantry against those who indulge in such researches. His collection of what tlie rustics of the vale called \"queer quairns and swine-troughs,\" is now scattered or neglected : I have heard a competent judge say, that they threw light on both the public and domestic history of Scotland.]    "},{"title":"The complete works of Robert Burns:","author":"Burns, Robert","year":"1854-01-01","url":"http:\/\/babel.hathitrust.org\/cgi\/pt?id=loc.ark:\/13960\/t2z32c284","placename":"Ellisland","snippet":"The walk in which it was conceived, on the braes of Ellisland, is held in remembrance  in the vale, and pointed out to poetic inquirers : while the scene where the poem is laid \u2014 the crumbling ruins \u2014 the place where the chapman perished in the snow \u2014 the tree on which the poor mother of Mungo ended her sorrows \u2014 the cairn where the murdered child was found by the hunters \u2014 and the old bridge over which Maggie bore her astonished master when all hell was in pursuit, are first-rate objects of inspection and inquiry in the \"Land of Burns.\"    "},{"title":"The complete works of Robert Burns:","author":"Burns, Robert","year":"1854-01-01","url":"http:\/\/babel.hathitrust.org\/cgi\/pt?id=loc.ark:\/13960\/t2z32c284","placename":"Ellisland","snippet":"Ellisland, Monday morning , 1790.    "},{"title":"The complete works of Robert Burns:","author":"Burns, Robert","year":"1854-01-01","url":"http:\/\/babel.hathitrust.org\/cgi\/pt?id=loc.ark:\/13960\/t2z32c284","placename":"Ellisland","snippet":"Ellisland, 2lst Oct. 1789.    "},{"title":"The complete works of Robert Burns:","author":"Burns, Robert","year":"1854-01-01","url":"http:\/\/babel.hathitrust.org\/cgi\/pt?id=loc.ark:\/13960\/t2z32c284","placename":"Ellisland","snippet":"[This Poem is founded on fact. A young man of the name of Thomson told me \u2014 quite unconscious of the existence of the Poem \u2014 that while Burns lived at Ellisland  \u2014 he shot at and hurt a hare, which in the twilight was feeding on his father's wheat-bread. The poet, on observing the hare come bleeding past him, \" was in great wrath,\" said Thomson, \"and cursed me, and said little hindered him from throwing me into the Nith ; and he was able enough to do it, though I was both young and strong.\" The boor of Nithside did not use the hare worse than the critical Dr. Gregorj-, of Edinburgh, used the Poem: when Burns read his remarks he said, \" Gregory  is a good man, but lie crucifies me I\"]    "},{"title":"The complete works of Robert Burns:","author":"Burns, Robert","year":"1854-01-01","url":"http:\/\/babel.hathitrust.org\/cgi\/pt?id=loc.ark:\/13960\/t2z32c284","placename":"Ellisland","snippet":"Ellisland, Mond(ni Evening.    "},{"title":"The complete works of Robert Burns:","author":"Burns, Robert","year":"1854-01-01","url":"http:\/\/babel.hathitrust.org\/cgi\/pt?id=loc.ark:\/13960\/t2z32c284","placename":"Ellisland","snippet":"[Captain Riddel, tlio Laird of Friars-Carse, was Burns's nciglibour, at Ellisland : he was a kind, hospitable  man, and a good antiquary. The \"News and Review'\" wliich he sent to the poet contained, I have heard, some sliarp strictures on his works: Burns, with his usual strong; sense, set the proper value upon all contemporary criticism; genius, he knew, had nothing to fear from tlie folly or the malice of all such nameless \" chippers and hewers.\" He demanded trial by his peers, and where were such to be found ?]    "},{"title":"The complete works of Robert Burns:","author":"Burns, Robert","year":"1854-01-01","url":"http:\/\/babel.hathitrust.org\/cgi\/pt?id=loc.ark:\/13960\/t2z32c284","placename":"Ellisland","snippet":"His chief place of study at Ellisland 13 still remembered : it extends along the river-bank towards the Isle : there the neighbouring gentry love to walk and peasants to gather, and hold it sacred, as the place where he composed Tarn O'Shanter.    "},{"title":"The complete works of Robert Burns:","author":"Burns, Robert","year":"1854-01-01","url":"http:\/\/babel.hathitrust.org\/cgi\/pt?id=loc.ark:\/13960\/t2z32c284","placename":"Ellisland","snippet":"He was a steadfast friend and a good neighbour : while he lived at Ellisland few passed his- door without being entertained at his table; and even when in poverty, on the Millhole-brae, the poor seldom left his door but with blessings on their lips.    "},{"title":"The complete works of Robert Burns:","author":"Burns, Robert","year":"1854-01-01","url":"http:\/\/babel.hathitrust.org\/cgi\/pt?id=loc.ark:\/13960\/t2z32c284","placename":"Ellisland","snippet":"a -westland farmer, lie selected Ellisland, a beautiful spot, sit alike for the steps of ploughman or poet.    "},{"title":"The works of Robert Burns;","author":"Burns, Robert","year":"1820-01-01","url":"http:\/\/babel.hathitrust.org\/cgi\/pt?id=uc2.ark:\/13960\/t19k4k59v","placename":"Ellisland","snippet":"Ellisland, Vlth December, 1791.    "},{"title":"The works of Robert Burns;","author":"Burns, Robert","year":"1820-01-01","url":"http:\/\/babel.hathitrust.org\/cgi\/pt?id=uc2.ark:\/13960\/t19k4k59v","placename":"Ellisland","snippet":"Ellisland, Wth April, 1791.    "},{"title":"The works of Robert Burns;","author":"Burns, Robert","year":"1820-01-01","url":"http:\/\/babel.hathitrust.org\/cgi\/pt?id=uc2.ark:\/13960\/t19k4k59v","placename":"Ellisland","snippet":"Ellisland, near Dumfries, 14^th Feb. 1791.    "},{"title":"The works of Robert Burns;","author":"Burns, Robert","year":"1820-01-01","url":"http:\/\/babel.hathitrust.org\/cgi\/pt?id=uc2.ark:\/13960\/t19k4k59v","placename":"Ellisland","snippet":"Ellisland, 2Qth February, 179l.    "},{"title":"The works of Robert Burns;","author":"Burns, Robert","year":"1820-01-01","url":"http:\/\/babel.hathitrust.org\/cgi\/pt?id=uc2.ark:\/13960\/t19k4k59v","placename":"Ellisland","snippet":"Ellisland, 1th Feb. 1791.    "},{"title":"The works of Robert Burns;","author":"Burns, Robert","year":"1820-01-01","url":"http:\/\/babel.hathitrust.org\/cgi\/pt?id=uc2.ark:\/13960\/t19k4k59v","placename":"Ellisland","snippet":"Ellisland, 23rrf January, 1791.    "},{"title":"The works of Robert Burns;","author":"Burns, Robert","year":"1820-01-01","url":"http:\/\/babel.hathitrust.org\/cgi\/pt?id=uc2.ark:\/13960\/t19k4k59v","placename":"Ellisland","snippet":"Ellisland, 8th August, 1790.    "},{"title":"The works of Robert Burns;","author":"Burns, Robert","year":"1820-01-01","url":"http:\/\/babel.hathitrust.org\/cgi\/pt?id=uc2.ark:\/13960\/t19k4k59v","placename":"Ellisland","snippet":"Ellisland, 10th April, 1790.    "},{"title":"The works of Robert Burns;","author":"Burns, Robert","year":"1820-01-01","url":"http:\/\/babel.hathitrust.org\/cgi\/pt?id=uc2.ark:\/13960\/t19k4k59v","placename":"Ellisland","snippet":"Ellisland, '2d March, 1790.    "},{"title":"The works of Robert Burns;","author":"Burns, Robert","year":"1820-01-01","url":"http:\/\/babel.hathitrust.org\/cgi\/pt?id=uc2.ark:\/13960\/t19k4k59v","placename":"Ellisland","snippet":"Ellisland, \\^th February, 1790.    "},{"title":"The works of Robert Burns;","author":"Burns, Robert","year":"1820-01-01","url":"http:\/\/babel.hathitrust.org\/cgi\/pt?id=uc2.ark:\/13960\/t19k4k59v","placename":"Ellisland","snippet":"Ellisland, 25th January, 1790.    "},{"title":"The works of Robert Burns;","author":"Burns, Robert","year":"1820-01-01","url":"http:\/\/babel.hathitrust.org\/cgi\/pt?id=uc2.ark:\/13960\/t19k4k59v","placename":"Ellisland","snippet":"Ellisland, \\Zth December, 1789.    "},{"title":"The works of Robert Burns;","author":"Burns, Robert","year":"1820-01-01","url":"http:\/\/babel.hathitrust.org\/cgi\/pt?id=uc2.ark:\/13960\/t19k4k59v","placename":"Ellisland","snippet":"Ellisland, 2\\st Oct. 1789.    "},{"title":"The works of Robert Burns;","author":"Burns, Robert","year":"1820-01-01","url":"http:\/\/babel.hathitrust.org\/cgi\/pt?id=uc2.ark:\/13960\/t19k4k59v","placename":"Ellisland","snippet":"Ellisland, Sept. 6th, 1789.    "},{"title":"The works of Robert Burns;","author":"Burns, Robert","year":"1820-01-01","url":"http:\/\/babel.hathitrust.org\/cgi\/pt?id=uc2.ark:\/13960\/t19k4k59v","placename":"Ellisland","snippet":"Ellisland, 2\\st June, 178\u00bb.    "},{"title":"The works of Robert Burns;","author":"Burns, Robert","year":"1820-01-01","url":"http:\/\/babel.hathitrust.org\/cgi\/pt?id=uc2.ark:\/13960\/t19k4k59v","placename":"Ellisland","snippet":"Ellisland, 4th May, 1788.    "},{"title":"The works of Robert Burns;","author":"Burns, Robert","year":"1820-01-01","url":"http:\/\/babel.hathitrust.org\/cgi\/pt?id=uc2.ark:\/13960\/t19k4k59v","placename":"Ellisland","snippet":"Ellisland, 4th April, 1789.    "},{"title":"The works of Robert Burns;","author":"Burns, Robert","year":"1820-01-01","url":"http:\/\/babel.hathitrust.org\/cgi\/pt?id=uc2.ark:\/13960\/t19k4k59v","placename":"Ellisland","snippet":"Ellisland, 2nd April, 1789.    "},{"title":"The works of Robert Burns;","author":"Burns, Robert","year":"1820-01-01","url":"http:\/\/babel.hathitrust.org\/cgi\/pt?id=uc2.ark:\/13960\/t19k4k59v","placename":"Ellisland","snippet":"Ellisland, IZrd March, 1789.    "},{"title":"The works of Robert Burns;","author":"Burns, Robert","year":"1820-01-01","url":"http:\/\/babel.hathitrust.org\/cgi\/pt?id=uc2.ark:\/13960\/t19k4k59v","placename":"Ellisland","snippet":"Ellisland, 4sh March, 1789.    "},{"title":"The works of Robert Burns;","author":"Burns, Robert","year":"1820-01-01","url":"http:\/\/babel.hathitrust.org\/cgi\/pt?id=uc2.ark:\/13960\/t19k4k59v","placename":"Ellisland","snippet":"Ellisland, 9th Feb. 1789.    "},{"title":"The works of Robert Burns;","author":"Burns, Robert","year":"1820-01-01","url":"http:\/\/babel.hathitrust.org\/cgi\/pt?id=uc2.ark:\/13960\/t19k4k59v","placename":"Ellisland","snippet":"Ellisland, near Dumfries, 3rf Feb. 1789.    "},{"title":"The works of Robert Burns;","author":"Burns, Robert","year":"1820-01-01","url":"http:\/\/babel.hathitrust.org\/cgi\/pt?id=uc2.ark:\/13960\/t19k4k59v","placename":"Ellisland","snippet":"Ellisland, near Dumfries, 20th Jan. 1789.    "},{"title":"The works of Robert Burns;","author":"Burns, Robert","year":"1820-01-01","url":"http:\/\/babel.hathitrust.org\/cgi\/pt?id=uc2.ark:\/13960\/t19k4k59v","placename":"Ellisland","snippet":"Ellisland, near Dumfriety 4th Jan. 1789.    "},{"title":"The works of Robert Burns;","author":"Burns, Robert","year":"1820-01-01","url":"http:\/\/babel.hathitrust.org\/cgi\/pt?id=uc2.ark:\/13960\/t19k4k59v","placename":"Ellisland","snippet":"Ellisland, New-Year-Day Morning, 1789.    "},{"title":"The works of Robert Burns;","author":"Burns, Robert","year":"1820-01-01","url":"http:\/\/babel.hathitrust.org\/cgi\/pt?id=uc2.ark:\/13960\/t19k4k59v","placename":"Ellisland","snippet":"Ellisland, llth December, 1788.    "},{"title":"The works of Robert Burns;","author":"Burns, Robert","year":"1820-01-01","url":"http:\/\/babel.hathitrust.org\/cgi\/pt?id=uc2.ark:\/13960\/t19k4k59v","placename":"Ellisland","snippet":"Ellisland, \\Qth August, 1788.    "},{"title":"The works of Robert Burns;","author":"Burns, Robert","year":"1820-01-01","url":"http:\/\/babel.hathitrust.org\/cgi\/pt?id=uc2.ark:\/13960\/t19k4k59v","placename":"Ellisland","snippet":"Ellisland, \\Zth June, 1788.    "},{"title":"The complete works of Robert Burns: containing his poems, songs, and correspondence.","author":"Burns, Robert","year":"1852-01-01","url":"http:\/\/babel.hathitrust.org\/cgi\/pt?id=loc.ark:\/13960\/t01z4r72g","placename":"Ellisland","snippet":"Ellisland, llth December, 1791.    "},{"title":"The complete works of Robert Burns: containing his poems, songs, and correspondence.","author":"Burns, Robert","year":"1852-01-01","url":"http:\/\/babel.hathitrust.org\/cgi\/pt?id=loc.ark:\/13960\/t01z4r72g","placename":"Ellisland","snippet":"Ellisland, Sept. 1, 1791.    "},{"title":"The complete works of Robert Burns: containing his poems, songs, and correspondence.","author":"Burns, Robert","year":"1852-01-01","url":"http:\/\/babel.hathitrust.org\/cgi\/pt?id=loc.ark:\/13960\/t01z4r72g","placename":"Ellisland","snippet":"Ellisland, August 29th, 1791.    "},{"title":"The complete works of Robert Burns: containing his poems, songs, and correspondence.","author":"Burns, Robert","year":"1852-01-01","url":"http:\/\/babel.hathitrust.org\/cgi\/pt?id=loc.ark:\/13960\/t01z4r72g","placename":"Ellisland","snippet":"Ellisland, llth April, 1791.    "},{"title":"The complete works of Robert Burns: containing his poems, songs, and correspondence.","author":"Burns, Robert","year":"1852-01-01","url":"http:\/\/babel.hathitrust.org\/cgi\/pt?id=loc.ark:\/13960\/t01z4r72g","placename":"Ellisland","snippet":"Ellisland, 1791.    "},{"title":"The complete works of Robert Burns: containing his poems, songs, and correspondence.","author":"Burns, Robert","year":"1852-01-01","url":"http:\/\/babel.hathitrust.org\/cgi\/pt?id=loc.ark:\/13960\/t01z4r72g","placename":"Ellisland","snippet":"Ellisland, 1791.    "},{"title":"The complete works of Robert Burns: containing his poems, songs, and correspondence.","author":"Burns, Robert","year":"1852-01-01","url":"http:\/\/babel.hathitrust.org\/cgi\/pt?id=loc.ark:\/13960\/t01z4r72g","placename":"Ellisland","snippet":"Ellisland, \\%th March, 1791.    "},{"title":"The complete works of Robert Burns: containing his poems, songs, and correspondence.","author":"Burns, Robert","year":"1852-01-01","url":"http:\/\/babel.hathitrust.org\/cgi\/pt?id=loc.ark:\/13960\/t01z4r72g","placename":"Ellisland","snippet":"Ellisland, 12th March, 1791.    "},{"title":"The complete works of Robert Burns: containing his poems, songs, and correspondence.","author":"Burns, Robert","year":"1852-01-01","url":"http:\/\/babel.hathitrust.org\/cgi\/pt?id=loc.ark:\/13960\/t01z4r72g","placename":"Ellisland","snippet":"Ellisland, 20(h Ftbruarij, 1791.    "},{"title":"The complete works of Robert Burns: containing his poems, songs, and correspondence.","author":"Burns, Robert","year":"1852-01-01","url":"http:\/\/babel.hathitrust.org\/cgi\/pt?id=loc.ark:\/13960\/t01z4r72g","placename":"Ellisland","snippet":"Ellisland, near Dumfrict, \\ith Feb. 1791.    "},{"title":"The complete works of Robert Burns: containing his poems, songs, and correspondence.","author":"Burns, Robert","year":"1852-01-01","url":"http:\/\/babel.hathitrust.org\/cgi\/pt?id=loc.ark:\/13960\/t01z4r72g","placename":"Ellisland","snippet":"Ellisland, 11th January, 1791.    "},{"title":"The complete works of Robert Burns: containing his poems, songs, and correspondence.","author":"Burns, Robert","year":"1852-01-01","url":"http:\/\/babel.hathitrust.org\/cgi\/pt?id=loc.ark:\/13960\/t01z4r72g","placename":"Ellisland","snippet":"Ellisland, Wth January, 1791.    "},{"title":"The complete works of Robert Burns: containing his poems, songs, and correspondence.","author":"Burns, Robert","year":"1852-01-01","url":"http:\/\/babel.hathitrust.org\/cgi\/pt?id=loc.ark:\/13960\/t01z4r72g","placename":"Ellisland","snippet":"Ellisland, November, 1790.    "},{"title":"The complete works of Robert Burns: containing his poems, songs, and correspondence.","author":"Burns, Robert","year":"1852-01-01","url":"http:\/\/babel.hathitrust.org\/cgi\/pt?id=loc.ark:\/13960\/t01z4r72g","placename":"Ellisland","snippet":"Ellisland, 15th October, 1790.    "},{"title":"The complete works of Robert Burns: containing his poems, songs, and correspondence.","author":"Burns, Robert","year":"1852-01-01","url":"http:\/\/babel.hathitrust.org\/cgi\/pt?id=loc.ark:\/13960\/t01z4r72g","placename":"Ellisland","snippet":"Ellisland, 8th August, 1790.    "},{"title":"The complete works of Robert Burns: containing his poems, songs, and correspondence.","author":"Burns, Robert","year":"1852-01-01","url":"http:\/\/babel.hathitrust.org\/cgi\/pt?id=loc.ark:\/13960\/t01z4r72g","placename":"Ellisland","snippet":"Ellisland, 2d August, 1'    "},{"title":"The complete works of Robert Burns: containing his poems, songs, and correspondence.","author":"Burns, Robert","year":"1852-01-01","url":"http:\/\/babel.hathitrust.org\/cgi\/pt?id=loc.ark:\/13960\/t01z4r72g","placename":"Ellisland","snippet":"Ellisland, July IG, 1790.    "},{"title":"The complete works of Robert Burns: containing his poems, songs, and correspondence.","author":"Burns, Robert","year":"1852-01-01","url":"http:\/\/babel.hathitrust.org\/cgi\/pt?id=loc.ark:\/13960\/t01z4r72g","placename":"Ellisland","snippet":"Ellisland, 1790.    "},{"title":"The complete works of Robert Burns: containing his poems, songs, and correspondence.","author":"Burns, Robert","year":"1852-01-01","url":"http:\/\/babel.hathitrust.org\/cgi\/pt?id=loc.ark:\/13960\/t01z4r72g","placename":"Ellisland","snippet":"Ellisland, \\Oth April, 1790.    "},{"title":"The complete works of Robert Burns: containing his poems, songs, and correspondence.","author":"Burns, Robert","year":"1852-01-01","url":"http:\/\/babel.hathitrust.org\/cgi\/pt?id=loc.ark:\/13960\/t01z4r72g","placename":"Ellisland","snippet":"Ellisland, 2d March, 1790.    "},{"title":"The complete works of Robert Burns: containing his poems, songs, and correspondence.","author":"Burns, Robert","year":"1852-01-01","url":"http:\/\/babel.hathitrust.org\/cgi\/pt?id=loc.ark:\/13960\/t01z4r72g","placename":"Ellisland","snippet":"Ellisland, ISth February, 1790.    "},{"title":"The complete works of Robert Burns: containing his poems, songs, and correspondence.","author":"Burns, Robert","year":"1852-01-01","url":"http:\/\/babel.hathitrust.org\/cgi\/pt?id=loc.ark:\/13960\/t01z4r72g","placename":"Ellisland","snippet":"Ellisland, Feb. 9th, 1790.    "},{"title":"The complete works of Robert Burns: containing his poems, songs, and correspondence.","author":"Burns, Robert","year":"1852-01-01","url":"http:\/\/babel.hathitrust.org\/cgi\/pt?id=loc.ark:\/13960\/t01z4r72g","placename":"Ellisland","snippet":"Ellisland, 2d Feb., 1790.    "},{"title":"The complete works of Robert Burns: containing his poems, songs, and correspondence.","author":"Burns, Robert","year":"1852-01-01","url":"http:\/\/babel.hathitrust.org\/cgi\/pt?id=loc.ark:\/13960\/t01z4r72g","placename":"Ellisland","snippet":"Ellisland, 25<\/t January, 1790.    "},{"title":"The complete works of Robert Burns: containing his poems, songs, and correspondence.","author":"Burns, Robert","year":"1852-01-01","url":"http:\/\/babel.hathitrust.org\/cgi\/pt?id=loc.ark:\/13960\/t01z4r72g","placename":"Ellisland","snippet":"Ellisland, 14.th Januury, 1790.    "},{"title":"The complete works of Robert Burns: containing his poems, songs, and correspondence.","author":"Burns, Robert","year":"1852-01-01","url":"http:\/\/babel.hathitrust.org\/cgi\/pt?id=loc.ark:\/13960\/t01z4r72g","placename":"Ellisland","snippet":"Ellisland, llth January, 1790.    "},{"title":"The complete works of Robert Burns: containing his poems, songs, and correspondence.","author":"Burns, Robert","year":"1852-01-01","url":"http:\/\/babel.hathitrust.org\/cgi\/pt?id=loc.ark:\/13960\/t01z4r72g","placename":"Ellisland","snippet":"Ellisland, 13th December, 1789.    "},{"title":"The complete works of Robert Burns: containing his poems, songs, and correspondence.","author":"Burns, Robert","year":"1852-01-01","url":"http:\/\/babel.hathitrust.org\/cgi\/pt?id=loc.ark:\/13960\/t01z4r72g","placename":"Ellisland","snippet":"Ellisland, ith November, 1789.    "},{"title":"The complete works of Robert Burns: containing his poems, songs, and correspondence.","author":"Burns, Robert","year":"1852-01-01","url":"http:\/\/babel.hathitrust.org\/cgi\/pt?id=loc.ark:\/13960\/t01z4r72g","placename":"Ellisland","snippet":"Ellisland, \\st Nov. 1789.    "},{"title":"The complete works of Robert Burns: containing his poems, songs, and correspondence.","author":"Burns, Robert","year":"1852-01-01","url":"http:\/\/babel.hathitrust.org\/cgi\/pt?id=loc.ark:\/13960\/t01z4r72g","placename":"Ellisland","snippet":"Ellisland, Qth Sept., 1789.    "},{"title":"The complete works of Robert Burns: containing his poems, songs, and correspondence.","author":"Burns, Robert","year":"1852-01-01","url":"http:\/\/babel.hathitrust.org\/cgi\/pt?id=loc.ark:\/13960\/t01z4r72g","placename":"Ellisland","snippet":"Ellisland, near Dumfries, 1th Aug. 1789.    "},{"title":"The complete works of Robert Burns: containing his poems, songs, and correspondence.","author":"Burns, Robert","year":"1852-01-01","url":"http:\/\/babel.hathitrust.org\/cgi\/pt?id=loc.ark:\/13960\/t01z4r72g","placename":"Ellisland","snippet":"Ellisland, 1789.    "},{"title":"The complete works of Robert Burns: containing his poems, songs, and correspondence.","author":"Burns, Robert","year":"1852-01-01","url":"http:\/\/babel.hathitrust.org\/cgi\/pt?id=loc.ark:\/13960\/t01z4r72g","placename":"Ellisland","snippet":"Ellisland, 2\\st June, 1789.    "},{"title":"The complete works of Robert Burns: containing his poems, songs, and correspondence.","author":"Burns, Robert","year":"1852-01-01","url":"http:\/\/babel.hathitrust.org\/cgi\/pt?id=loc.ark:\/13960\/t01z4r72g","placename":"Ellisland","snippet":"Ellisland, 4th June, 1789.    "},{"title":"The complete works of Robert Burns: containing his poems, songs, and correspondence.","author":"Burns, Robert","year":"1852-01-01","url":"http:\/\/babel.hathitrust.org\/cgi\/pt?id=loc.ark:\/13960\/t01z4r72g","placename":"Ellisland","snippet":"Ellisland, SOth May, 17!    "},{"title":"The complete works of Robert Burns: containing his poems, songs, and correspondence.","author":"Burns, Robert","year":"1852-01-01","url":"http:\/\/babel.hathitrust.org\/cgi\/pt?id=loc.ark:\/13960\/t01z4r72g","placename":"Ellisland","snippet":"Ellisland, 26th May, 1789.    "},{"title":"The complete works of Robert Burns: containing his poems, songs, and correspondence.","author":"Burns, Robert","year":"1852-01-01","url":"http:\/\/babel.hathitrust.org\/cgi\/pt?id=loc.ark:\/13960\/t01z4r72g","placename":"Ellisland","snippet":"Ellisland, ith 3Iay, 1789.    "},{"title":"The complete works of Robert Burns: containing his poems, songs, and correspondence.","author":"Burns, Robert","year":"1852-01-01","url":"http:\/\/babel.hathitrust.org\/cgi\/pt?id=loc.ark:\/13960\/t01z4r72g","placename":"Ellisland","snippet":"Ellisland, 2d 3Iaij, 1789.    "},{"title":"The complete works of Robert Burns: containing his poems, songs, and correspondence.","author":"Burns, Robert","year":"1852-01-01","url":"http:\/\/babel.hathitrust.org\/cgi\/pt?id=loc.ark:\/13960\/t01z4r72g","placename":"Ellisland","snippet":"Ellisland, 4th April, 1789.    "},{"title":"The complete works of Robert Burns: containing his poems, songs, and correspondence.","author":"Burns, Robert","year":"1852-01-01","url":"http:\/\/babel.hathitrust.org\/cgi\/pt?id=loc.ark:\/13960\/t01z4r72g","placename":"Ellisland","snippet":"Ellisland, 2d Ajpril, 1789.    "},{"title":"The complete works of Robert Burns: containing his poems, songs, and correspondence.","author":"Burns, Robert","year":"1852-01-01","url":"http:\/\/babel.hathitrust.org\/cgi\/pt?id=loc.ark:\/13960\/t01z4r72g","placename":"Ellisland","snippet":"Ellisland, 2Zd March, 1789.    "},{"title":"The complete works of Robert Burns: containing his poems, songs, and correspondence.","author":"Burns, Robert","year":"1852-01-01","url":"http:\/\/babel.hathitrust.org\/cgi\/pt?id=loc.ark:\/13960\/t01z4r72g","placename":"Ellisland","snippet":"Ellisland, 4(h March, 1789.    "},{"title":"The complete works of Robert Burns: containing his poems, songs, and correspondence.","author":"Burns, Robert","year":"1852-01-01","url":"http:\/\/babel.hathitrust.org\/cgi\/pt?id=loc.ark:\/13960\/t01z4r72g","placename":"Ellisland","snippet":"Ellisland, <dth Feb. 1789.    "},{"title":"The complete works of Robert Burns: containing his poems, songs, and correspondence.","author":"Burns, Robert","year":"1852-01-01","url":"http:\/\/babel.hathitrust.org\/cgi\/pt?id=loc.ark:\/13960\/t01z4r72g","placename":"Ellisland","snippet":"Ellisland, Zd Feb. 1789.    "},{"title":"The complete works of Robert Burns: containing his poems, songs, and correspondence.","author":"Burns, Robert","year":"1852-01-01","url":"http:\/\/babel.hathitrust.org\/cgi\/pt?id=loc.ark:\/13960\/t01z4r72g","placename":"Ellisland","snippet":"Ellisland, 20th Jan, 1789.    "},{"title":"The complete works of Robert Burns: containing his poems, songs, and correspondence.","author":"Burns, Robert","year":"1852-01-01","url":"http:\/\/babel.hathitrust.org\/cgi\/pt?id=loc.ark:\/13960\/t01z4r72g","placename":"Ellisland","snippet":"Ellisland, Jan. 6, 1789.    "},{"title":"The complete works of Robert Burns: containing his poems, songs, and correspondence.","author":"Burns, Robert","year":"1852-01-01","url":"http:\/\/babel.hathitrust.org\/cgi\/pt?id=loc.ark:\/13960\/t01z4r72g","placename":"Ellisland","snippet":"Ellisland, ilh Jan. 17!    "},{"title":"The complete works of Robert Burns: containing his poems, songs, and correspondence.","author":"Burns, Robert","year":"1852-01-01","url":"http:\/\/babel.hathitrust.org\/cgi\/pt?id=loc.ark:\/13960\/t01z4r72g","placename":"Ellisland","snippet":"[The poet seems, in this letter, to perceive that Ellisland  was not the bargain he had reckoned it: he intimated.    "},{"title":"The complete works of Robert Burns: containing his poems, songs, and correspondence.","author":"Burns, Robert","year":"1852-01-01","url":"http:\/\/babel.hathitrust.org\/cgi\/pt?id=loc.ark:\/13960\/t01z4r72g","placename":"Ellisland","snippet":"Ellisland, Neto-year-day Morning, 1789, This, dear Madam, is a morning of wishes, and would to God that I came under the apostle James's description ! \u2014 the prayer of a righteous man availeth much.    "},{"title":"The complete works of Robert Burns: containing his poems, songs, and correspondence.","author":"Burns, Robert","year":"1852-01-01","url":"http:\/\/babel.hathitrust.org\/cgi\/pt?id=loc.ark:\/13960\/t01z4r72g","placename":"Ellisland","snippet":"Please write me by first post, and direct to me at Ellisland, near Dumfries.    "},{"title":"The complete works of Robert Burns: containing his poems, songs, and correspondence.","author":"Burns, Robert","year":"1852-01-01","url":"http:\/\/babel.hathitrust.org\/cgi\/pt?id=loc.ark:\/13960\/t01z4r72g","placename":"Ellisland","snippet":"Ellisland, 17th December, 1788.    "},{"title":"The complete works of Robert Burns: containing his poems, songs, and correspondence.","author":"Burns, Robert","year":"1852-01-01","url":"http:\/\/babel.hathitrust.org\/cgi\/pt?id=loc.ark:\/13960\/t01z4r72g","placename":"Ellisland","snippet":"Nithsdale; till then, my direction is at this place ; after that period, it will be at Ellisland, near Dumfries.    "},{"title":"The complete works of Robert Burns: containing his poems, songs, and correspondence.","author":"Burns, Robert","year":"1852-01-01","url":"http:\/\/babel.hathitrust.org\/cgi\/pt?id=loc.ark:\/13960\/t01z4r72g","placename":"Ellisland","snippet":"Ellisland, September 22, 1788.    "},{"title":"The complete works of Robert Burns: containing his poems, songs, and correspondence.","author":"Burns, Robert","year":"1852-01-01","url":"http:\/\/babel.hathitrust.org\/cgi\/pt?id=loc.ark:\/13960\/t01z4r72g","placename":"Ellisland","snippet":"[Morison, of Mauchline, made most of the poet's furniture,  for Ellisland : from Mauchline, too, came that eight-day clock, which was sold, at the death of the poet's widow, for thirty-eight pounds, to one who would have paid one hundred, sooner than wanted it.]    "},{"title":"The complete works of Robert Burns: containing his poems, songs, and correspondence.","author":"Burns, Robert","year":"1852-01-01","url":"http:\/\/babel.hathitrust.org\/cgi\/pt?id=loc.ark:\/13960\/t01z4r72g","placename":"Ellisland","snippet":"Ellisland, near Dumfries, Sept.    "},{"title":"The complete works of Robert Burns: containing his poems, songs, and correspondence.","author":"Burns, Robert","year":"1852-01-01","url":"http:\/\/babel.hathitrust.org\/cgi\/pt?id=loc.ark:\/13960\/t01z4r72g","placename":"Ellisland","snippet":"Ellisland, dth Sept. 1788.    "},{"title":"The complete works of Robert Burns: containing his poems, songs, and correspondence.","author":"Burns, Robert","year":"1852-01-01","url":"http:\/\/babel.hathitrust.org\/cgi\/pt?id=loc.ark:\/13960\/t01z4r72g","placename":"Ellisland","snippet":"Ellisland, 1G<A August, 1788.    "},{"title":"The complete works of Robert Burns: containing his poems, songs, and correspondence.","author":"Burns, Robert","year":"1852-01-01","url":"http:\/\/babel.hathitrust.org\/cgi\/pt?id=loc.ark:\/13960\/t01z4r72g","placename":"Ellisland","snippet":"Ellisland, August, 1788.    "},{"title":"The complete works of Robert Burns: containing his poems, songs, and correspondence.","author":"Burns, Robert","year":"1852-01-01","url":"http:\/\/babel.hathitrust.org\/cgi\/pt?id=loc.ark:\/13960\/t01z4r72g","placename":"Ellisland","snippet":"Ellisland, June BOth, 1788.    "},{"title":"The complete works of Robert Burns: containing his poems, songs, and correspondence.","author":"Burns, Robert","year":"1852-01-01","url":"http:\/\/babel.hathitrust.org\/cgi\/pt?id=loc.ark:\/13960\/t01z4r72g","placename":"Ellisland","snippet":"Ellisland, June lAlh, 1788.    "},{"title":"The complete works of Robert Burns: containing his poems, songs, and correspondence.","author":"Burns, Robert","year":"1852-01-01","url":"http:\/\/babel.hathitrust.org\/cgi\/pt?id=loc.ark:\/13960\/t01z4r72g","placename":"Ellisland","snippet":"Ellisland, 13ih June, 1788,    "},{"title":"The complete works of Robert Burns: containing his poems, songs, and correspondence.","author":"Burns, Robert","year":"1852-01-01","url":"http:\/\/babel.hathitrust.org\/cgi\/pt?id=loc.ark:\/13960\/t01z4r72g","placename":"Ellisland","snippet":"[In this, the poet's first letter from Ellisland, belays down his whole system of in-door and out-door economy : while his wife took care of the household, he was to manage the farm, and \" pen a stanza\" during his hours of leisure.]    "},{"title":"The complete works of Robert Burns: containing his poems, songs, and correspondence.","author":"Burns, Robert","year":"1852-01-01","url":"http:\/\/babel.hathitrust.org\/cgi\/pt?id=loc.ark:\/13960\/t01z4r72g","placename":"Ellisland","snippet":"completed a bargain with Mr. Miller, of Dalswinton,  for the farm of Ellisland, on the banks of the Nith, between five and six miles above Dumfries.    "},{"title":"The complete works of Robert Burns: containing his poems, songs, and correspondence.","author":"Burns, Robert","year":"1852-01-01","url":"http:\/\/babel.hathitrust.org\/cgi\/pt?id=loc.ark:\/13960\/t01z4r72g","placename":"Ellisland","snippet":"[The charm vv'hich Dumfries threw over the poet, seems to have dissolved like a spell, when he sat down in Ellisland: he spoke, for a time, with little respect of eitlier place or people.]    "},{"title":"The complete works of Robert Burns: containing his poems, songs, and correspondence.","author":"Burns, Robert","year":"1852-01-01","url":"http:\/\/babel.hathitrust.org\/cgi\/pt?id=loc.ark:\/13960\/t01z4r72g","placename":"Ellisland","snippet":"[Burns had built his house at Ellisland, sowed his first crop, the woman he loved was at his side, and hope was high ; no wonder that he indulged in this independent strain.]    "},{"title":"The complete works of Robert Burns: containing his poems, songs, and correspondence.","author":"Burns, Robert","year":"1852-01-01","url":"http:\/\/babel.hathitrust.org\/cgi\/pt?id=loc.ark:\/13960\/t01z4r72g","placename":"Ellisland","snippet":"[The death of Glencaiin, ^\\\u2022ho was liis patron, and the death of Glenriddel, who was his friend, and had, wliile he lived at Ellisland, been liis neighbour, weighed hard on the mind of Burns, who, about this time, began to regard his own future fortune with more of dismay than of hope. Riddel united antiquarian pursuits with those of literature, and experienced all the vulgar prejudices entertained  by the peasantry against those who indulge in such researches. His collection of what tlie rustics of the vale called \"queer quairns and swine-troughs,\" is now scattered or neglected : I have heard a competent judge say, that they threw light on both the public and domestic history of Scotland.]    "},{"title":"The complete works of Robert Burns: containing his poems, songs, and correspondence.","author":"Burns, Robert","year":"1852-01-01","url":"http:\/\/babel.hathitrust.org\/cgi\/pt?id=loc.ark:\/13960\/t01z4r72g","placename":"Ellisland","snippet":"The walk in which it was conceived, on the braes of Ellisland, is held in remembrance  in the vale, and pointed out to poetic inquirers : while the scene where the poem is laid\u2014 tlie crumbling ruins \u2014 the place where the chapman perished in the snow \u2014the tree on which the poor mother of Mungo ended her sorrows \u2014 the cairn where the murdered child was found by the hunters\u2014 and the old bridge over wliich Maggie bore her astonished master when all hell was in pursuit, are first-rate objects of inspection and inquiry in the \"Land of Burns.\"    "},{"title":"The complete works of Robert Burns: containing his poems, songs, and correspondence.","author":"Burns, Robert","year":"1852-01-01","url":"http:\/\/babel.hathitrust.org\/cgi\/pt?id=loc.ark:\/13960\/t01z4r72g","placename":"Ellisland","snippet":"Ellisland, Monday morning, 1790.    "},{"title":"The complete works of Robert Burns: containing his poems, songs, and correspondence.","author":"Burns, Robert","year":"1852-01-01","url":"http:\/\/babel.hathitrust.org\/cgi\/pt?id=loc.ark:\/13960\/t01z4r72g","placename":"Ellisland","snippet":"[This prologue was written in December, 1789, for Mr. Sutherland, who recited it with applause in the little theatre of Dumfries, on new-year's night. Sir Harris Nicolas, however, has given to Ellisland the benefit of a theatre ! and to Burns the whole barony of Dalsvvlnton for a farm !]    "},{"title":"The complete works of Robert Burns: containing his poems, songs, and correspondence.","author":"Burns, Robert","year":"1852-01-01","url":"http:\/\/babel.hathitrust.org\/cgi\/pt?id=loc.ark:\/13960\/t01z4r72g","placename":"Ellisland","snippet":"[This Poem is founded on fact. A young man of the name of Thomson told me \u2014 quite unconscious of tlio existence of the Poem\u2014 that while Burns lived at Ellisland\u2014  he shot at and hurt a hare, which in the twilight was feeding on his father's wheat-bread. The poet, on observing the hare come bleeding past him, \" was in great wrath,\" said Thomson, \"and cursed me, and said little hindered him from throwing me into the Nith ; and he was able enough to do it, though I was both young and strong.\" The boor of Nith.side did not use the hare worse than the critical Dr. Gregory, of Edinburgh, used the Poem: when Burns read his remarks he said, <' Gregory  is a good man, but he crucifies me !\"]    "},{"title":"The complete works of Robert Burns: containing his poems, songs, and correspondence.","author":"Burns, Robert","year":"1852-01-01","url":"http:\/\/babel.hathitrust.org\/cgi\/pt?id=loc.ark:\/13960\/t01z4r72g","placename":"Ellisland","snippet":"Ellisland, Monday Evening.    "},{"title":"The complete works of Robert Burns: containing his poems, songs, and correspondence.","author":"Burns, Robert","year":"1852-01-01","url":"http:\/\/babel.hathitrust.org\/cgi\/pt?id=loc.ark:\/13960\/t01z4r72g","placename":"Ellisland","snippet":"[Captain Riddel, the Laird of Friars-Carse, was Burns's neighbour, at Ellisland : he was a kind, hospitable  man, and a good antiquary. The \"News and Review\" which he sent to the poet contained, I have heard, some sharp strictures on his works : Burns, with his usual strong sense, set the proper value upon all contemporai-y criticism; genius, he knew, had nothing to fear from the folly or the malice of all such nameless \" chippers and hewers.\" He demanded trial by his peers, and where were such to be found ?]    "},{"title":"The complete works of Robert Burns: containing his poems, songs, and correspondence.","author":"Burns, Robert","year":"1852-01-01","url":"http:\/\/babel.hathitrust.org\/cgi\/pt?id=loc.ark:\/13960\/t01z4r72g","placename":"Ellisland","snippet":"estate of Friars-Carse, and close to the march-dyke of Ellisland; a small door in the fence, of which tlie poet had the key, admitted him at pleasure, and there he found seclusion such as he liked, with flowers and shrubs all    "},{"title":"The complete works of Robert Burns: containing his poems, songs, and correspondence.","author":"Burns, Robert","year":"1852-01-01","url":"http:\/\/babel.hathitrust.org\/cgi\/pt?id=loc.ark:\/13960\/t01z4r72g","placename":"Ellisland","snippet":"[The west country farmer to whom this letter was sent, was a social man. The poet depended on his judgment  in the choice of a farm, when he resolved to quit the harp for the plough: but as Ellisland was his choice, liis skill may be questioned.]    "},{"title":"Notes of foreign travel.","author":"Bates, James Hale","year":"1891-01-01","url":"http:\/\/babel.hathitrust.org\/cgi\/pt?id=loc.ark:\/13960\/t1bk2243v","placename":"Ellisland","snippet":"We saw plainly on our right \u2014 for at this latitude one sees to read at 9 p.m. \u2014 the white farm-house of Ellisland, where Burns tried farming to small purpose, on through many a little village, with its low, white cottages, through Mauchline, the maiden home of Jean Armour, where Burns married her, reaching the Station Hotel at II P.M.    "},{"title":"Sparks from a Locomotive; or Life and Liberty in Europe. By the author of \u201cBelle Brittan's Letters.\u201d [The dedication signed, H. F., i.e. H. Fuller.]","author":"F., H.","year":"1859-01-01","url":"https:\/\/historicaltexts.jisc.ac.uk\/bl-001187143","placename":"Ellisland","snippet":"To Mr. Kirkpatrick, who occupies theBurns farm at Ellisland, seven miles out, and whocalled to take me to his place in order that hemight \" gie me a Hieland welcome,\" and to themembers of the \" Banquet Committee,\" who held aspecial meeting and voted me a ticket (after having\" refused applications for hundreds,\") because I had\" come all the way from America,\" I also wish toconvey my grateful acknowledgments.    "},{"title":"Varieties in Prose","author":"Allingham, William","year":"1893-01-01","url":"https:\/\/historicaltexts.jisc.ac.uk\/bl-000058333-02","placename":"Ellisland","snippet":"Alloway, Mount Oliphant, Lochlea, Mossgiel, Edinburgh,Ellisland, Dumfries,\u2014Nelly Kilpatrick, Elizabeth Paton,Jean Armour, Highland Mary, Clarinda, Peggy, and manyothers flit before me\u2014the peasant, the rhymester, the exciseman, with his hopes, enthusiasms, struggles, vices, remorses,disgraces, t\u0153dium vit\u0153, and death at thirty-seven,\u2014a greatoriginal Poet, honest, simple, cordial, and, at the same time,by instinct, a true poetic artist, using the old Scottishdialect, and raising it once and for ever into a classic tongue ;his songs household words over the globe; his fame one ofScotland's dearest possessions.    "},{"title":"Varieties in Prose","author":"Allingham, William","year":"1893-01-01","url":"https:\/\/historicaltexts.jisc.ac.uk\/bl-000058333-02","placename":"Ellisland","snippet":"Burns wrote this (' his own favourite poem' hecalls it) at Ellisland, for Grose's Antiquities of Scotland.    "}]