[{"title":"Waverley; Or 'Tis Sixty Years Since - Complete","author":"Scott, Walter","year":null,"url":"http:\/\/www.gutenberg.org\/ebooks\/4966","placename":"Gowd","snippet":"GOWD, gold.    "},{"title":"Old Mortality, Complete","author":"Scott, Walter","year":null,"url":"http:\/\/www.gutenberg.org\/ebooks\/6941","placename":"Gowd","snippet":"Gowd, gold.    "},{"title":"Waverley; Or, 'Tis Sixty Years Since","author":"Scott, Walter","year":null,"url":"http:\/\/www.gutenberg.org\/ebooks\/5998","placename":"Gowd","snippet":"GOWD, gold.    "},{"title":"Waverley; Or, 'Tis Sixty Years Since - Volume 2","author":"Scott, Walter","year":null,"url":"http:\/\/www.gutenberg.org\/ebooks\/4965","placename":"Gowd","snippet":"GOWD, gold.    "},{"title":"Waverley; Or, 'Tis Sixty Years Since - Volume 2","author":"Scott, Walter","year":null,"url":"http:\/\/www.gutenberg.org\/ebooks\/4965","placename":"Gowd","snippet":"GOWD, gold.    "},{"title":"The works of Robert Burns: with an account of his life, and criticism on his writings.","author":"Burns, Robert","year":"1830-01-01","url":"http:\/\/babel.hathitrust.org\/cgi\/pt?id=loc.ark:\/13960\/t77s86n39","placename":"Gowd","snippet":"Gowd, gold.    "},{"title":"The complete poetical and prose works of Robert Burns:","author":"Burns, Robert","year":"1859-01-01","url":"http:\/\/babel.hathitrust.org\/cgi\/pt?id=loc.ark:\/13960\/t4pk0xn8h","placename":"Gowd","snippet":"Gowd.    "},{"title":"The complete poetical and prose works of Robert Burns:","author":"Burns, Robert","year":"1881-01-01","url":"http:\/\/babel.hathitrust.org\/cgi\/pt?id=loc.ark:\/13960\/t43r1df6g","placename":"Gowd","snippet":"Gowd.    "}]