[{"title":"Border Ghost Stories","author":"Pease, Howard","year":null,"url":"http:\/\/www.gutenberg.org\/ebooks\/27449","placename":"Jed","snippet":"I stayed a minute or two more to give my mare a mouthful of water at thesprings of Jed, but whereas I had intended an inch she insisted upon anell.    "},{"title":"Border Ghost Stories","author":"Pease, Howard","year":null,"url":"http:\/\/www.gutenberg.org\/ebooks\/27449","placename":"Jed","snippet":"I stayed a minute or two more to give my mare a mouthful of water at thesprings of Jed, but whereas I had intended an inch she insisted upon anell.    "},{"title":"Stories of the Border Marches","author":"Lang, John","year":null,"url":"http:\/\/www.gutenberg.org\/ebooks\/14416","placename":"Jed","snippet":"The little grey town on the Jed was packed with Scottishand French nobles and their retinues.    "},{"title":"Stories of the Border Marches","author":"Lang, John","year":null,"url":"http:\/\/www.gutenberg.org\/ebooks\/14416","placename":"Jed","snippet":"The little grey town on the Jed was packed with Scottishand French nobles and their retinues.    "},{"title":"The works of Professor Wilson of the University of Edinburgh,","author":"Wilson, John","year":null,"url":"http:\/\/babel.hathitrust.org\/cgi\/pt?id=uc2.ark:\/13960\/t57d2xk6x","placename":"Jed","snippet":"which flora Jed the way, she turned about to the minister, and, pointing with her little hand, cried, \" Yonder's the shieling, Bil in;, grandfather, if alive, will bless your lace at his bedside.\"    "},{"title":"Black's picturesque tourist of Scotland.","author":null,"year":"1857-01-01","url":"http:\/\/babel.hathitrust.org\/cgi\/pt?id=uc2.ark:\/13960\/t9862nx30","placename":"Jed","snippet":"On the banks of the Jed, at Hundalee, Lintalee, and Moss- burnford, are caves dug out of the rock, supposed to have been used as hiding-places in ancient warfare.    "},{"title":"Black's picturesque tourist of Scotland.","author":null,"year":"1857-01-01","url":"http:\/\/babel.hathitrust.org\/cgi\/pt?id=uc2.ark:\/13960\/t9862nx30","placename":"Jed","snippet":"The county town of Roxburghshire, and the seat of the circuit court of justiciary, is a place of great antiquity ; the village of old Jed worth, about four miles above the present town, having been founded by Ecgred, Bishop of Lindisfarn, a.d. 845.    "},{"title":"Black's picturesque tourist of Scotland.","author":null,"year":"1857-01-01","url":"http:\/\/babel.hathitrust.org\/cgi\/pt?id=uc2.ark:\/13960\/t9862nx30","placename":"Jed","snippet":"(II5) Cross the Jed, and enter    "},{"title":"Black's picturesque tourist of Scotland.","author":null,"year":"1857-01-01","url":"http:\/\/babel.hathitrust.org\/cgi\/pt?id=uc2.ark:\/13960\/t9862nx30","placename":"Jed","snippet":"Half a mile to the east is the celebrated Koman causeway which crossed the Jed, and is still in a state of preservation, from the Jed to the Border hills.    "},{"title":"Black's picturesque tourist of Scotland.","author":null,"year":"1857-01-01","url":"http:\/\/babel.hathitrust.org\/cgi\/pt?id=uc2.ark:\/13960\/t9862nx30","placename":"Jed","snippet":"Half a mile to the east is the celebrated Koman causeway which crossed the Jed, and is still in a state of preservation, from the Jed to the Border hills.    "},{"title":"Guy Mannering, or, The astrologer \/","author":"Scott, Walter","year":"1815-01-01","url":"http:\/\/babel.hathitrust.org\/cgi\/pt?id=uiuo.ark:\/13960\/t2f773h88","placename":"Jed","snippet":"** Where be our guards r\" exclaimed this second Justinian ; '* see ye not a stranger knight from foreign  parts arrived at this our court of Holy-rood,_with our bold yeoman Andrew Dinmont, who has succeeded to the keeping  of our royal flocks within the forest of Jed wood, where, thanks to our royal care in the administration of justice, they feed as safe as if they were within the bounds of Fife ? Where be our heralds, our pursuivants, our Lyon, our March-    "},{"title":"The works of Robert Burns: with an account of his life, and criticism on his writings.","author":"Burns, Robert","year":"1830-01-01","url":"http:\/\/babel.hathitrust.org\/cgi\/pt?id=loc.ark:\/13960\/t77s86n39","placename":"Jed","snippet":"Walk up the Jed with some ladies to be shown Love lane, and Blackburn, two fairy scenes.    "},{"title":"The works of Robert Burns: with an account of his life, and criticism on his writings.","author":"Burns, Robert","year":"1830-01-01","url":"http:\/\/babel.hathitrust.org\/cgi\/pt?id=loc.ark:\/13960\/t77s86n39","placename":"Jed","snippet":"--Jed, a fine romantic little river.    "},{"title":"The works of Robert Burns: with an account of his life, and criticism on his writings.","author":"Burns, Robert","year":"1830-01-01","url":"http:\/\/babel.hathitrust.org\/cgi\/pt?id=loc.ark:\/13960\/t77s86n39","placename":"Jed","snippet":"Come up the '1'iviot, and up the Jed to Jedburgh  to lie, and so wish myself good night.    "},{"title":"The works of Robert Burns: with an account of his life, and criticism on his writings.","author":"Burns, Robert","year":"1830-01-01","url":"http:\/\/babel.hathitrust.org\/cgi\/pt?id=loc.ark:\/13960\/t77s86n39","placename":"Jed","snippet":"Up wimpling stately Tweed I've sped, And Eden scenes on crystal Jed, And Ettrick banks now roaring red,    "},{"title":"The works of Robert Burns;","author":"Burns, Robert","year":"1816-01-01","url":"http:\/\/babel.hathitrust.org\/cgi\/pt?id=loc.ark:\/13960\/t76t1jw9v","placename":"Jed","snippet":"Up wimpling stately Tweed I've sped, And Eden scenes on crystal Jed, And Ettrick banks now roaring red    "},{"title":"The complete poetical and prose works of Robert Burns:","author":"Burns, Robert","year":"1859-01-01","url":"http:\/\/babel.hathitrust.org\/cgi\/pt?id=loc.ark:\/13960\/t4pk0xn8h","placename":"Jed","snippet":"And Eden scenes on crystal Jed, And Ettrick banks now roaring red.    "},{"title":"The complete poetical and prose works of Robert Burns:","author":"Burns, Robert","year":"1859-01-01","url":"http:\/\/babel.hathitrust.org\/cgi\/pt?id=loc.ark:\/13960\/t4pk0xn8h","placename":"Jed","snippet":"Walk up the Jed with some ladies to be shown Love-lane, and Blackburn,  two fairy-scenes.    "},{"title":"The complete poetical and prose works of Robert Burns:","author":"Burns, Robert","year":"1859-01-01","url":"http:\/\/babel.hathitrust.org\/cgi\/pt?id=loc.ark:\/13960\/t4pk0xn8h","placename":"Jed","snippet":"Jed, a fine romantic little river.    "},{"title":"The complete poetical and prose works of Robert Burns:","author":"Burns, Robert","year":"1859-01-01","url":"http:\/\/babel.hathitrust.org\/cgi\/pt?id=loc.ark:\/13960\/t4pk0xn8h","placename":"Jed","snippet":"and up the Jed to Jedburgh to lie, and so wish myself good-night.    "},{"title":"The complete poetical and prose works of Robert Burns:","author":"Burns, Robert","year":"1881-01-01","url":"http:\/\/babel.hathitrust.org\/cgi\/pt?id=loc.ark:\/13960\/t43r1df6g","placename":"Jed","snippet":"And Eden scenes on crystal Jed, And Ettrick banks now roaring red.    "},{"title":"The complete poetical and prose works of Robert Burns:","author":"Burns, Robert","year":"1881-01-01","url":"http:\/\/babel.hathitrust.org\/cgi\/pt?id=loc.ark:\/13960\/t43r1df6g","placename":"Jed","snippet":"\"Walk up the Jed with some ladies to be shown Love-lane, and Blackburn,  two fairy-scenes.    "},{"title":"The complete poetical and prose works of Robert Burns:","author":"Burns, Robert","year":"1881-01-01","url":"http:\/\/babel.hathitrust.org\/cgi\/pt?id=loc.ark:\/13960\/t43r1df6g","placename":"Jed","snippet":"Jed, a fine romantic little river.    "},{"title":"The complete poetical and prose works of Robert Burns:","author":"Burns, Robert","year":"1881-01-01","url":"http:\/\/babel.hathitrust.org\/cgi\/pt?id=loc.ark:\/13960\/t43r1df6g","placename":"Jed","snippet":"Couie up the Te\\iot, and up the Jed to Jedburgh to lie, and so wish myself good-niglit.    "}]