[{"title":"Rab and His Friends and Other Papers","author":"Brown, John","year":null,"url":"http:\/\/www.gutenberg.org\/ebooks\/45929","placename":"Crofthead","snippet":"But once off, he always enjoyed himself,--especially in his visits to Thornliebank, Busby, Crofthead, Biggar, and Melrose.    "},{"title":"Rab and His Friends and Other Papers","author":"Brown, John","year":null,"url":"http:\/\/www.gutenberg.org\/ebooks\/45929","placename":"Crofthead","snippet":"But once off, he always enjoyed himself,--especially in his visits to Thornliebank, Busby, Crofthead, Biggar, and Melrose.    "},{"title":"Spare Hours","author":"Brown, John","year":null,"url":"http:\/\/www.gutenberg.org\/ebooks\/27153","placename":"Crofthead","snippet":"Butonce off, he always enjoyed himself,--especially in his visits toThornliebank, Busby, Crofthead, Biggar, and Melrose.    "},{"title":"Spare Hours","author":"Brown, John","year":null,"url":"http:\/\/www.gutenberg.org\/ebooks\/27153","placename":"Crofthead","snippet":"Butonce off, he always enjoyed himself,--especially in his visits toThornliebank, Busby, Crofthead, Biggar, and Melrose.    "},{"title":"Spare Hours","author":"Brown, John","year":null,"url":"http:\/\/www.gutenberg.org\/ebooks\/27153","placename":"Crofthead","snippet":"Butonce off, he always enjoyed himself,\u2014especially in his visits toThornliebank, Busby, Crofthead, Biggar, and Melrose.    "},{"title":"Horae subsecivae.","author":"Brown, John","year":"1893-01-01","url":"http:\/\/babel.hathitrust.org\/cgi\/pt?id=loc.ark:\/13960\/t8mc9js2p","placename":"Crofthead","snippet":"But once orT, he always enjoyed himself,  \u2014 especially in his visits to Thornliebank, Busby, Crofthead, Biggar, and Melrose.    "},{"title":"Rab and his friends and other dogs and men,","author":"Brown, John","year":"1890-01-01","url":"http:\/\/babel.hathitrust.org\/cgi\/pt?id=uc2.ark:\/13960\/t82j6bb7d","placename":"Crofthead","snippet":"But once off, he always enjoyed  himself, especially in his visits to Thornliebank,  Busby, Crofthead, Biggar, and Melrose.    "},{"title":"Spare hours...","author":"Brown, John","year":"1862-01-01","url":"http:\/\/babel.hathitrust.org\/cgi\/pt?id=loc.ark:\/13960\/t4sj2ch2j","placename":"Crofthead","snippet":"But once off, he always enjoyed himself,  \u2014 especially in his visits to Thornliebank, Busby, Crofthead, Biggar, and Melrose.    "}]