[{"title":"Life and Correspondence of David Hume, Volume I (of 2)","author":"Burton, John Hill","year":null,"url":"http:\/\/www.gutenberg.org\/ebooks\/42843","placename":"Minto","snippet":"Minto--Lord, i.    "},{"title":"Life and Correspondence of David Hume, Volume I (of 2)","author":"Burton, John Hill","year":null,"url":"http:\/\/www.gutenberg.org\/ebooks\/42843","placename":"Minto","snippet":"----, Gilbert, younger of Minto, afterwards Governor-general of India,      ii.    "},{"title":"Life and Correspondence of David Hume, Volume I (of 2)","author":"Burton, John Hill","year":null,"url":"http:\/\/www.gutenberg.org\/ebooks\/42843","placename":"Minto","snippet":"Elliot--Sir Gilbert, of Minto.    "},{"title":"Life and Correspondence of David Hume, Volume I (of 2)","author":"Burton, John Hill","year":null,"url":"http:\/\/www.gutenberg.org\/ebooks\/42843","placename":"Minto","snippet":"[336:1] Minto MSS.    "},{"title":"Life and Correspondence of David Hume, Volume I (of 2)","author":"Burton, John Hill","year":null,"url":"http:\/\/www.gutenberg.org\/ebooks\/42843","placename":"Minto","snippet":"[327:2] Minto MSS.    "},{"title":"Life and Correspondence of David Hume, Volume I (of 2)","author":"Burton, John Hill","year":null,"url":"http:\/\/www.gutenberg.org\/ebooks\/42843","placename":"Minto","snippet":"[324:2] Scroll, Minto MSS.    "},{"title":"Life and Correspondence of David Hume, Volume I (of 2)","author":"Burton, John Hill","year":null,"url":"http:\/\/www.gutenberg.org\/ebooks\/42843","placename":"Minto","snippet":"[322:1] Minto MS.    "},{"title":"Life and Correspondence of David Hume, Volume I (of 2)","author":"Burton, John Hill","year":null,"url":"http:\/\/www.gutenberg.org\/ebooks\/42843","placename":"Minto","snippet":"[320:2] In the following pages these papers will be cited as the MintoMSS.    "},{"title":"Life and Correspondence of David Hume, Volume I (of 2)","author":"Burton, John Hill","year":null,"url":"http:\/\/www.gutenberg.org\/ebooks\/42843","placename":"Minto","snippet":"HUME _to_ GILBERT ELLIOT _of Minto_.    "},{"title":"Life and Correspondence of David Hume, Volume I (of 2)","author":"Burton, John Hill","year":null,"url":"http:\/\/www.gutenberg.org\/ebooks\/42843","placename":"Minto","snippet":"HUME _to_ GILBERT ELLIOT _of Minto_.    "},{"title":"Life and Correspondence of David Hume, Volume I (of 2)","author":"Burton, John Hill","year":null,"url":"http:\/\/www.gutenberg.org\/ebooks\/42843","placename":"Minto","snippet":"HUME _to_ GILBERT ELLIOT _of Minto_.    "},{"title":"Life and Correspondence of David Hume, Volume I (of 2)","author":"Burton, John Hill","year":null,"url":"http:\/\/www.gutenberg.org\/ebooks\/42843","placename":"Minto","snippet":"GILBERT ELLIOT _of Minto, to_ HUME.    "},{"title":"Life and Correspondence of David Hume, Volume I (of 2)","author":"Burton, John Hill","year":null,"url":"http:\/\/www.gutenberg.org\/ebooks\/42843","placename":"Minto","snippet":"HUME _to_ GILBERT ELLIOT _of Minto_.    "},{"title":"Life and Correspondence of David Hume, Volume I (of 2)","author":"Burton, John Hill","year":null,"url":"http:\/\/www.gutenberg.org\/ebooks\/42843","placename":"Minto","snippet":"Sir Gilbert Elliot was the third baronet of the family of Minto, whobore the same Christian name.[320:3] He joined the Scottish bar, thoughhe does not seem to have sought professional practice.    "},{"title":"Life and Correspondence of David Hume, Volume I (of 2)","author":"Burton, John Hill","year":null,"url":"http:\/\/www.gutenberg.org\/ebooks\/42843","placename":"Minto","snippet":"Foremost in that body of accomplished gentlemen, whose friendship andcompanionship afforded to Hume so much pleasure and instruction, wasMr. afterwards Sir Gilbert Elliot of Minto.    "},{"title":"Black's picturesque tourist of Scotland.","author":null,"year":"1857-01-01","url":"http:\/\/babel.hathitrust.org\/cgi\/pt?id=uc2.ark:\/13960\/t9862nx30","placename":"Minto","snippet":"* Minto may also be reached by leaving the railway at Hassendean Station, and walking from thence througli tlie village of Minto to the Lodge, t See Lay of the Last Minstrel.    "},{"title":"Letters of Asa Gray,","author":"Gray, Asa","year":"1893-01-01","url":"http:\/\/babel.hathitrust.org\/cgi\/pt?id=uc2.ark:\/13960\/t2d797018","placename":"Minto","snippet":"Melbourne, and Minto ; the lord chancellor, Denman the chief justice, Sir James Scarlett, old Lord Holland,  etc., also spoke.    "},{"title":"Traditions of Edinburgh.","author":"Chambers, Robert","year":"1847-01-01","url":"http:\/\/babel.hathitrust.org\/cgi\/pt?id=uc2.ark:\/13960\/t80k29d0q","placename":"Minto","snippet":"Before Miss Nicky Murray, Lady Elliot of Minto, and Mrs Brown of Coalstoun, wives of judges, had exercised this lofty authority, which was thought honourable on account of the charitable object of the assemblies.    "},{"title":"Autobiography of the Rev. Dr. Alexander Carlyle, Minister of Inveresk,","author":"Carlyle, Alexander","year":"1860-01-01","url":"http:\/\/babel.hathitrust.org\/cgi\/pt?id=uc2.ark:\/13960\/t9j38s62g","placename":"Minto","snippet":"It was in the month of August this summer that Eobertson and I passed two days at Minto with Sir Gilbert Elliot, who was very open and communicative.    "},{"title":"Autobiography of the Rev. Dr. Alexander Carlyle, Minister of Inveresk,","author":"Carlyle, Alexander","year":"1860-01-01","url":"http:\/\/babel.hathitrust.org\/cgi\/pt?id=uc2.ark:\/13960\/t9j38s62g","placename":"Minto","snippet":"There met accordingly in the tavern the Eight Honourable the Lord Provost Drummond ; the Honourable AVilliam Master of Ross ; Mr Gilbert Elliot, junior of Minto ; Mr Andrew Pringle, advocate ; Messrs' J ardine, Blair, Robertson, John Home, Adam Dickson of Dunse, George Logan of Ormiston, Alexander Carlyle of Inveresk, and as many more as made fifteen, two of whom \u2014 viz.    "}]