[{"title":"Life and Correspondence of David Hume, Volume I (of 2)","author":"Burton, John Hill","year":null,"url":"http:\/\/www.gutenberg.org\/ebooks\/42843","placename":"Minto","snippet":"Minto--Lord, i.    "},{"title":"Life and Correspondence of David Hume, Volume I (of 2)","author":"Burton, John Hill","year":null,"url":"http:\/\/www.gutenberg.org\/ebooks\/42843","placename":"Minto","snippet":"----, Gilbert, younger of Minto, afterwards Governor-general of India,      ii.    "},{"title":"Life and Correspondence of David Hume, Volume I (of 2)","author":"Burton, John Hill","year":null,"url":"http:\/\/www.gutenberg.org\/ebooks\/42843","placename":"Minto","snippet":"Elliot--Sir Gilbert, of Minto.    "},{"title":"Life and Correspondence of David Hume, Volume I (of 2)","author":"Burton, John Hill","year":null,"url":"http:\/\/www.gutenberg.org\/ebooks\/42843","placename":"Minto","snippet":"[336:1] Minto MSS.    "},{"title":"Life and Correspondence of David Hume, Volume I (of 2)","author":"Burton, John Hill","year":null,"url":"http:\/\/www.gutenberg.org\/ebooks\/42843","placename":"Minto","snippet":"[327:2] Minto MSS.    "},{"title":"Life and Correspondence of David Hume, Volume I (of 2)","author":"Burton, John Hill","year":null,"url":"http:\/\/www.gutenberg.org\/ebooks\/42843","placename":"Minto","snippet":"[324:2] Scroll, Minto MSS.    "},{"title":"Life and Correspondence of David Hume, Volume I (of 2)","author":"Burton, John Hill","year":null,"url":"http:\/\/www.gutenberg.org\/ebooks\/42843","placename":"Minto","snippet":"[322:1] Minto MS.    "},{"title":"Life and Correspondence of David Hume, Volume I (of 2)","author":"Burton, John Hill","year":null,"url":"http:\/\/www.gutenberg.org\/ebooks\/42843","placename":"Minto","snippet":"[320:2] In the following pages these papers will be cited as the MintoMSS.    "},{"title":"Life and Correspondence of David Hume, Volume I (of 2)","author":"Burton, John Hill","year":null,"url":"http:\/\/www.gutenberg.org\/ebooks\/42843","placename":"Minto","snippet":"HUME _to_ GILBERT ELLIOT _of Minto_.    "},{"title":"Life and Correspondence of David Hume, Volume I (of 2)","author":"Burton, John Hill","year":null,"url":"http:\/\/www.gutenberg.org\/ebooks\/42843","placename":"Minto","snippet":"HUME _to_ GILBERT ELLIOT _of Minto_.    "},{"title":"Life and Correspondence of David Hume, Volume I (of 2)","author":"Burton, John Hill","year":null,"url":"http:\/\/www.gutenberg.org\/ebooks\/42843","placename":"Minto","snippet":"HUME _to_ GILBERT ELLIOT _of Minto_.    "},{"title":"Life and Correspondence of David Hume, Volume I (of 2)","author":"Burton, John Hill","year":null,"url":"http:\/\/www.gutenberg.org\/ebooks\/42843","placename":"Minto","snippet":"GILBERT ELLIOT _of Minto, to_ HUME.    "},{"title":"Life and Correspondence of David Hume, Volume I (of 2)","author":"Burton, John Hill","year":null,"url":"http:\/\/www.gutenberg.org\/ebooks\/42843","placename":"Minto","snippet":"HUME _to_ GILBERT ELLIOT _of Minto_.    "},{"title":"Life and Correspondence of David Hume, Volume I (of 2)","author":"Burton, John Hill","year":null,"url":"http:\/\/www.gutenberg.org\/ebooks\/42843","placename":"Minto","snippet":"Sir Gilbert Elliot was the third baronet of the family of Minto, whobore the same Christian name.[320:3] He joined the Scottish bar, thoughhe does not seem to have sought professional practice.    "},{"title":"Life and Correspondence of David Hume, Volume I (of 2)","author":"Burton, John Hill","year":null,"url":"http:\/\/www.gutenberg.org\/ebooks\/42843","placename":"Minto","snippet":"Foremost in that body of accomplished gentlemen, whose friendship andcompanionship afforded to Hume so much pleasure and instruction, wasMr. afterwards Sir Gilbert Elliot of Minto.    "},{"title":"Life and Correspondence of David Hume, Volume I (of 2)","author":"Burton, John Hill","year":null,"url":"http:\/\/www.gutenberg.org\/ebooks\/42843","placename":"Minto","snippet":"Minto--Lord, i.    "},{"title":"Life and Correspondence of David Hume, Volume I (of 2)","author":"Burton, John Hill","year":null,"url":"http:\/\/www.gutenberg.org\/ebooks\/42843","placename":"Minto","snippet":"----, Gilbert, younger of Minto, afterwards Governor-general of India,      ii.    "},{"title":"Life and Correspondence of David Hume, Volume I (of 2)","author":"Burton, John Hill","year":null,"url":"http:\/\/www.gutenberg.org\/ebooks\/42843","placename":"Minto","snippet":"Elliot--Sir Gilbert, of Minto.    "},{"title":"Life and Correspondence of David Hume, Volume I (of 2)","author":"Burton, John Hill","year":null,"url":"http:\/\/www.gutenberg.org\/ebooks\/42843","placename":"Minto","snippet":"[336:1] Minto MSS.    "},{"title":"Life and Correspondence of David Hume, Volume I (of 2)","author":"Burton, John Hill","year":null,"url":"http:\/\/www.gutenberg.org\/ebooks\/42843","placename":"Minto","snippet":"[327:2] Minto MSS.    "},{"title":"Life and Correspondence of David Hume, Volume I (of 2)","author":"Burton, John Hill","year":null,"url":"http:\/\/www.gutenberg.org\/ebooks\/42843","placename":"Minto","snippet":"[324:2] Scroll, Minto MSS.    "},{"title":"Life and Correspondence of David Hume, Volume I (of 2)","author":"Burton, John Hill","year":null,"url":"http:\/\/www.gutenberg.org\/ebooks\/42843","placename":"Minto","snippet":"[322:1] Minto MS.    "},{"title":"Life and Correspondence of David Hume, Volume I (of 2)","author":"Burton, John Hill","year":null,"url":"http:\/\/www.gutenberg.org\/ebooks\/42843","placename":"Minto","snippet":"[320:2] In the following pages these papers will be cited as the MintoMSS.    "},{"title":"Life and Correspondence of David Hume, Volume I (of 2)","author":"Burton, John Hill","year":null,"url":"http:\/\/www.gutenberg.org\/ebooks\/42843","placename":"Minto","snippet":"HUME _to_ GILBERT ELLIOT _of Minto_.    "},{"title":"Life and Correspondence of David Hume, Volume I (of 2)","author":"Burton, John Hill","year":null,"url":"http:\/\/www.gutenberg.org\/ebooks\/42843","placename":"Minto","snippet":"HUME _to_ GILBERT ELLIOT _of Minto_.    "},{"title":"Life and Correspondence of David Hume, Volume I (of 2)","author":"Burton, John Hill","year":null,"url":"http:\/\/www.gutenberg.org\/ebooks\/42843","placename":"Minto","snippet":"HUME _to_ GILBERT ELLIOT _of Minto_.    "},{"title":"Life and Correspondence of David Hume, Volume I (of 2)","author":"Burton, John Hill","year":null,"url":"http:\/\/www.gutenberg.org\/ebooks\/42843","placename":"Minto","snippet":"GILBERT ELLIOT _of Minto, to_ HUME.    "},{"title":"Life and Correspondence of David Hume, Volume I (of 2)","author":"Burton, John Hill","year":null,"url":"http:\/\/www.gutenberg.org\/ebooks\/42843","placename":"Minto","snippet":"HUME _to_ GILBERT ELLIOT _of Minto_.    "},{"title":"Life and Correspondence of David Hume, Volume I (of 2)","author":"Burton, John Hill","year":null,"url":"http:\/\/www.gutenberg.org\/ebooks\/42843","placename":"Minto","snippet":"Sir Gilbert Elliot was the third baronet of the family of Minto, whobore the same Christian name.[320:3] He joined the Scottish bar, thoughhe does not seem to have sought professional practice.    "},{"title":"Life and Correspondence of David Hume, Volume I (of 2)","author":"Burton, John Hill","year":null,"url":"http:\/\/www.gutenberg.org\/ebooks\/42843","placename":"Minto","snippet":"Foremost in that body of accomplished gentlemen, whose friendship andcompanionship afforded to Hume so much pleasure and instruction, wasMr. afterwards Sir Gilbert Elliot of Minto.    "},{"title":"Autobiography of the Rev. Dr Alexander Carlyle ;","author":"Carlyle, Alexander","year":"1861-01-01","url":"http:\/\/babel.hathitrust.org\/cgi\/pt?id=uc2.ark:\/13960\/t3rv0fk21","placename":"Minto","snippet":"IT was in the month of August this summer that Robertson and I passed two days at Minto with Sir Gilbert Elliot, who was very open and communicative.    "},{"title":"Autobiography of the Rev. Dr Alexander Carlyle ;","author":"Carlyle, Alexander","year":"1861-01-01","url":"http:\/\/babel.hathitrust.org\/cgi\/pt?id=uc2.ark:\/13960\/t3rv0fk21","placename":"Minto","snippet":"Sir Gilbert Elliot of Minto was at this time one of the Lords of the Admiralty, and we were frequently with him.    "},{"title":"Autobiography of the Rev. Dr Alexander Carlyle ;","author":"Carlyle, Alexander","year":"1861-01-01","url":"http:\/\/babel.hathitrust.org\/cgi\/pt?id=uc2.ark:\/13960\/t3rv0fk21","placename":"Minto","snippet":"There met accordingly in the tavern the Right Honourable the Lord Provost Drummond ; the Honourable William Master of Ross ; Mr Gilbert Elliot, junior of Minto ; Mr Andrew Pringle, advocate ; Messrs Jardine, Blair, Robertson, John Home, Adam Dickson of Dunse, George Logan of Ormiston, Alexander Carlyle of Inveresk, and as many more as made fifteen, two of whom viz.    "},{"title":"Letters and memorials of Jane Welsh Carlyle.","author":"Carlyle, Jane Welsh","year":"1883-01-01","url":"http:\/\/babel.hathitrust.org\/cgi\/pt?id=loc.ark:\/13960\/t0gt63t91","placename":"Minto","snippet":"1 Minister of Minto and wife (once Bess Stoddart), Bradfute's niece and heiress.    "},{"title":"Letters and memorials of Jane Welsh Carlyle.","author":"Carlyle, Jane Welsh","year":"1883-01-01","url":"http:\/\/babel.hathitrust.org\/cgi\/pt?id=loc.ark:\/13960\/t0gt63t91","placename":"Minto","snippet":"Be sure you go to Minto.    "},{"title":"The complete works of Robert Burns :","author":"Burns, Robert","year":null,"url":"http:\/\/babel.hathitrust.org\/cgi\/pt?id=uc2.ark:\/13960\/t9r21784k","placename":"Minto","snippet":"Another Scotchman resident in London, Sir Gilbert Elliot (afterwards the first Earl of Minto), about this time wrote to his sister at Minto, on the same subject, thus: \u2014 \"I have read about half of Bums's Poems, and am in the highest degree of admiration.    "},{"title":"The complete works of Robert Burns :","author":"Burns, Robert","year":null,"url":"http:\/\/babel.hathitrust.org\/cgi\/pt?id=uc2.ark:\/13960\/t9r21784k","placename":"Minto","snippet":"Patrick Brydone, Esq., was well-known as author of a \"Tour in Sicily and Malta;\" Mrs. Brydone was a daughter of Dr. Robertson, the historian ; and Miss Brydone, their daughter, a woman of greai accomplishments, became Countess of Minto.    "},{"title":"Reminiscences of Yarrow. Edited and annotated by ... Professor Veitch, LL.D. Illustrated by Tom Scott ... Second edition","author":"Russell, James","year":"1894-01-01","url":"https:\/\/historicaltexts.jisc.ac.uk\/bl-003193748","placename":"Minto","snippet":"His salary as schoolmaster was only\u00a35, and the fees trifling; but, notwithstanding, hemanaged to amass and leave at his death Mr George Scott succeeded him; and after beingnearly two years in Yarrow, was transferred to theschool of Minto.    "}]