[{"title":"The Letters of Robert Louis Stevenson - Volume 1","author":"Stevenson, Robert Louis","year":null,"url":"http:\/\/www.gutenberg.org\/ebooks\/622","placename":"Dod","snippet":"Dod, I've seen 's had mair o' what they ca' the I-talian at Muttonhole.    "},{"title":"Deilie Jock","author":"Campbell, C. M.","year":"1897-01-01","url":"https:\/\/historicaltexts.jisc.ac.uk\/bl-000584472","placename":"Dod","snippet":"Dod, sir! the young deevil was na for gi'en itme back; and when he did\u2014my conscience ! thebottle was lichter, I'm sure, by nearly half! Ithreatens him weel, but he kent fine I couldna get at him ; and he answert me back wi'the awfu'est blasphemin', wheech aye got thewaur, as the drink got to his heid, until his tonguewould wag nae mair, and he went, quite contentetly, to sleep.    "},{"title":"Deilie Jock","author":"Campbell, C. M.","year":"1897-01-01","url":"https:\/\/historicaltexts.jisc.ac.uk\/bl-000584472","placename":"Dod","snippet":"Dod ! I micht hae spared mysel' the trouble, forit was settled for me in a way I little expected.    "},{"title":"Deilie Jock","author":"Campbell, C. M.","year":"1897-01-01","url":"https:\/\/historicaltexts.jisc.ac.uk\/bl-000584472","placename":"Dod","snippet":"Dod, sir, I had clean forgot that ever I belongedto it\u2014sae mony things had happened in thetwelvemonth.    "},{"title":"Deilie Jock","author":"Campbell, C. M.","year":"1897-01-01","url":"https:\/\/historicaltexts.jisc.ac.uk\/bl-000584472","placename":"Dod","snippet":"flutter noo, and Dod, sir, we had it! the vera bestdinner that siller could buy and Simpson's provide.    "},{"title":"Deilie Jock","author":"Campbell, C. M.","year":"1897-01-01","url":"https:\/\/historicaltexts.jisc.ac.uk\/bl-000584472","placename":"Dod","snippet":"Dod, sir! the burglar just oot o' sicht like ahare.    "},{"title":"Deilie Jock","author":"Campbell, C. M.","year":"1897-01-01","url":"https:\/\/historicaltexts.jisc.ac.uk\/bl-000584472","placename":"Dod","snippet":"\" And Dod, man ! I'm daein' fine.    "},{"title":"Deilie Jock","author":"Campbell, C. M.","year":"1897-01-01","url":"https:\/\/historicaltexts.jisc.ac.uk\/bl-000584472","placename":"Dod","snippet":"Na, na, I've kent some raal douce,honest men in the polis ; but Dod ! there's a wheenblack sheep forbye, and they're no' looked afteras they should be.    "},{"title":"Story of a Stolen Heir. A novel","author":"Bertram, James Glass.","year":"1858-01-01","url":"https:\/\/historicaltexts.jisc.ac.uk\/bl-000300859-03","placename":"Dod","snippet":"Dod, thatU no be sae Heelantafter a'.    "},{"title":"Story of a Stolen Heir. A novel","author":"Bertram, James Glass.","year":"1858-01-01","url":"https:\/\/historicaltexts.jisc.ac.uk\/bl-000300859-03","placename":"Dod","snippet":"Dod, it's a guid idea o' mine; I'Usecure the big picter that way, at ony rate\u2014the ither yin can be made a scaip goat o'.    "}]