[{"title":"The Journal of Sir Walter Scott; From the Original Manuscript at Abbotsford","author":"Scott, Walter","year":null,"url":"http:\/\/www.gutenberg.org\/ebooks\/14860","placename":"Abbotrule","snippet":"Kerr,  Mr. and Mrs. Charles, of Abbotrule, ii.    "},{"title":"The Journal of Sir Walter Scott; From the Original Manuscript at Abbotsford","author":"Scott, Walter","year":null,"url":"http:\/\/www.gutenberg.org\/ebooks\/14860","placename":"Abbotrule","snippet":"The othermembers were Charles Kerr of Abbotrule (a singular being), ColinM'Laurin (insane), Colin, and I, who have luckily kept our wits.    "},{"title":"The Journal of Sir Walter Scott; From the Original Manuscript at Abbotsford","author":"Scott, Walter","year":null,"url":"http:\/\/www.gutenberg.org\/ebooks\/14860","placename":"Abbotrule","snippet":"Kerr,  Mr. and Mrs. Charles, of Abbotrule, ii.    "},{"title":"The Journal of Sir Walter Scott; From the Original Manuscript at Abbotsford","author":"Scott, Walter","year":null,"url":"http:\/\/www.gutenberg.org\/ebooks\/14860","placename":"Abbotrule","snippet":"The othermembers were Charles Kerr of Abbotrule (a singular being), ColinM'Laurin (insane), Colin, and I, who have luckily kept our wits.    "},{"title":"The Journal of Sir Walter Scott; From the Original Manuscript at Abbotsford","author":"Scott, Walter","year":null,"url":"http:\/\/www.gutenberg.org\/ebooks\/14860","placename":"Abbotrule","snippet":"Kerr,  Mr. and Mrs. Charles, of Abbotrule, ii.    "},{"title":"The Journal of Sir Walter Scott; From the Original Manuscript at Abbotsford","author":"Scott, Walter","year":null,"url":"http:\/\/www.gutenberg.org\/ebooks\/14860","placename":"Abbotrule","snippet":"The othermembers were Charles Kerr of Abbotrule (a singular being), ColinM'Laurin (insane), Colin, and I, who have luckily kept our wits.    "},{"title":"Stories of the Border Marches","author":"Lang, John","year":null,"url":"http:\/\/www.gutenberg.org\/ebooks\/14416","placename":"Abbotrule","snippet":"Next day they all had the news that Patrick Kerr, who hated the kirk andall ministers, and had done away with the parish of Abbotrule, had diedin the darkening of that Sabbath evening and gone to his last account.    "},{"title":"Stories of the Border Marches","author":"Lang, John","year":null,"url":"http:\/\/www.gutenberg.org\/ebooks\/14416","placename":"Abbotrule","snippet":"And there wasnot one man of them but ran like hunted sheep back into the manse, andthere, in the light, faced each other, forfeuchen and well-nigh greetinglike terrified bairns, that did not know the face for that of PatrickKerr, the laird of Abbotrule.    "},{"title":"Stories of the Border Marches","author":"Lang, John","year":null,"url":"http:\/\/www.gutenberg.org\/ebooks\/14416","placename":"Abbotrule","snippet":"For four years the laird laboured to attain his end, and a blitheman was he when, in 1774, he got Eliott of Stobs and Douglas of Douglasto side with him and wipe out for evermore the kirk and parish ofAbbotrule.    "},{"title":"Stories of the Border Marches","author":"Lang, John","year":null,"url":"http:\/\/www.gutenberg.org\/ebooks\/14416","placename":"Abbotrule","snippet":"Most unfortunately, too, the laird took ascunner at the minister of the parish of Abbotrule.    "},{"title":"Stories of the Border Marches","author":"Lang, John","year":null,"url":"http:\/\/www.gutenberg.org\/ebooks\/14416","placename":"Abbotrule","snippet":"The kirk andkirkyard of Abbotrule, as still may be seen, lay near the laird'shouse--too near for the pleasure of one who had no love for the kirk andwho could not thole ministers.    "},{"title":"Stories of the Border Marches","author":"Lang, John","year":null,"url":"http:\/\/www.gutenberg.org\/ebooks\/14416","placename":"Abbotrule","snippet":"Not long after Prince Charlie's day there lived at Abbotrule, inRulewater, a laird named Patrick Kerr.    "},{"title":"Stories of the Border Marches","author":"Lang, John","year":null,"url":"http:\/\/www.gutenberg.org\/ebooks\/14416","placename":"Abbotrule","snippet":"Next day they all had the news that Patrick Kerr, who hated the kirk andall ministers, and had done away with the parish of Abbotrule, had diedin the darkening of that Sabbath evening and gone to his last account.    "},{"title":"Stories of the Border Marches","author":"Lang, John","year":null,"url":"http:\/\/www.gutenberg.org\/ebooks\/14416","placename":"Abbotrule","snippet":"And there wasnot one man of them but ran like hunted sheep back into the manse, andthere, in the light, faced each other, forfeuchen and well-nigh greetinglike terrified bairns, that did not know the face for that of PatrickKerr, the laird of Abbotrule.    "},{"title":"Stories of the Border Marches","author":"Lang, John","year":null,"url":"http:\/\/www.gutenberg.org\/ebooks\/14416","placename":"Abbotrule","snippet":"For four years the laird laboured to attain his end, and a blitheman was he when, in 1774, he got Eliott of Stobs and Douglas of Douglasto side with him and wipe out for evermore the kirk and parish ofAbbotrule.    "},{"title":"Stories of the Border Marches","author":"Lang, John","year":null,"url":"http:\/\/www.gutenberg.org\/ebooks\/14416","placename":"Abbotrule","snippet":"Most unfortunately, too, the laird took ascunner at the minister of the parish of Abbotrule.    "},{"title":"Stories of the Border Marches","author":"Lang, John","year":null,"url":"http:\/\/www.gutenberg.org\/ebooks\/14416","placename":"Abbotrule","snippet":"The kirk andkirkyard of Abbotrule, as still may be seen, lay near the laird'shouse--too near for the pleasure of one who had no love for the kirk andwho could not thole ministers.    "},{"title":"Stories of the Border Marches","author":"Lang, John","year":null,"url":"http:\/\/www.gutenberg.org\/ebooks\/14416","placename":"Abbotrule","snippet":"Not long after Prince Charlie's day there lived at Abbotrule, inRulewater, a laird named Patrick Kerr.    "},{"title":"The journal of Sir Walter Scott,","author":"Scott, Walter","year":"1890-01-01","url":"http:\/\/babel.hathitrust.org\/cgi\/pt?id=uc2.ark:\/13960\/t9h41n97z","placename":"Abbotrule","snippet":"The other members were Charles Kerr of Abbotrule (a singular being), Colin M'Laurin (insane), Colin, and I, who have luckily kept our wits.    "},{"title":"The journal of Sir Walter Scott,","author":"Scott, Walter","year":"1891-01-01","url":"http:\/\/babel.hathitrust.org\/cgi\/pt?id=uc2.ark:\/13960\/t7jq0vz0t","placename":"Abbotrule","snippet":"The other members were Charles Kerr of Abbotrule (a singular  being), Colin M'Laurin (insane), Colin, and I, who have luckily kept our wits.    "},{"title":"The journal of Sir Walter Scott,","author":"Scott, Walter","year":"1891-01-01","url":"http:\/\/babel.hathitrust.org\/cgi\/pt?id=loc.ark:\/13960\/t6rz05s28","placename":"Abbotrule","snippet":"The other members were Charles Kerr of Abbotrule (a singular  being), Colin M'Laurin (insane), Colin, and I, who have luckily kept our wits.    "}]