[{"title":"The heart of Midlothian;","author":"Scott, Walter","year":null,"url":"http:\/\/babel.hathitrust.org\/cgi\/pt?id=uc2.ark:\/13960\/t2x34zf8j","placename":"Cauld","snippet":"CAULD, cold    "},{"title":"Memoirs of the life of Sir Walter Scott,","author":"Lockhart, J. G.","year":null,"url":"http:\/\/babel.hathitrust.org\/cgi\/pt?id=uc2.ark:\/13960\/t24b2xb0f","placename":"Cauld","snippet":"One was a remarkably tall and handsome animal, jet black all over, and when the Major appeared on it one morning, equipped for a little sport with the greyhounds, Sir Walter insisted on being put upon Douce Davie, and conducted as far as the Cauld- shields Loch to see the day's work begun.    "},{"title":"The works of Robert Burns: with an account of his life, and criticism on his writings.","author":"Burns, Robert","year":"1830-01-01","url":"http:\/\/babel.hathitrust.org\/cgi\/pt?id=loc.ark:\/13960\/t77s86n39","placename":"Cauld","snippet":"1 have just put the last hand to the song I meant for Cauld Kail in Aberdeen.    "},{"title":"The works of Robert Burns: with an account of his life, and criticism on his writings.","author":"Burns, Robert","year":"1830-01-01","url":"http:\/\/babel.hathitrust.org\/cgi\/pt?id=loc.ark:\/13960\/t77s86n39","placename":"Cauld","snippet":"Cauld Kail in Aberdeen\u2014 Let me in this ae night, and several of the livelier airs, wait the muse's leisure : these are peculiarly woithy of her choice gifts ; besides, you'll notice that, in airs of this sort, the singer can always do greater justice to the poet, than in the slower airs of The Bush aboon Traquair, Lord Gregory, and the like ; for iu the manner the latter are frequently sung, you must be contented with the sound, without the sense.    "},{"title":"The works of Robert Burns: with an account of his life, and criticism on his writings.","author":"Burns, Robert","year":"1830-01-01","url":"http:\/\/babel.hathitrust.org\/cgi\/pt?id=loc.ark:\/13960\/t77s86n39","placename":"Cauld","snippet":"Cauld, cold.    "},{"title":"The works of Robert Burns: with an account of his life, and criticism on his writings.","author":"Burns, Robert","year":"1830-01-01","url":"http:\/\/babel.hathitrust.org\/cgi\/pt?id=loc.ark:\/13960\/t77s86n39","placename":"Cauld","snippet":"Cauld is the blast upon my pale cheek,    "},{"title":"The works of Robert Burns: with an account of his life, and criticism on his writings.","author":"Burns, Robert","year":"1830-01-01","url":"http:\/\/babel.hathitrust.org\/cgi\/pt?id=loc.ark:\/13960\/t77s86n39","placename":"Cauld","snippet":"Cauld blew the bitter-biting north Upon thy early, humble birth ; Yet cheerfully thou glinted forth    "},{"title":"The works of Robert Burns;","author":"Burns, Robert","year":"1816-01-01","url":"http:\/\/babel.hathitrust.org\/cgi\/pt?id=loc.ark:\/13960\/t76t1jw9v","placename":"Cauld","snippet":"Cauld Kail in Aberdeen ...    "},{"title":"The works of Robert Burns;","author":"Burns, Robert","year":"1816-01-01","url":"http:\/\/babel.hathitrust.org\/cgi\/pt?id=loc.ark:\/13960\/t76t1jw9v","placename":"Cauld","snippet":"Cauld Kail in Aberdeen,    "},{"title":"The works of Robert Burns;","author":"Burns, Robert","year":"1816-01-01","url":"http:\/\/babel.hathitrust.org\/cgi\/pt?id=loc.ark:\/13960\/t76t1jw9v","placename":"Cauld","snippet":"Cauld, cold    "},{"title":"The works of Robert Burns;","author":"Burns, Robert","year":"1816-01-01","url":"http:\/\/babel.hathitrust.org\/cgi\/pt?id=loc.ark:\/13960\/t76t1jw9v","placename":"Cauld","snippet":"Cauld blew the bitter-biting north VS^atk thy early, bumble birth ; Tet cheerfully thou glinted forth    "},{"title":"The works of Robert Burns;","author":"Burns, Robert","year":"1816-01-01","url":"http:\/\/babel.hathitrust.org\/cgi\/pt?id=loc.ark:\/13960\/t76t1jw9v","placename":"Cauld","snippet":"I have just put the last hand to the song I meant for Cauld Kail in Aberdeen.    "},{"title":"The complete poetical and prose works of Robert Burns:","author":"Burns, Robert","year":"1859-01-01","url":"http:\/\/babel.hathitrust.org\/cgi\/pt?id=loc.ark:\/13960\/t4pk0xn8h","placename":"Cauld","snippet":"Cauld, Cold.    "},{"title":"The complete poetical and prose works of Robert Burns:","author":"Burns, Robert","year":"1859-01-01","url":"http:\/\/babel.hathitrust.org\/cgi\/pt?id=loc.ark:\/13960\/t4pk0xn8h","placename":"Cauld","snippet":"Cauld blaws the wind frae east to west.    "},{"title":"The complete poetical and prose works of Robert Burns:","author":"Burns, Robert","year":"1859-01-01","url":"http:\/\/babel.hathitrust.org\/cgi\/pt?id=loc.ark:\/13960\/t4pk0xn8h","placename":"Cauld","snippet":"Cauld blew the bitter-bitiii<; north Upon thy early, h\\irable birth ; Yet cheerfully thovi srlinted forth    "},{"title":"The complete poetical and prose works of Robert Burns:","author":"Burns, Robert","year":"1881-01-01","url":"http:\/\/babel.hathitrust.org\/cgi\/pt?id=loc.ark:\/13960\/t43r1df6g","placename":"Cauld","snippet":"Cauld.    "},{"title":"The complete poetical and prose works of Robert Burns:","author":"Burns, Robert","year":"1881-01-01","url":"http:\/\/babel.hathitrust.org\/cgi\/pt?id=loc.ark:\/13960\/t43r1df6g","placename":"Cauld","snippet":"Cauld is the blast upon my pale cheeit.    "},{"title":"The complete poetical and prose works of Robert Burns:","author":"Burns, Robert","year":"1881-01-01","url":"http:\/\/babel.hathitrust.org\/cgi\/pt?id=loc.ark:\/13960\/t43r1df6g","placename":"Cauld","snippet":"Cauld blew thebitter-bitinn: north Upon tliy early, humble birth ; Yet cheerfully thou glinted forth    "},{"title":"The complete works of Robert Burns:","author":"Burns, Robert","year":"1854-01-01","url":"http:\/\/babel.hathitrust.org\/cgi\/pt?id=loc.ark:\/13960\/t2z32c284","placename":"Cauld","snippet":"Cauld is the blast upon my pale cheek.    "},{"title":"The complete works of Robert Burns:","author":"Burns, Robert","year":"1854-01-01","url":"http:\/\/babel.hathitrust.org\/cgi\/pt?id=loc.ark:\/13960\/t2z32c284","placename":"Cauld","snippet":"Cauld blew the bitter-biting north Upon thy early, humble birth ; Yet cheerfully thou glinted forth    "},{"title":"The complete works of Robert Burns: containing his poems, songs, and correspondence.","author":"Burns, Robert","year":"1852-01-01","url":"http:\/\/babel.hathitrust.org\/cgi\/pt?id=loc.ark:\/13960\/t01z4r72g","placename":"Cauld","snippet":"Cauld is the e'enin' blast    "},{"title":"The complete works of Robert Burns: containing his poems, songs, and correspondence.","author":"Burns, Robert","year":"1852-01-01","url":"http:\/\/babel.hathitrust.org\/cgi\/pt?id=loc.ark:\/13960\/t01z4r72g","placename":"Cauld","snippet":"Cauld is the blast upon my pale cheek.    "},{"title":"The complete works of Robert Burns: containing his poems, songs, and correspondence.","author":"Burns, Robert","year":"1852-01-01","url":"http:\/\/babel.hathitrust.org\/cgi\/pt?id=loc.ark:\/13960\/t01z4r72g","placename":"Cauld","snippet":"Cauld blaws the wind frae east to west,    "},{"title":"The complete works of Robert Burns: containing his poems, songs, and correspondence.","author":"Burns, Robert","year":"1852-01-01","url":"http:\/\/babel.hathitrust.org\/cgi\/pt?id=loc.ark:\/13960\/t01z4r72g","placename":"Cauld","snippet":"Cauld blew the bitter-biting north Upon thy early, humble birth ; Yet cheerfully thou glinted forth    "},{"title":"A summer in Scotland.","author":"Abbott, Jacob","year":"1848-01-01","url":"http:\/\/babel.hathitrust.org\/cgi\/pt?id=loc.ark:\/13960\/t1jh43m8w","placename":"Cauld","snippet":"Cauld blew the bitter-biting north Upon thy early, humble birth ; Yet cheerfully thou glintedt forth    "}]