[{"title":"The Journal of Sir Walter Scott; From the Original Manuscript at Abbotsford","author":"Scott, Walter","year":null,"url":"http:\/\/www.gutenberg.org\/ebooks\/14860","placename":"Woll","snippet":"Charles, grandson of Charles of Woll, ii.    "},{"title":"The Journal of Sir Walter Scott; From the Original Manuscript at Abbotsford","author":"Scott, Walter","year":null,"url":"http:\/\/www.gutenberg.org\/ebooks\/14860","placename":"Woll","snippet":"of Woll, ii.    "},{"title":"The Journal of Sir Walter Scott; From the Original Manuscript at Abbotsford","author":"Scott, Walter","year":null,"url":"http:\/\/www.gutenberg.org\/ebooks\/14860","placename":"Woll","snippet":"I laid the foundation-stone of the bridge over Tweed, and Mr.C.B. Scott[452] of Woll that of Ettrick.    "},{"title":"The Journal of Sir Walter Scott; From the Original Manuscript at Abbotsford","author":"Scott, Walter","year":null,"url":"http:\/\/www.gutenberg.org\/ebooks\/14860","placename":"Woll","snippet":"After coming from the Court I met Woll and Gala, and agreed upon themeasures to be attempted at Selkirk on the eighth at the meeting oftrustees.    "},{"title":"The Journal of Sir Walter Scott; From the Original Manuscript at Abbotsford","author":"Scott, Walter","year":null,"url":"http:\/\/www.gutenberg.org\/ebooks\/14860","placename":"Woll","snippet":"Met Scott of Woll andScott of Gala, and consulted about the new road between Galashiels andSelkirk.    "},{"title":"The Journal of Sir Walter Scott; From the Original Manuscript at Abbotsford","author":"Scott, Walter","year":null,"url":"http:\/\/www.gutenberg.org\/ebooks\/14860","placename":"Woll","snippet":"When I returned I found Charlotte Kerr here with a cleverlittle boy, Charles Scott, grandson of Charles of the Woll, and son ofWilliam, and grand-nephew of John of Midgehope.    "},{"title":"The Journal of Sir Walter Scott; From the Original Manuscript at Abbotsford","author":"Scott, Walter","year":null,"url":"http:\/\/www.gutenberg.org\/ebooks\/14860","placename":"Woll","snippet":"Charles, grandson of Charles of Woll, ii.    "},{"title":"The Journal of Sir Walter Scott; From the Original Manuscript at Abbotsford","author":"Scott, Walter","year":null,"url":"http:\/\/www.gutenberg.org\/ebooks\/14860","placename":"Woll","snippet":"of Woll, ii.    "},{"title":"The Journal of Sir Walter Scott; From the Original Manuscript at Abbotsford","author":"Scott, Walter","year":null,"url":"http:\/\/www.gutenberg.org\/ebooks\/14860","placename":"Woll","snippet":"I laid the foundation-stone of the bridge over Tweed, and Mr.C.B. Scott[452] of Woll that of Ettrick.    "},{"title":"The Journal of Sir Walter Scott; From the Original Manuscript at Abbotsford","author":"Scott, Walter","year":null,"url":"http:\/\/www.gutenberg.org\/ebooks\/14860","placename":"Woll","snippet":"After coming from the Court I met Woll and Gala, and agreed upon themeasures to be attempted at Selkirk on the eighth at the meeting oftrustees.    "},{"title":"The Journal of Sir Walter Scott; From the Original Manuscript at Abbotsford","author":"Scott, Walter","year":null,"url":"http:\/\/www.gutenberg.org\/ebooks\/14860","placename":"Woll","snippet":"Met Scott of Woll andScott of Gala, and consulted about the new road between Galashiels andSelkirk.    "},{"title":"The Journal of Sir Walter Scott; From the Original Manuscript at Abbotsford","author":"Scott, Walter","year":null,"url":"http:\/\/www.gutenberg.org\/ebooks\/14860","placename":"Woll","snippet":"When I returned I found Charlotte Kerr here with a cleverlittle boy, Charles Scott, grandson of Charles of the Woll, and son ofWilliam, and grand-nephew of John of Midgehope.    "},{"title":"The Journal of Sir Walter Scott; From the Original Manuscript at Abbotsford","author":"Scott, Walter","year":null,"url":"http:\/\/www.gutenberg.org\/ebooks\/14860","placename":"Woll","snippet":"Charles, grandson of Charles of Woll, ii.    "},{"title":"The Journal of Sir Walter Scott; From the Original Manuscript at Abbotsford","author":"Scott, Walter","year":null,"url":"http:\/\/www.gutenberg.org\/ebooks\/14860","placename":"Woll","snippet":"of Woll, ii.    "},{"title":"The Journal of Sir Walter Scott; From the Original Manuscript at Abbotsford","author":"Scott, Walter","year":null,"url":"http:\/\/www.gutenberg.org\/ebooks\/14860","placename":"Woll","snippet":"I laid the foundation-stone of the bridge over Tweed, and Mr.C.B. Scott[452] of Woll that of Ettrick.    "},{"title":"The Journal of Sir Walter Scott; From the Original Manuscript at Abbotsford","author":"Scott, Walter","year":null,"url":"http:\/\/www.gutenberg.org\/ebooks\/14860","placename":"Woll","snippet":"After coming from the Court I met Woll and Gala, and agreed upon themeasures to be attempted at Selkirk on the eighth at the meeting oftrustees.    "},{"title":"The Journal of Sir Walter Scott; From the Original Manuscript at Abbotsford","author":"Scott, Walter","year":null,"url":"http:\/\/www.gutenberg.org\/ebooks\/14860","placename":"Woll","snippet":"Met Scott of Woll andScott of Gala, and consulted about the new road between Galashiels andSelkirk.    "},{"title":"The Journal of Sir Walter Scott; From the Original Manuscript at Abbotsford","author":"Scott, Walter","year":null,"url":"http:\/\/www.gutenberg.org\/ebooks\/14860","placename":"Woll","snippet":"When I returned I found Charlotte Kerr here with a cleverlittle boy, Charles Scott, grandson of Charles of the Woll, and son ofWilliam, and grand-nephew of John of Midgehope.    "},{"title":"The journal of Sir Walter Scott,","author":"Scott, Walter","year":"1890-01-01","url":"http:\/\/babel.hathitrust.org\/cgi\/pt?id=uc2.ark:\/13960\/t9h41n97z","placename":"Woll","snippet":"I laid the foundation-stone of the bridge over Tweed, and Mr. C. B. Scott 4 of Woll that of Ettrick.    "},{"title":"The journal of Sir Walter Scott,","author":"Scott, Walter","year":"1890-01-01","url":"http:\/\/babel.hathitrust.org\/cgi\/pt?id=uc2.ark:\/13960\/t9h41n97z","placename":"Woll","snippet":"After coming from the Court I met Woll and Gala, and agreed upon the measures to be attempted at Selkirk on the eighth at the meeting of trustees.    "},{"title":"The journal of Sir Walter Scott,","author":"Scott, Walter","year":"1890-01-01","url":"http:\/\/babel.hathitrust.org\/cgi\/pt?id=uc2.ark:\/13960\/t9h41n97z","placename":"Woll","snippet":"Met Scott of Woll and Scott of Gala, and consulted about the new road between Galashiels and Selkirk I am in hopes to rid myself of the road to Selkirk, which goes too near me at Abbotsford.    "},{"title":"The journal of Sir Walter Scott,","author":"Scott, Walter","year":"1890-01-01","url":"http:\/\/babel.hathitrust.org\/cgi\/pt?id=uc2.ark:\/13960\/t9h41n97z","placename":"Woll","snippet":"When I returned I found Charlotte Kerr here with a clever little boy, Charles Scott, grandson of Charles of the Woll, and son of William, and grand-nephew of John of Midgehope.    "},{"title":"The journal of Sir Walter Scott,","author":"Scott, Walter","year":"1891-01-01","url":"http:\/\/babel.hathitrust.org\/cgi\/pt?id=uc2.ark:\/13960\/t7jq0vz0t","placename":"Woll","snippet":"I laid the foundation-stone of the bridge over Tweed, and Mr. C. B. Scott 6 of Woll that of Ettrick.    "},{"title":"The journal of Sir Walter Scott,","author":"Scott, Walter","year":"1891-01-01","url":"http:\/\/babel.hathitrust.org\/cgi\/pt?id=uc2.ark:\/13960\/t7jq0vz0t","placename":"Woll","snippet":"After coming from the Court I met Woll and Gala, and agreed upon the measures to be attempted at Selkirk on the eighth at the meeting of trustees.    "},{"title":"The journal of Sir Walter Scott,","author":"Scott, Walter","year":"1891-01-01","url":"http:\/\/babel.hathitrust.org\/cgi\/pt?id=uc2.ark:\/13960\/t7jq0vz0t","placename":"Woll","snippet":"Met Scott of Woll and Scott of Gala, and consulted about the new road between Galashiels and Selkirk.    "},{"title":"The journal of Sir Walter Scott,","author":"Scott, Walter","year":"1891-01-01","url":"http:\/\/babel.hathitrust.org\/cgi\/pt?id=uc2.ark:\/13960\/t7jq0vz0t","placename":"Woll","snippet":"When I returned I found Charlotte Kerr here with a clever little boy, Charles Scott, grandson of Charles of the Woll, and son of William, and grand-nephew of John of Midgehope.    "},{"title":"The journal of Sir Walter Scott,","author":"Scott, Walter","year":"1891-01-01","url":"http:\/\/babel.hathitrust.org\/cgi\/pt?id=loc.ark:\/13960\/t6rz05s28","placename":"Woll","snippet":"I laid the foundation-stone of the bridge over Tweed, and Mr. C. B. Scott' of Woll that of Ettrick.    "},{"title":"The journal of Sir Walter Scott,","author":"Scott, Walter","year":"1891-01-01","url":"http:\/\/babel.hathitrust.org\/cgi\/pt?id=loc.ark:\/13960\/t6rz05s28","placename":"Woll","snippet":"After coming from the Court I met Woll and Gala, and agreed upon the measures to be attempted at Selkirk on the eighth at the meeting of trustees.    "},{"title":"The journal of Sir Walter Scott,","author":"Scott, Walter","year":"1891-01-01","url":"http:\/\/babel.hathitrust.org\/cgi\/pt?id=loc.ark:\/13960\/t6rz05s28","placename":"Woll","snippet":"When I returned I found Charlotte Kerr here with a clever little boy, Charles Scott, grandson of Charles of the Woll, and son of William, and grand-nephew of John of Midgehope.    "}]