[{"title":"The Journal of Sir Walter Scott; From the Original Manuscript at Abbotsford","author":"Scott, Walter","year":null,"url":"http:\/\/www.gutenberg.org\/ebooks\/14860","placename":"Midgehope","snippet":"John, Midgehope, ii.    "},{"title":"The Journal of Sir Walter Scott; From the Original Manuscript at Abbotsford","author":"Scott, Walter","year":null,"url":"http:\/\/www.gutenberg.org\/ebooks\/14860","placename":"Midgehope","snippet":"When I returned I found Charlotte Kerr here with a cleverlittle boy, Charles Scott, grandson of Charles of the Woll, and son ofWilliam, and grand-nephew of John of Midgehope.    "},{"title":"The Journal of Sir Walter Scott; From the Original Manuscript at Abbotsford","author":"Scott, Walter","year":null,"url":"http:\/\/www.gutenberg.org\/ebooks\/14860","placename":"Midgehope","snippet":"John, Midgehope, ii.    "},{"title":"The Journal of Sir Walter Scott; From the Original Manuscript at Abbotsford","author":"Scott, Walter","year":null,"url":"http:\/\/www.gutenberg.org\/ebooks\/14860","placename":"Midgehope","snippet":"When I returned I found Charlotte Kerr here with a cleverlittle boy, Charles Scott, grandson of Charles of the Woll, and son ofWilliam, and grand-nephew of John of Midgehope.    "},{"title":"The Journal of Sir Walter Scott; From the Original Manuscript at Abbotsford","author":"Scott, Walter","year":null,"url":"http:\/\/www.gutenberg.org\/ebooks\/14860","placename":"Midgehope","snippet":"John, Midgehope, ii.    "},{"title":"The Journal of Sir Walter Scott; From the Original Manuscript at Abbotsford","author":"Scott, Walter","year":null,"url":"http:\/\/www.gutenberg.org\/ebooks\/14860","placename":"Midgehope","snippet":"When I returned I found Charlotte Kerr here with a cleverlittle boy, Charles Scott, grandson of Charles of the Woll, and son ofWilliam, and grand-nephew of John of Midgehope.    "},{"title":"The journal of Sir Walter Scott,","author":"Scott, Walter","year":"1890-01-01","url":"http:\/\/babel.hathitrust.org\/cgi\/pt?id=uc2.ark:\/13960\/t9h41n97z","placename":"Midgehope","snippet":"When I returned I found Charlotte Kerr here with a clever little boy, Charles Scott, grandson of Charles of the Woll, and son of William, and grand-nephew of John of Midgehope.    "},{"title":"The journal of Sir Walter Scott,","author":"Scott, Walter","year":"1891-01-01","url":"http:\/\/babel.hathitrust.org\/cgi\/pt?id=uc2.ark:\/13960\/t7jq0vz0t","placename":"Midgehope","snippet":"When I returned I found Charlotte Kerr here with a clever little boy, Charles Scott, grandson of Charles of the Woll, and son of William, and grand-nephew of John of Midgehope.    "}]