[{"title":"Stories of the Border Marches","author":"Lang, John","year":null,"url":"http:\/\/www.gutenberg.org\/ebooks\/14416","placename":"Oxnam","snippet":"Oxnam and Teviot wereboth in spate, and their moan could be heard when the wind rested for alittle and allowed the fir trees to be still.    "},{"title":"Stories of the Border Marches","author":"Lang, John","year":null,"url":"http:\/\/www.gutenberg.org\/ebooks\/14416","placename":"Oxnam","snippet":"Oxnam and Teviot wereboth in spate, and their moan could be heard when the wind rested for alittle and allowed the fir trees to be still.    "},{"title":"Black's picturesque tourist of Scotland.","author":null,"year":"1857-01-01","url":"http:\/\/babel.hathitrust.org\/cgi\/pt?id=uc2.ark:\/13960\/t9862nx30","placename":"Oxnam","snippet":"Two miles east of Bonjedward is Crailing, the ancient seat of the Cranstouns, the border family that figures in the Lay of the Last .Minstrel, situated on the retired and romantic stream of Oxnam, which here falls into the Teviot.    "},{"title":"The Edinburgh gazetteer, or geographical dictionary ...","author":null,"year":"1822-01-01","url":"http:\/\/babel.hathitrust.org\/cgi\/pt?id=yale.39002088370268","placename":"Oxnam","snippet":"Oxnam, a river of Scotland, in Roxburghshire, which rises in the parish ofOxnam, and after a course of 12 miles,through steep and romantic banks, fallsinto the Teviot.    "},{"title":"The Edinburgh gazetteer, or geographical dictionary ...","author":null,"year":"1822-01-01","url":"http:\/\/babel.hathitrust.org\/cgi\/pt?id=yale.39002088370268","placename":"Oxnam","snippet":"Oxnam, a river of Scotland, in Roxburghshire, which rises in the parish ofOxnam, and after a course of 12 miles,through steep and romantic banks, fallsinto the Teviot.    "},{"title":"The Edinburgh gazetteer, or geographical dictionary ...","author":null,"year":"1822-01-01","url":"http:\/\/babel.hathitrust.org\/cgi\/pt?id=yale.39002088370268","placename":"Oxnam","snippet":"Oxnam, anciently Oxf.nham, a parishof Scotland, in Roxburghshire, 9 miles long,by 5 broad.    "},{"title":"Murmurings from rugged waters.","author":"Broomfield, James Polwarth. [from old catalog]","year":"1901-01-01","url":"http:\/\/babel.hathitrust.org\/cgi\/pt?id=loc.ark:\/13960\/t9b57f46t","placename":"Oxnam","snippet":"He must hae swam the Oxnam.\"    "},{"title":"Murmurings from rugged waters.","author":"Broomfield, James Polwarth. [from old catalog]","year":"1901-01-01","url":"http:\/\/babel.hathitrust.org\/cgi\/pt?id=loc.ark:\/13960\/t9b57f46t","placename":"Oxnam","snippet":"Loved scenes I'll aye revere \u2014 Tho' far frae Oxnam's bonnie stream    "},{"title":"Murmurings from rugged waters.","author":"Broomfield, James Polwarth. [from old catalog]","year":"1901-01-01","url":"http:\/\/babel.hathitrust.org\/cgi\/pt?id=loc.ark:\/13960\/t9b57f46t","placename":"Oxnam","snippet":"When Oxnam ran red, red with bluid    "},{"title":"Murmurings from rugged waters.","author":"Broomfield, James Polwarth. [from old catalog]","year":"1901-01-01","url":"http:\/\/babel.hathitrust.org\/cgi\/pt?id=loc.ark:\/13960\/t9b57f46t","placename":"Oxnam","snippet":"That spot to me aye dear, Near Oxnam's rumblin', rowin' stream    "},{"title":"Murmurings from rugged waters.","author":"Broomfield, James Polwarth. [from old catalog]","year":"1901-01-01","url":"http:\/\/babel.hathitrust.org\/cgi\/pt?id=loc.ark:\/13960\/t9b57f46t","placename":"Oxnam","snippet":"To where the Oxnam, gushing, joins    "},{"title":"Murmurings from rugged waters.","author":"Broomfield, James Polwarth. [from old catalog]","year":"1901-01-01","url":"http:\/\/babel.hathitrust.org\/cgi\/pt?id=loc.ark:\/13960\/t9b57f46t","placename":"Oxnam","snippet":"Where Oxnam, bubblin', roarin', rins    "},{"title":"Murmurings from rugged waters.","author":"Broomfield, James Polwarth. [from old catalog]","year":"1901-01-01","url":"http:\/\/babel.hathitrust.org\/cgi\/pt?id=loc.ark:\/13960\/t9b57f46t","placename":"Oxnam","snippet":"My thoughts roam far frae here, Where bonnie Oxnam gurglin' rins    "}]