[{"title":"Waverley; Or 'Tis Sixty Years Since - Complete","author":"Scott, Walter","year":null,"url":"http:\/\/www.gutenberg.org\/ebooks\/4966","placename":"Limmer","snippet":"LIMMER, a hussy, a jade.    "},{"title":"Waverley; Or 'Tis Sixty Years Since - Complete","author":"Scott, Walter","year":null,"url":"http:\/\/www.gutenberg.org\/ebooks\/4966","placename":"Limmer","snippet":"LIMMER, a jade.    "},{"title":"Waverley; Or, 'Tis Sixty Years Since","author":"Scott, Walter","year":null,"url":"http:\/\/www.gutenberg.org\/ebooks\/5998","placename":"Limmer","snippet":"LIMMER, a hussy, a jade.    "},{"title":"Waverley; Or, 'Tis Sixty Years Since","author":"Scott, Walter","year":null,"url":"http:\/\/www.gutenberg.org\/ebooks\/5998","placename":"Limmer","snippet":"LIMMER, a jade.    "},{"title":"Waverley; Or, 'Tis Sixty Years Since - Volume 2","author":"Scott, Walter","year":null,"url":"http:\/\/www.gutenberg.org\/ebooks\/4965","placename":"Limmer","snippet":"LIMMER, a hussy, a jade.    "},{"title":"Waverley; Or, 'Tis Sixty Years Since - Volume 2","author":"Scott, Walter","year":null,"url":"http:\/\/www.gutenberg.org\/ebooks\/4965","placename":"Limmer","snippet":"LIMMER, a hussy, a jade.    "},{"title":"Redgauntlet: A Tale Of The Eighteenth Century","author":"Scott, Walter","year":null,"url":"http:\/\/www.gutenberg.org\/ebooks\/2516","placename":"Limmer","snippet":"LIMMER, a loose woman, a jade.    "},{"title":"Waverley; Or, 'Tis Sixty Years Since","author":"Scott, Walter","year":null,"url":"http:\/\/www.gutenberg.org\/ebooks\/2034","placename":"Limmer","snippet":"LIMMER, hussy, good-for-nothing.    "},{"title":"The works of Robert Burns: with an account of his life, and criticism on his writings.","author":"Burns, Robert","year":"1830-01-01","url":"http:\/\/babel.hathitrust.org\/cgi\/pt?id=loc.ark:\/13960\/t77s86n39","placename":"Limmer","snippet":"Limmer, a kept mistress, a strumpet.    "},{"title":"The complete poetical and prose works of Robert Burns:","author":"Burns, Robert","year":"1859-01-01","url":"http:\/\/babel.hathitrust.org\/cgi\/pt?id=loc.ark:\/13960\/t4pk0xn8h","placename":"Limmer","snippet":"Limmer.    "}]