[{"title":"John Burnet of Barns: A Romance","author":"Buchan, John","year":null,"url":"http:\/\/www.gutenberg.org\/ebooks\/40014","placename":"Symington","snippet":"At the top of the knowe above Symington I halted, for therebefore my eyes were the blue hills of Tweeddale.    "},{"title":"John Burnet of Barns: A Romance","author":"Buchan, John","year":null,"url":"http:\/\/www.gutenberg.org\/ebooks\/40014","placename":"Symington","snippet":"At the top of the knowe above Symington I halted, for therebefore my eyes were the blue hills of Tweeddale.    "},{"title":"John Burnet of Barns: A Romance","author":"Buchan, John","year":null,"url":"http:\/\/www.gutenberg.org\/ebooks\/40014","placename":"Symington","snippet":"At the top of the knowe above Symington I halted, for therebefore my eyes were the blue hills of Tweeddale.    "},{"title":"Rab and His Friends and Other Papers","author":"Brown, John","year":null,"url":"http:\/\/www.gutenberg.org\/ebooks\/45929","placename":"Symington","snippet":"It was to Symington, four miles off,--a quiet little churchyard, lying in the shadow of Tinto; a place where she herself had wished to be laid.    "},{"title":"Rab and His Friends and Other Papers","author":"Brown, John","year":null,"url":"http:\/\/www.gutenberg.org\/ebooks\/45929","placename":"Symington","snippet":"It was to Symington, four miles off,--a quiet little churchyard, lying in the shadow of Tinto; a place where she herself had wished to be laid.    "},{"title":"Spare Hours","author":"Brown, John","year":null,"url":"http:\/\/www.gutenberg.org\/ebooks\/27153","placename":"Symington","snippet":"It was to Symington, four miles off,--a quietlittle churchyard, lying in the shadow of Tinto; a place where sheherself had wished to be laid.    "},{"title":"Spare Hours","author":"Brown, John","year":null,"url":"http:\/\/www.gutenberg.org\/ebooks\/27153","placename":"Symington","snippet":"It was to Symington, four miles off,--a quietlittle churchyard, lying in the shadow of Tinto; a place where sheherself had wished to be laid.    "},{"title":"Spare Hours","author":"Brown, John","year":null,"url":"http:\/\/www.gutenberg.org\/ebooks\/27153","placename":"Symington","snippet":"It was to Symington, four miles off,\u2014a quietlittle churchyard, lying in the shadow of Tinto; a place where sheherself had wished to be laid.    "},{"title":"Horae subsecivae.","author":"Brown, John","year":"1893-01-01","url":"http:\/\/babel.hathitrust.org\/cgi\/pt?id=loc.ark:\/13960\/t8mc9js2p","placename":"Symington","snippet":"It was to Symington, four miles off, \u2014 a quiet little churchyard, lying in the shadow of Tinto ; a place where she herself had wished  to be laid.    "},{"title":"Rab and his friends and other dogs and men,","author":"Brown, John","year":"1890-01-01","url":"http:\/\/babel.hathitrust.org\/cgi\/pt?id=uc2.ark:\/13960\/t82j6bb7d","placename":"Symington","snippet":"It was to Symington, four miles off, a quiet little churchyard, lying in the shadow of Tinto ; a place where she herself had wished to be laid.    "},{"title":"Rambles in Europe ... With historical facts relating to Scotch-American families, gathered in Scotland and the North of Ireland ... Illustrated","author":"Morrison, Leonard Allison.","year":"1888-01-01","url":"https:\/\/historicaltexts.jisc.ac.uk\/bl-002557311","placename":"Symington","snippet":"After a four-hours ride from Gretna Junction,through a section rich in history and beautiful inscenery, and passing through Moffatt, Symington,and other interesting towns, we entered the finelysituated city of Peebles, on the banks of theTweed, and secluded among the Scottish hills.    "}]