[{"title":"The Journal of Sir Walter Scott; From the Original Manuscript at Abbotsford","author":"Scott, Walter","year":null,"url":"http:\/\/www.gutenberg.org\/ebooks\/14860","placename":"Eildon Hall","snippet":"Henderson, Mr., Eildon Hall, his funeral, ii.    "},{"title":"The Journal of Sir Walter Scott; From the Original Manuscript at Abbotsford","author":"Scott, Walter","year":null,"url":"http:\/\/www.gutenberg.org\/ebooks\/14860","placename":"Eildon Hall","snippet":"This night I went to the funeral of Mr. Henderson, late of Eildon Hall,a kind-hearted man, who rose to great wealth by honest means, and willbe missed and regretted.    "},{"title":"The Journal of Sir Walter Scott; From the Original Manuscript at Abbotsford","author":"Scott, Walter","year":null,"url":"http:\/\/www.gutenberg.org\/ebooks\/14860","placename":"Eildon Hall","snippet":"Butgoing to Eildon Hall to-day, and to Drumlanrig to-morrow, there wasnothing more could be done for them.    "},{"title":"The Journal of Sir Walter Scott; From the Original Manuscript at Abbotsford","author":"Scott, Walter","year":null,"url":"http:\/\/www.gutenberg.org\/ebooks\/14860","placename":"Eildon Hall","snippet":"Henderson, Mr., Eildon Hall, his funeral, ii.    "},{"title":"The Journal of Sir Walter Scott; From the Original Manuscript at Abbotsford","author":"Scott, Walter","year":null,"url":"http:\/\/www.gutenberg.org\/ebooks\/14860","placename":"Eildon Hall","snippet":"This night I went to the funeral of Mr. Henderson, late of Eildon Hall,a kind-hearted man, who rose to great wealth by honest means, and willbe missed and regretted.    "},{"title":"The Journal of Sir Walter Scott; From the Original Manuscript at Abbotsford","author":"Scott, Walter","year":null,"url":"http:\/\/www.gutenberg.org\/ebooks\/14860","placename":"Eildon Hall","snippet":"Butgoing to Eildon Hall to-day, and to Drumlanrig to-morrow, there wasnothing more could be done for them.    "},{"title":"The Journal of Sir Walter Scott; From the Original Manuscript at Abbotsford","author":"Scott, Walter","year":null,"url":"http:\/\/www.gutenberg.org\/ebooks\/14860","placename":"Eildon Hall","snippet":"Henderson, Mr., Eildon Hall, his funeral, ii.    "},{"title":"The Journal of Sir Walter Scott; From the Original Manuscript at Abbotsford","author":"Scott, Walter","year":null,"url":"http:\/\/www.gutenberg.org\/ebooks\/14860","placename":"Eildon Hall","snippet":"This night I went to the funeral of Mr. Henderson, late of Eildon Hall,a kind-hearted man, who rose to great wealth by honest means, and willbe missed and regretted.    "},{"title":"The Journal of Sir Walter Scott; From the Original Manuscript at Abbotsford","author":"Scott, Walter","year":null,"url":"http:\/\/www.gutenberg.org\/ebooks\/14860","placename":"Eildon Hall","snippet":"Butgoing to Eildon Hall to-day, and to Drumlanrig to-morrow, there wasnothing more could be done for them.    "},{"title":"Black's picturesque tourist of Scotland.","author":null,"year":"1857-01-01","url":"http:\/\/babel.hathitrust.org\/cgi\/pt?id=uc2.ark:\/13960\/t9862nx30","placename":"Eildon Hall","snippet":"On the right, at the base of the Eildou Hills, is Eildon Hall (Mrs. Baillie).    "},{"title":"The journal of Sir Walter Scott,","author":"Scott, Walter","year":"1890-01-01","url":"http:\/\/babel.hathitrust.org\/cgi\/pt?id=uc2.ark:\/13960\/t9h41n97z","placename":"Eildon Hall","snippet":"This day I went to the funeral of Mr. Henderson, late of Eildon Hall, a kind-hearted man, who rose to great wealth by honest means, and will be missed and regretted.    "},{"title":"The journal of Sir Walter Scott,","author":"Scott, Walter","year":"1891-01-01","url":"http:\/\/babel.hathitrust.org\/cgi\/pt?id=uc2.ark:\/13960\/t7jq0vz0t","placename":"Eildon Hall","snippet":"But going to Eildon Hall to-day, and to Drumlanrig to-morrow,  there was nothing more could be done for them.    "},{"title":"The journal of Sir Walter Scott,","author":"Scott, Walter","year":"1891-01-01","url":"http:\/\/babel.hathitrust.org\/cgi\/pt?id=loc.ark:\/13960\/t6rz05s28","placename":"Eildon Hall","snippet":"But going to Eildon Hall to-day, and to Drumlanrig to-morrow,  there was nothing more could be done for them.    "},{"title":"The journal of Sir Walter Scott,","author":"Scott, Walter","year":"1890-01-01","url":"http:\/\/babel.hathitrust.org\/cgi\/pt?id=uc2.ark:\/13960\/t2q52hk62","placename":"Eildon Hall","snippet":"But going to Eildon Hall today,  and to Drumlanrig to-morrow, there was nothing more could be done for them.    "},{"title":"Scotland Picturesque and Traditional. A pilgrimage with staff and knapsack","author":"Todd, George Eyre.","year":"1895-01-01","url":"https:\/\/historicaltexts.jisc.ac.uk\/bl-003645357","placename":"Eildon Hall","snippet":"There is a mossy bridle-path along the southern foot of the mountain, through the woods of Eildon Hall, and this is the pleasantest wayto make the descent.    "}]