[{"title":"Essays critical and imaginative,","author":"Wilson, John","year":null,"url":"http:\/\/babel.hathitrust.org\/cgi\/pt?id=nc01.ark:\/13960\/t0rr2q686","placename":"Mertoun","snippet":"and when starry midnight shone serenely over Oxford's towers and temples, sighed \u2014 vainly sighed \u2014 with unsatisfied longings  and aspirations, that would not let us rest, to \" unsphere the spirit of Plato \" \u2014 they too were often with us in the wide metropolis, where, wide as it is, dear friends cannot almost be for a single day but by some happy fortune they meet ! How grasped \u2014 clasped were then our hands and our hearts ! How all college recollections \u2014 cheerful and full of glee \u2014 or high and of a solemn shade \u2014 came over us from the silence of those Still retreats, in the noise of the restless London ! Magdalen, Mertoun, Oriel, Christchurch, Trinity \u2014 how pleasant were your names !    "},{"title":"Black's picturesque tourist of Scotland.","author":null,"year":"1857-01-01","url":"http:\/\/babel.hathitrust.org\/cgi\/pt?id=uc2.ark:\/13960\/t9862nx30","placename":"Mertoun","snippet":"The Abbey was subsequently sold to the Haliburtons of Mertoun, from whom it was purchased by Colonel Tod, whose heirs sold it to the Earl of Buchan in 1786.    "},{"title":"The journal of Sir Walter Scott,","author":"Scott, Walter","year":"1891-01-01","url":"http:\/\/babel.hathitrust.org\/cgi\/pt?id=loc.ark:\/13960\/t6rz05s28","placename":"Mertoun","snippet":"Well, I can work at something, so at the Magnum work I. The day was indeed broken,  great part having been employed in the return from Mertoun.    "},{"title":"The journal of Sir Walter Scott,","author":"Scott, Walter","year":"1891-01-01","url":"http:\/\/babel.hathitrust.org\/cgi\/pt?id=loc.ark:\/13960\/t6rz05s28","placename":"Mertoun","snippet":"Arrived at Mertoun, and found with the family Sir John Pringle, Major Pringle, and Charles Baillie.    "},{"title":"The journal of Sir Walter Scott,","author":"Scott, Walter","year":"1891-01-01","url":"http:\/\/babel.hathitrust.org\/cgi\/pt?id=loc.ark:\/13960\/t6rz05s28","placename":"Mertoun","snippet":"Anne sets off to Mertoun, and I remain alone.    "},{"title":"The journal of Sir Walter Scott,","author":"Scott, Walter","year":"1891-01-01","url":"http:\/\/babel.hathitrust.org\/cgi\/pt?id=loc.ark:\/13960\/t6rz05s28","placename":"Mertoun","snippet":"We returned from Mertoun after breakfast through an incipient snowstorm, coming on partially, and in great flakes, the sun bursting at intervals through the clouds.    "},{"title":"The journal of Sir Walter Scott,","author":"Scott, Walter","year":"1891-01-01","url":"http:\/\/babel.hathitrust.org\/cgi\/pt?id=loc.ark:\/13960\/t6rz05s28","placename":"Mertoun","snippet":"We went to dine and pass the night at Mertoun, where we met Sir John Pringle, Mr. and Mrs. Baillie Mellerstain, and their daughters.    "},{"title":"The journal of Sir Walter Scott,","author":"Scott, Walter","year":"1891-01-01","url":"http:\/\/babel.hathitrust.org\/cgi\/pt?id=loc.ark:\/13960\/t6rz05s28","placename":"Mertoun","snippet":"Indolence is a delightful indulgence, but at what a rate we purchase it ! To-day we go to Mertoun, and having spent some time in making up my Journal to this length, and in a chat with Captain John, who dropped  in, I will presently set to the review \u2014 knock it off, if possible, before we start at five o'clock.    "},{"title":"The journal of Sir Walter Scott,","author":"Scott, Walter","year":"1891-01-01","url":"http:\/\/babel.hathitrust.org\/cgi\/pt?id=loc.ark:\/13960\/t6rz05s28","placename":"Mertoun","snippet":"\u2014 We arrived at Mertoun yesterday, and heard with some surprise that George had gone up in an air balloon, and ascended  two miles and a half above this sublunary earth.    "},{"title":"The journal of Sir Walter Scott,","author":"Scott, Walter","year":"1891-01-01","url":"http:\/\/babel.hathitrust.org\/cgi\/pt?id=loc.ark:\/13960\/t6rz05s28","placename":"Mertoun","snippet":"I did not attempt to work, especially as we were going down to Mertoun, and set off at five o'clock.    "},{"title":"The journal of Sir Walter Scott,","author":"Scott, Walter","year":"1891-01-01","url":"http:\/\/babel.hathitrust.org\/cgi\/pt?id=loc.ark:\/13960\/t6rz05s28","placename":"Mertoun","snippet":"\u2014 Drove down to Mertoun and brought up Elizabeth Scott to be our guest for some days or so.    "},{"title":"The journal of Sir Walter Scott,","author":"Scott, Walter","year":"1891-01-01","url":"http:\/\/babel.hathitrust.org\/cgi\/pt?id=loc.ark:\/13960\/t6rz05s28","placename":"Mertoun","snippet":"Anne, who had been at Mertoun the day before, brought up Anne and Elizabeth Scotf^ with her, and Francis has been with us since yesterday.    "},{"title":"The journal of Sir Walter Scott,","author":"Scott, Walter","year":"1891-01-01","url":"http:\/\/babel.hathitrust.org\/cgi\/pt?id=loc.ark:\/13960\/t6rz05s28","placename":"Mertoun","snippet":"\u2014 Went on our little expedition, breakfasting at Mertoun.    "},{"title":"The journal of Sir Walter Scott,","author":"Scott, Walter","year":"1891-01-01","url":"http:\/\/babel.hathitrust.org\/cgi\/pt?id=loc.ark:\/13960\/t6rz05s28","placename":"Mertoun","snippet":"Walked from twelve till three, then drove to Mertoun with Lockhart and Allan.    "},{"title":"The journal of Sir Walter Scott,","author":"Scott, Walter","year":"1891-01-01","url":"http:\/\/babel.hathitrust.org\/cgi\/pt?id=loc.ark:\/13960\/t6rz05s28","placename":"Mertoun","snippet":"A drive down to Mertoun, and engaged to dine there on Sunday first.    "},{"title":"The journal of Sir Walter Scott,","author":"Scott, Walter","year":"1891-01-01","url":"http:\/\/babel.hathitrust.org\/cgi\/pt?id=loc.ark:\/13960\/t6rz05s28","placename":"Mertoun","snippet":"Walter  and Jane dined at Mertoun.    "},{"title":"The journal of Sir Walter Scott,","author":"Scott, Walter","year":"1891-01-01","url":"http:\/\/babel.hathitrust.org\/cgi\/pt?id=loc.ark:\/13960\/t6rz05s28","placename":"Mertoun","snippet":"Anne and I dined at Mertoun, as has been my old wont and use as Christmas day comes about.    "},{"title":"The journal of Sir Walter Scott,","author":"Scott, Walter","year":"1891-01-01","url":"http:\/\/babel.hathitrust.org\/cgi\/pt?id=loc.ark:\/13960\/t6rz05s28","placename":"Mertoun","snippet":"\u2014 To Mertoun we went accordingly.    "},{"title":"The journal of Sir Walter Scott,","author":"Scott, Walter","year":"1891-01-01","url":"http:\/\/babel.hathitrust.org\/cgi\/pt?id=loc.ark:\/13960\/t6rz05s28","placename":"Mertoun","snippet":"But as I go to Mertoun at foui*, and spend the night there, the exertion was necessary.    "},{"title":"The journal of Sir Walter Scott,","author":"Scott, Walter","year":"1891-01-01","url":"http:\/\/babel.hathitrust.org\/cgi\/pt?id=loc.ark:\/13960\/t6rz05s28","placename":"Mertoun","snippet":"I went down to Mertoun with Colonel Ferguson, who returned to dine here, which consumed time so much that I made a short day's work.    "},{"title":"The journal of Sir Walter Scott,","author":"Scott, Walter","year":"1890-01-01","url":"http:\/\/babel.hathitrust.org\/cgi\/pt?id=uc2.ark:\/13960\/t2q52hk62","placename":"Mertoun","snippet":"Walter and Jane dined at Mertoun.    "},{"title":"The journal of Sir Walter Scott,","author":"Scott, Walter","year":"1890-01-01","url":"http:\/\/babel.hathitrust.org\/cgi\/pt?id=uc2.ark:\/13960\/t2q52hk62","placename":"Mertoun","snippet":"Anne and I dined at Mertoun, as has been my old wont and use as Christmas day comes about.    "},{"title":"The journal of Sir Walter Scott,","author":"Scott, Walter","year":"1890-01-01","url":"http:\/\/babel.hathitrust.org\/cgi\/pt?id=uc2.ark:\/13960\/t2q52hk62","placename":"Mertoun","snippet":"To Mertoun we went accordingly.    "},{"title":"The journal of Sir Walter Scott,","author":"Scott, Walter","year":"1890-01-01","url":"http:\/\/babel.hathitrust.org\/cgi\/pt?id=uc2.ark:\/13960\/t2q52hk62","placename":"Mertoun","snippet":"But as I go to Mertoun at four, and spend the night there, the exertion was necessary.    "},{"title":"The journal of Sir Walter Scott,","author":"Scott, Walter","year":"1890-01-01","url":"http:\/\/babel.hathitrust.org\/cgi\/pt?id=uc2.ark:\/13960\/t2q52hk62","placename":"Mertoun","snippet":"down to Mertoun with Colonel Ferguson, who returned to dine here, which consumed time so much that I made a short day's work.    "},{"title":"Miscellaneous Prose Works of Sir Walter Scott, Bart","author":"Scott, Walter","year":"1847-01-01","url":"https:\/\/historicaltexts.jisc.ac.uk\/bl-003316905-01","placename":"Mertoun","snippet":"Those ofMakerston, Mertoun, &c, are let for inconsiderablesums.    "}]