[{"title":"The works of Robert Burns: with an account of his life, and criticism on his writings.","author":"Burns, Robert","year":"1830-01-01","url":"http:\/\/babel.hathitrust.org\/cgi\/pt?id=loc.ark:\/13960\/t77s86n39","placename":"Ern","snippet":"She tripped by the banks of Ern, As light's a bird upon a thorn.    "},{"title":"The works of Robert Burns: with an account of his life, and criticism on his writings.","author":"Burns, Robert","year":"1830-01-01","url":"http:\/\/babel.hathitrust.org\/cgi\/pt?id=loc.ark:\/13960\/t77s86n39","placename":"Ern","snippet":"Blithe by the banks of Ern, And blithe in Glenturit glen.    "},{"title":"The complete poetical and prose works of Robert Burns:","author":"Burns, Robert","year":"1881-01-01","url":"http:\/\/babel.hathitrust.org\/cgi\/pt?id=loc.ark:\/13960\/t43r1df6g","placename":"Ern","snippet":"She tripped by the banks o' Ern, As light's a bird upon a thorn.    "},{"title":"The complete works of Robert Burns:","author":"Burns, Robert","year":"1854-01-01","url":"http:\/\/babel.hathitrust.org\/cgi\/pt?id=loc.ark:\/13960\/t2z32c284","placename":"Ern","snippet":"Blithe by the banks of Ern, '    "},{"title":"The complete works of Robert Burns:","author":"Burns, Robert","year":"1854-01-01","url":"http:\/\/babel.hathitrust.org\/cgi\/pt?id=loc.ark:\/13960\/t2z32c284","placename":"Ern","snippet":"Blithe was she but and ben: Blithe by the banks of Ern,    "},{"title":"The complete works of Robert Burns:","author":"Burns, Robert","year":"1854-01-01","url":"http:\/\/babel.hathitrust.org\/cgi\/pt?id=loc.ark:\/13960\/t2z32c284","placename":"Ern","snippet":"She tripped by the banks of Ern,    "},{"title":"The complete works of Robert Burns: containing his poems, songs, and correspondence.","author":"Burns, Robert","year":"1852-01-01","url":"http:\/\/babel.hathitrust.org\/cgi\/pt?id=loc.ark:\/13960\/t01z4r72g","placename":"Ern","snippet":"Blithe by the banks of Ern,    "},{"title":"The complete works of Robert Burns: containing his poems, songs, and correspondence.","author":"Burns, Robert","year":"1852-01-01","url":"http:\/\/babel.hathitrust.org\/cgi\/pt?id=loc.ark:\/13960\/t01z4r72g","placename":"Ern","snippet":"Blithe by the banks of Ern,    "},{"title":"The complete works of Robert Burns: containing his poems, songs, and correspondence.","author":"Burns, Robert","year":"1852-01-01","url":"http:\/\/babel.hathitrust.org\/cgi\/pt?id=loc.ark:\/13960\/t01z4r72g","placename":"Ern","snippet":"She tripped by the banks of Ern,    "}]