[{"title":"The Heart of Mid-Lothian, Volume 1","author":"Scott, Walter","year":null,"url":"http:\/\/www.gutenberg.org\/ebooks\/6942","placename":"Tweeddale","snippet":"It was a wild and very sequestered dell inTweeddale, surrounded by high hills, and far remote from humanhabitation.    "},{"title":"Life and Correspondence of David Hume, Volume I (of 2)","author":"Burton, John Hill","year":null,"url":"http:\/\/www.gutenberg.org\/ebooks\/42843","placename":"Tweeddale","snippet":"The one had a small pieceof property in Tweeddale, between Noblehouse and Moffat; and soon afterthe date of this letter acquired an infamous celebrity by givingevidence against the rebels, after having acted as secretary to thePretender.    "},{"title":"Life and Correspondence of David Hume, Volume I (of 2)","author":"Burton, John Hill","year":null,"url":"http:\/\/www.gutenberg.org\/ebooks\/42843","placename":"Tweeddale","snippet":"The one had a small pieceof property in Tweeddale, between Noblehouse and Moffat; and soon afterthe date of this letter acquired an infamous celebrity by givingevidence against the rebels, after having acted as secretary to thePretender.    "},{"title":"Life and Correspondence of David Hume, Volume I (of 2)","author":"Burton, John Hill","year":null,"url":"http:\/\/www.gutenberg.org\/ebooks\/42843","placename":"Tweeddale","snippet":"The one had a small pieceof property in Tweeddale, between Noblehouse and Moffat; and soon afterthe date of this letter acquired an infamous celebrity by givingevidence against the rebels, after having acted as secretary to thePretender.    "},{"title":"John Burnet of Barns: A Romance","author":"Buchan, John","year":null,"url":"http:\/\/www.gutenberg.org\/ebooks\/40014","placename":"Tweeddale","snippet":"Here inTweeddale life runs easily and calm.    "},{"title":"John Burnet of Barns: A Romance","author":"Buchan, John","year":null,"url":"http:\/\/www.gutenberg.org\/ebooks\/40014","placename":"Tweeddale","snippet":"Nor did I neglect those in Tweeddale, for I sent news by near every postthat went to the North.    "},{"title":"John Burnet of Barns: A Romance","author":"Buchan, John","year":null,"url":"http:\/\/www.gutenberg.org\/ebooks\/40014","placename":"Tweeddale","snippet":"Then, when I would have returned toTweeddale, I received a post from my good kinsman, Dr. Gilbert Burnet,which led me first to Edinburgh and then so far afield as London itself.    "},{"title":"John Burnet of Barns: A Romance","author":"Buchan, John","year":null,"url":"http:\/\/www.gutenberg.org\/ebooks\/40014","placename":"Tweeddale","snippet":"ButI had been brought up to this very trick, for in the old days inTweeddale, Tam Todd would have taken his stand near the Tweed andstriven to force me back into the great pool.    "},{"title":"John Burnet of Barns: A Romance","author":"Buchan, John","year":null,"url":"http:\/\/www.gutenberg.org\/ebooks\/40014","placename":"Tweeddale","snippet":"\"Marjory Veitch isno more in this house; with the escort of my servant she is on her roadto Tweeddale.    "},{"title":"John Burnet of Barns: A Romance","author":"Buchan, John","year":null,"url":"http:\/\/www.gutenberg.org\/ebooks\/40014","placename":"Tweeddale","snippet":"By to-morrow you will be in Tweeddale, andin a very little while I will come to you.\"    "},{"title":"John Burnet of Barns: A Romance","author":"Buchan, John","year":null,"url":"http:\/\/www.gutenberg.org\/ebooks\/40014","placename":"Tweeddale","snippet":"\"If so happen we get Mistress Marjory safe,\" saidI, \"you will ride off with her without delay, down the valley to theClyde and then straight towards Tweeddale.    "},{"title":"John Burnet of Barns: A Romance","author":"Buchan, John","year":null,"url":"http:\/\/www.gutenberg.org\/ebooks\/40014","placename":"Tweeddale","snippet":"There was an inn there which I remembered of old time,for the innkeeper had come originally from Tweeddale.    "},{"title":"John Burnet of Barns: A Romance","author":"Buchan, John","year":null,"url":"http:\/\/www.gutenberg.org\/ebooks\/40014","placename":"Tweeddale","snippet":"You shall takethe lady home to Tweeddale, to Dawyck, which is her own, and leave mebehind you.    "},{"title":"John Burnet of Barns: A Romance","author":"Buchan, John","year":null,"url":"http:\/\/www.gutenberg.org\/ebooks\/40014","placename":"Tweeddale","snippet":"When he got noword Marjory was in sic a terror that nothing would suffice her but thathe maun off to Tweeddale and seek every heather-buss for word of ye.    "},{"title":"John Burnet of Barns: A Romance","author":"Buchan, John","year":null,"url":"http:\/\/www.gutenberg.org\/ebooks\/40014","placename":"Tweeddale","snippet":"Far on all sides I had a view of the wide landscape, from therugged high hills of Tweeddale and the upper Clyde to the lowlands inthe west which stretch to Glasgow and the sea.    "},{"title":"John Burnet of Barns: A Romance","author":"Buchan, John","year":null,"url":"http:\/\/www.gutenberg.org\/ebooks\/40014","placename":"Tweeddale","snippet":"With them I travelled over the wilduplands of Eskdale and Ettrick, and with them I now returned to theconfines of Tweeddale.    "},{"title":"John Burnet of Barns: A Romance","author":"Buchan, John","year":null,"url":"http:\/\/www.gutenberg.org\/ebooks\/40014","placename":"Tweeddale","snippet":"She was of the clan of the Baillies, the great gipsies of Tweeddale andClydesdale, offshoots of the house of Lamington, and proud as the devilor John Faa himself.    "},{"title":"John Burnet of Barns: A Romance","author":"Buchan, John","year":null,"url":"http:\/\/www.gutenberg.org\/ebooks\/40014","placename":"Tweeddale","snippet":"And all through these days I lay close hid in the wilds, now in oneplace, now in another, never wandering far from Tweeddale.    "},{"title":"John Burnet of Barns: A Romance","author":"Buchan, John","year":null,"url":"http:\/\/www.gutenberg.org\/ebooks\/40014","placename":"Tweeddale","snippet":"You musttake to the hills, and if you follow my advice you will hold over to thewestlands where your friends are, and so keep the pursuit fromTweeddale, which little deserves it.    "},{"title":"John Burnet of Barns: A Romance","author":"Buchan, John","year":null,"url":"http:\/\/www.gutenberg.org\/ebooks\/40014","placename":"Tweeddale","snippet":"Inall likelihood Gilbert had now returned and resumed the chief command ofthe troop, for otherwise there would have been no meaning in the journeyto Dawyck and lower Tweeddale which these fellows had taken.    "},{"title":"John Burnet of Barns: A Romance","author":"Buchan, John","year":null,"url":"http:\/\/www.gutenberg.org\/ebooks\/40014","placename":"Tweeddale","snippet":"I had given them a clue to mywhereabouts: more, I had brought the hunt down on lower Tweeddale, whichbefore had been left all but unmolested.    "},{"title":"John Burnet of Barns: A Romance","author":"Buchan, John","year":null,"url":"http:\/\/www.gutenberg.org\/ebooks\/40014","placename":"Tweeddale","snippet":"Now the task was hopeless from the commencement, for big though a manbe, and the miller was as broad and high a man as one may see inTweeddale, he has no chance against a mill-race.    "},{"title":"John Burnet of Barns: A Romance","author":"Buchan, John","year":null,"url":"http:\/\/www.gutenberg.org\/ebooks\/40014","placename":"Tweeddale","snippet":"There is a narrowbridle-path which follows the burn, leading from Broughton in Tweeddaleto Abington, so the way was easier walking.    "},{"title":"John Burnet of Barns: A Romance","author":"Buchan, John","year":null,"url":"http:\/\/www.gutenberg.org\/ebooks\/40014","placename":"Tweeddale","snippet":"However, Idreaded this the less, and looked for my troubles mainly after I hadonce entered my own lands in Tweeddale.    "},{"title":"John Burnet of Barns: A Romance","author":"Buchan, John","year":null,"url":"http:\/\/www.gutenberg.org\/ebooks\/40014","placename":"Tweeddale","snippet":"There was nothing for it but to make for the lowerwaters, ford the river above Coulter, and then come to Tweeddale in thelower parts, and thence make my way to the Water of Cor.    "},{"title":"John Burnet of Barns: A Romance","author":"Buchan, John","year":null,"url":"http:\/\/www.gutenberg.org\/ebooks\/40014","placename":"Tweeddale","snippet":"Now I dared not go back to Tweeddale by the way by which I had come, forthe Clyde valley above Abington would be a hunting-ground of dragoonsfor many days.    "},{"title":"John Burnet of Barns: A Romance","author":"Buchan, John","year":null,"url":"http:\/\/www.gutenberg.org\/ebooks\/40014","placename":"Tweeddale","snippet":"I take the only course; give thedragoons the slip, and ride straight to Tweeddale, escort her to a housewhere she will be safe and unknown; and when this is done take to thehills myself with a light heart.    "},{"title":"John Burnet of Barns: A Romance","author":"Buchan, John","year":null,"url":"http:\/\/www.gutenberg.org\/ebooks\/40014","placename":"Tweeddale","snippet":"I was a man of Tweeddale who had travelled and studied andmingled among men.    "},{"title":"John Burnet of Barns: A Romance","author":"Buchan, John","year":null,"url":"http:\/\/www.gutenberg.org\/ebooks\/40014","placename":"Tweeddale","snippet":"Would the Burnets everagain be great gentlemen of Tweeddale, a power in the countryside,having men at their beck and call?    "},{"title":"John Burnet of Barns: A Romance","author":"Buchan, John","year":null,"url":"http:\/\/www.gutenberg.org\/ebooks\/40014","placename":"Tweeddale","snippet":"Had I but known it,this cave was his finding, and half the retreats in Tweeddale andClydesdale were known to him.    "},{"title":"John Burnet of Barns: A Romance","author":"Buchan, John","year":null,"url":"http:\/\/www.gutenberg.org\/ebooks\/40014","placename":"Tweeddale","snippet":"So we fell to discussing manythings--men I had known in Leyden, men I had known in Tweeddale,together with the more momentous question of the future of each of us.    "},{"title":"John Burnet of Barns: A Romance","author":"Buchan, John","year":null,"url":"http:\/\/www.gutenberg.org\/ebooks\/40014","placename":"Tweeddale","snippet":"Forbye, you are a gentleman of Tweeddale, and it wouldbe queer if you werena right-hearted, Master John Burnet.\"    "},{"title":"John Burnet of Barns: A Romance","author":"Buchan, John","year":null,"url":"http:\/\/www.gutenberg.org\/ebooks\/40014","placename":"Tweeddale","snippet":"Is a Tweeddalegentleman no as guid as a bit westland lairdie?\"    "},{"title":"John Burnet of Barns: A Romance","author":"Buchan, John","year":null,"url":"http:\/\/www.gutenberg.org\/ebooks\/40014","placename":"Tweeddale","snippet":"Ihad come home from the Low Countries with a longing for the plaincountry life of Tweeddale, such as I had been bred to.    "},{"title":"John Burnet of Barns: A Romance","author":"Buchan, John","year":null,"url":"http:\/\/www.gutenberg.org\/ebooks\/40014","placename":"Tweeddale","snippet":"\"He would never, gin he had ony sense, gang doun Tweeddale,where there's nae hiding for man or beast.\"    "},{"title":"John Burnet of Barns: A Romance","author":"Buchan, John","year":null,"url":"http:\/\/www.gutenberg.org\/ebooks\/40014","placename":"Tweeddale","snippet":"At the sight of me hestarted, for my danger was known over all Tweeddale.    "},{"title":"John Burnet of Barns: A Romance","author":"Buchan, John","year":null,"url":"http:\/\/www.gutenberg.org\/ebooks\/40014","placename":"Tweeddale","snippet":"They had not recognised me, I knew, for they were not men of ourcountryside; and if left to themselves, would keep the highway toMoffat, and have never a thought of turning aside into Tweeddale.    "},{"title":"John Burnet of Barns: A Romance","author":"Buchan, John","year":null,"url":"http:\/\/www.gutenberg.org\/ebooks\/40014","placename":"Tweeddale","snippet":"I am the Laird of Barns, inTweeddale, and this day an outlaw and a masterless man.    "},{"title":"John Burnet of Barns: A Romance","author":"Buchan, John","year":null,"url":"http:\/\/www.gutenberg.org\/ebooks\/40014","placename":"Tweeddale","snippet":"But such things were notfor me, and soon I was past all, and near the hamlet of Liberton and thehighway to Tweeddale.    "},{"title":"John Burnet of Barns: A Romance","author":"Buchan, John","year":null,"url":"http:\/\/www.gutenberg.org\/ebooks\/40014","placename":"Tweeddale","snippet":"Irushed hotly forward, for at the first glance I had known it for my ownmare Maisie, the best in all Tweeddale.    "},{"title":"John Burnet of Barns: A Romance","author":"Buchan, John","year":null,"url":"http:\/\/www.gutenberg.org\/ebooks\/40014","placename":"Tweeddale","snippet":"Once I were there I might find my way through the backparts of Leith to the country, and borrow a horse and ride to Tweeddale.    "},{"title":"John Burnet of Barns: A Romance","author":"Buchan, John","year":null,"url":"http:\/\/www.gutenberg.org\/ebooks\/40014","placename":"Tweeddale","snippet":"Were I only in Tweeddale I might yet find a way out ofthe trouble.    "},{"title":"John Burnet of Barns: A Romance","author":"Buchan, John","year":null,"url":"http:\/\/www.gutenberg.org\/ebooks\/40014","placename":"Tweeddale","snippet":"'When our Captain cam back frae furrin pairts,' says he, 'he gangs offto Tweeddale, your ain countryside, for it seems there's a lassie therehe's awfu' fond o'.    "},{"title":"John Burnet of Barns: A Romance","author":"Buchan, John","year":null,"url":"http:\/\/www.gutenberg.org\/ebooks\/40014","placename":"Tweeddale","snippet":"The broad twang of the fishermen, theshrill yatter of the fishwives, the look of the black, red-tiled houses,and the spires of the kirks--all was so Scots that it went straight tomy heart, and it was with a cheerful spirit that, followed by myservant, I made for the inn of _The Three Herrings_, where I purposed tosleep the night ere I rode to Tweeddale on the morrow.    "},{"title":"John Burnet of Barns: A Romance","author":"Buchan, John","year":null,"url":"http:\/\/www.gutenberg.org\/ebooks\/40014","placename":"Tweeddale","snippet":"I would soon be in Tweeddale again,and have Scrape and Dollar Law and Caerdon before my eyes, and hear thesing-song of Tweed running through the meadows.    "},{"title":"John Burnet of Barns: A Romance","author":"Buchan, John","year":null,"url":"http:\/\/www.gutenberg.org\/ebooks\/40014","placename":"Tweeddale","snippet":"Thetruth of the matter, I fancy, was that when I left Tweeddale I waslittle more than a boy, with a boy's interests, but that now I had grownto some measure of manhood and serious reflection.    "},{"title":"John Burnet of Barns: A Romance","author":"Buchan, John","year":null,"url":"http:\/\/www.gutenberg.org\/ebooks\/40014","placename":"Tweeddale","snippet":"He was whistling some barsof \"Leezie Lindsay,\" and the tune, which I had often heard in Tweeddale,put me much in mind of home and inclined my heart violently to the placeI had left.    "},{"title":"John Burnet of Barns: A Romance","author":"Buchan, John","year":null,"url":"http:\/\/www.gutenberg.org\/ebooks\/40014","placename":"Tweeddale","snippet":"Ilearned too of other lands where he had been and wars which he hadfought; and many tales which I have often told at home in Tweeddale Ifirst heard from his lips.    "},{"title":"John Burnet of Barns: A Romance","author":"Buchan, John","year":null,"url":"http:\/\/www.gutenberg.org\/ebooks\/40014","placename":"Tweeddale","snippet":"It mindedme so keenly of the mornings at home in Tweeddale, when I was used torise before daylight and go far up Tweed with my rod, and bring back, ifmy luck were good, great baskets of trout.    "},{"title":"John Burnet of Barns: A Romance","author":"Buchan, John","year":null,"url":"http:\/\/www.gutenberg.org\/ebooks\/40014","placename":"Tweeddale","snippet":"But Iwas ever of a curious disposition, liking to be always in mind ofTweeddale and the folk there, so that I kept the Sabbath during my lifeabroad as strictly as a covenanting minister on the moors of Ayr.    "},{"title":"John Burnet of Barns: A Romance","author":"Buchan, John","year":null,"url":"http:\/\/www.gutenberg.org\/ebooks\/40014","placename":"Tweeddale","snippet":"\"And how goes all in Tweeddale, my dear cousin?\" said he.    "},{"title":"John Burnet of Barns: A Romance","author":"Buchan, John","year":null,"url":"http:\/\/www.gutenberg.org\/ebooks\/40014","placename":"Tweeddale","snippet":"I answered shortly and with no great cordiality, for I still rememberedthe doings in Tweeddale, and my heart was still sore in the matter of myfather's death.    "},{"title":"John Burnet of Barns: A Romance","author":"Buchan, John","year":null,"url":"http:\/\/www.gutenberg.org\/ebooks\/40014","placename":"Tweeddale","snippet":"One thing I noted--that the air was somewhat soft and damp, lacking, tomy mind, the acrid strength of the air of Tweeddale, or even of theLothians.    "},{"title":"John Burnet of Barns: A Romance","author":"Buchan, John","year":null,"url":"http:\/\/www.gutenberg.org\/ebooks\/40014","placename":"Tweeddale","snippet":"\"Nicol,\" I groaned, \"if I never gee home again, I look to you to tellthe folk in Tweeddale.    "},{"title":"John Burnet of Barns: A Romance","author":"Buchan, John","year":null,"url":"http:\/\/www.gutenberg.org\/ebooks\/40014","placename":"Tweeddale","snippet":"I scarce delayed inEddleston, but pushed on up the valley, expecting to get dinner at theinn at Leadburn, which stands at the watershed, just where the county ofEdinburgh touches our shire of Tweeddale.    "},{"title":"John Burnet of Barns: A Romance","author":"Buchan, John","year":null,"url":"http:\/\/www.gutenberg.org\/ebooks\/40014","placename":"Tweeddale","snippet":"I was to ride Maisieas far as Leith, where I was to leave her with a man at theHarbour-Walk, who would send her back to Tweeddale; for I knew it wouldbe a hard thing to get passage for a horse in the small ships whichsailed between our land and the Low Countries at that time of year.    "},{"title":"John Burnet of Barns: A Romance","author":"Buchan, John","year":null,"url":"http:\/\/www.gutenberg.org\/ebooks\/40014","placename":"Tweeddale","snippet":"I would rather be a shepherd in Tweeddale than a noblein Spain.\"    "},{"title":"John Burnet of Barns: A Romance","author":"Buchan, John","year":null,"url":"http:\/\/www.gutenberg.org\/ebooks\/40014","placename":"Tweeddale","snippet":"\"I trust you may not learn in those far-away places to look down onTweeddale and the simple folks here.    "},{"title":"John Burnet of Barns: A Romance","author":"Buchan, John","year":null,"url":"http:\/\/www.gutenberg.org\/ebooks\/40014","placename":"Tweeddale","snippet":"\"I am vexed that you are going away,\" and she looked at me sadly; \"itwill be lonely in Tweeddale without you.\"    "},{"title":"John Burnet of Barns: A Romance","author":"Buchan, John","year":null,"url":"http:\/\/www.gutenberg.org\/ebooks\/40014","placename":"Tweeddale","snippet":"There's no mony Whigs in Tweeddale.    "},{"title":"John Burnet of Barns: A Romance","author":"Buchan, John","year":null,"url":"http:\/\/www.gutenberg.org\/ebooks\/40014","placename":"Tweeddale","snippet":"\"Ay, Marjory,\" I answered, \"I have come back to Tweeddale, for I havehad enough of Glasgow College and books, and I was wearying for thehills and Tweed and a sight of your face.    "},{"title":"John Burnet of Barns: A Romance","author":"Buchan, John","year":null,"url":"http:\/\/www.gutenberg.org\/ebooks\/40014","placename":"Tweeddale","snippet":"I cried aloud with delight, for nowI knew that no horse in Tweeddale could hope to match him when the moodwas on him.    "},{"title":"John Burnet of Barns: A Romance","author":"Buchan, John","year":null,"url":"http:\/\/www.gutenberg.org\/ebooks\/40014","placename":"Tweeddale","snippet":"At the top of the knowe above Symington I halted, for therebefore my eyes were the blue hills of Tweeddale.    "},{"title":"John Burnet of Barns: A Romance","author":"Buchan, John","year":null,"url":"http:\/\/www.gutenberg.org\/ebooks\/40014","placename":"Tweeddale","snippet":"I cried good-day to everyman, and flung money to the little children who shouted as I passed, sothat I believe if there had been many more boys on the road I would havereached Tweeddale a beggar.    "},{"title":"John Burnet of Barns: A Romance","author":"Buchan, John","year":null,"url":"http:\/\/www.gutenberg.org\/ebooks\/40014","placename":"Tweeddale","snippet":"In the midsummer months I went down to Tweeddale again, where Iastonished my father and all in the place with my new learning, and alsogrieved them.    "},{"title":"John Burnet of Barns: A Romance","author":"Buchan, John","year":null,"url":"http:\/\/www.gutenberg.org\/ebooks\/40014","placename":"Tweeddale","snippet":"As for myself, I was nothingloth to go, and see places beyond Tweeddale and add to my stock oflearning; for about this time a great enthusiasm for letters had seizedme (which I suppose happens at some time or other to most men), and Iconceived my proper vocation in life to be that of the scholar.    "},{"title":"John Burnet of Barns: A Romance","author":"Buchan, John","year":null,"url":"http:\/\/www.gutenberg.org\/ebooks\/40014","placename":"Tweeddale","snippet":"Here inTweeddale life runs easily and calm.    "},{"title":"John Burnet of Barns: A Romance","author":"Buchan, John","year":null,"url":"http:\/\/www.gutenberg.org\/ebooks\/40014","placename":"Tweeddale","snippet":"Nor did I neglect those in Tweeddale, for I sent news by near every postthat went to the North.    "},{"title":"John Burnet of Barns: A Romance","author":"Buchan, John","year":null,"url":"http:\/\/www.gutenberg.org\/ebooks\/40014","placename":"Tweeddale","snippet":"Then, when I would have returned toTweeddale, I received a post from my good kinsman, Dr. Gilbert Burnet,which led me first to Edinburgh and then so far afield as London itself.    "},{"title":"John Burnet of Barns: A Romance","author":"Buchan, John","year":null,"url":"http:\/\/www.gutenberg.org\/ebooks\/40014","placename":"Tweeddale","snippet":"ButI had been brought up to this very trick, for in the old days inTweeddale, Tam Todd would have taken his stand near the Tweed andstriven to force me back into the great pool.    "},{"title":"John Burnet of Barns: A Romance","author":"Buchan, John","year":null,"url":"http:\/\/www.gutenberg.org\/ebooks\/40014","placename":"Tweeddale","snippet":"\"Marjory Veitch isno more in this house; with the escort of my servant she is on her roadto Tweeddale.    "},{"title":"John Burnet of Barns: A Romance","author":"Buchan, John","year":null,"url":"http:\/\/www.gutenberg.org\/ebooks\/40014","placename":"Tweeddale","snippet":"By to-morrow you will be in Tweeddale, andin a very little while I will come to you.\"    "},{"title":"John Burnet of Barns: A Romance","author":"Buchan, John","year":null,"url":"http:\/\/www.gutenberg.org\/ebooks\/40014","placename":"Tweeddale","snippet":"\"If so happen we get Mistress Marjory safe,\" saidI, \"you will ride off with her without delay, down the valley to theClyde and then straight towards Tweeddale.    "},{"title":"John Burnet of Barns: A Romance","author":"Buchan, John","year":null,"url":"http:\/\/www.gutenberg.org\/ebooks\/40014","placename":"Tweeddale","snippet":"There was an inn there which I remembered of old time,for the innkeeper had come originally from Tweeddale.    "},{"title":"John Burnet of Barns: A Romance","author":"Buchan, John","year":null,"url":"http:\/\/www.gutenberg.org\/ebooks\/40014","placename":"Tweeddale","snippet":"You shall takethe lady home to Tweeddale, to Dawyck, which is her own, and leave mebehind you.    "},{"title":"John Burnet of Barns: A Romance","author":"Buchan, John","year":null,"url":"http:\/\/www.gutenberg.org\/ebooks\/40014","placename":"Tweeddale","snippet":"When he got noword Marjory was in sic a terror that nothing would suffice her but thathe maun off to Tweeddale and seek every heather-buss for word of ye.    "},{"title":"John Burnet of Barns: A Romance","author":"Buchan, John","year":null,"url":"http:\/\/www.gutenberg.org\/ebooks\/40014","placename":"Tweeddale","snippet":"Far on all sides I had a view of the wide landscape, from therugged high hills of Tweeddale and the upper Clyde to the lowlands inthe west which stretch to Glasgow and the sea.    "},{"title":"John Burnet of Barns: A Romance","author":"Buchan, John","year":null,"url":"http:\/\/www.gutenberg.org\/ebooks\/40014","placename":"Tweeddale","snippet":"With them I travelled over the wilduplands of Eskdale and Ettrick, and with them I now returned to theconfines of Tweeddale.    "},{"title":"John Burnet of Barns: A Romance","author":"Buchan, John","year":null,"url":"http:\/\/www.gutenberg.org\/ebooks\/40014","placename":"Tweeddale","snippet":"She was of the clan of the Baillies, the great gipsies of Tweeddale andClydesdale, offshoots of the house of Lamington, and proud as the devilor John Faa himself.    "},{"title":"John Burnet of Barns: A Romance","author":"Buchan, John","year":null,"url":"http:\/\/www.gutenberg.org\/ebooks\/40014","placename":"Tweeddale","snippet":"And all through these days I lay close hid in the wilds, now in oneplace, now in another, never wandering far from Tweeddale.    "},{"title":"John Burnet of Barns: A Romance","author":"Buchan, John","year":null,"url":"http:\/\/www.gutenberg.org\/ebooks\/40014","placename":"Tweeddale","snippet":"You musttake to the hills, and if you follow my advice you will hold over to thewestlands where your friends are, and so keep the pursuit fromTweeddale, which little deserves it.    "},{"title":"John Burnet of Barns: A Romance","author":"Buchan, John","year":null,"url":"http:\/\/www.gutenberg.org\/ebooks\/40014","placename":"Tweeddale","snippet":"Inall likelihood Gilbert had now returned and resumed the chief command ofthe troop, for otherwise there would have been no meaning in the journeyto Dawyck and lower Tweeddale which these fellows had taken.    "},{"title":"John Burnet of Barns: A Romance","author":"Buchan, John","year":null,"url":"http:\/\/www.gutenberg.org\/ebooks\/40014","placename":"Tweeddale","snippet":"I had given them a clue to mywhereabouts: more, I had brought the hunt down on lower Tweeddale, whichbefore had been left all but unmolested.    "},{"title":"John Burnet of Barns: A Romance","author":"Buchan, John","year":null,"url":"http:\/\/www.gutenberg.org\/ebooks\/40014","placename":"Tweeddale","snippet":"Now the task was hopeless from the commencement, for big though a manbe, and the miller was as broad and high a man as one may see inTweeddale, he has no chance against a mill-race.    "},{"title":"John Burnet of Barns: A Romance","author":"Buchan, John","year":null,"url":"http:\/\/www.gutenberg.org\/ebooks\/40014","placename":"Tweeddale","snippet":"There is a narrowbridle-path which follows the burn, leading from Broughton in Tweeddaleto Abington, so the way was easier walking.    "},{"title":"John Burnet of Barns: A Romance","author":"Buchan, John","year":null,"url":"http:\/\/www.gutenberg.org\/ebooks\/40014","placename":"Tweeddale","snippet":"However, Idreaded this the less, and looked for my troubles mainly after I hadonce entered my own lands in Tweeddale.    "},{"title":"John Burnet of Barns: A Romance","author":"Buchan, John","year":null,"url":"http:\/\/www.gutenberg.org\/ebooks\/40014","placename":"Tweeddale","snippet":"There was nothing for it but to make for the lowerwaters, ford the river above Coulter, and then come to Tweeddale in thelower parts, and thence make my way to the Water of Cor.    "},{"title":"John Burnet of Barns: A Romance","author":"Buchan, John","year":null,"url":"http:\/\/www.gutenberg.org\/ebooks\/40014","placename":"Tweeddale","snippet":"Now I dared not go back to Tweeddale by the way by which I had come, forthe Clyde valley above Abington would be a hunting-ground of dragoonsfor many days.    "},{"title":"John Burnet of Barns: A Romance","author":"Buchan, John","year":null,"url":"http:\/\/www.gutenberg.org\/ebooks\/40014","placename":"Tweeddale","snippet":"I take the only course; give thedragoons the slip, and ride straight to Tweeddale, escort her to a housewhere she will be safe and unknown; and when this is done take to thehills myself with a light heart.    "},{"title":"John Burnet of Barns: A Romance","author":"Buchan, John","year":null,"url":"http:\/\/www.gutenberg.org\/ebooks\/40014","placename":"Tweeddale","snippet":"I was a man of Tweeddale who had travelled and studied andmingled among men.    "},{"title":"John Burnet of Barns: A Romance","author":"Buchan, John","year":null,"url":"http:\/\/www.gutenberg.org\/ebooks\/40014","placename":"Tweeddale","snippet":"Would the Burnets everagain be great gentlemen of Tweeddale, a power in the countryside,having men at their beck and call?    "},{"title":"John Burnet of Barns: A Romance","author":"Buchan, John","year":null,"url":"http:\/\/www.gutenberg.org\/ebooks\/40014","placename":"Tweeddale","snippet":"Had I but known it,this cave was his finding, and half the retreats in Tweeddale andClydesdale were known to him.    "},{"title":"John Burnet of Barns: A Romance","author":"Buchan, John","year":null,"url":"http:\/\/www.gutenberg.org\/ebooks\/40014","placename":"Tweeddale","snippet":"So we fell to discussing manythings--men I had known in Leyden, men I had known in Tweeddale,together with the more momentous question of the future of each of us.    "},{"title":"John Burnet of Barns: A Romance","author":"Buchan, John","year":null,"url":"http:\/\/www.gutenberg.org\/ebooks\/40014","placename":"Tweeddale","snippet":"Forbye, you are a gentleman of Tweeddale, and it wouldbe queer if you werena right-hearted, Master John Burnet.\"    "},{"title":"John Burnet of Barns: A Romance","author":"Buchan, John","year":null,"url":"http:\/\/www.gutenberg.org\/ebooks\/40014","placename":"Tweeddale","snippet":"Is a Tweeddalegentleman no as guid as a bit westland lairdie?\"    "},{"title":"John Burnet of Barns: A Romance","author":"Buchan, John","year":null,"url":"http:\/\/www.gutenberg.org\/ebooks\/40014","placename":"Tweeddale","snippet":"Ihad come home from the Low Countries with a longing for the plaincountry life of Tweeddale, such as I had been bred to.    "},{"title":"John Burnet of Barns: A Romance","author":"Buchan, John","year":null,"url":"http:\/\/www.gutenberg.org\/ebooks\/40014","placename":"Tweeddale","snippet":"\"He would never, gin he had ony sense, gang doun Tweeddale,where there's nae hiding for man or beast.\"    "},{"title":"John Burnet of Barns: A Romance","author":"Buchan, John","year":null,"url":"http:\/\/www.gutenberg.org\/ebooks\/40014","placename":"Tweeddale","snippet":"At the sight of me hestarted, for my danger was known over all Tweeddale.    "},{"title":"John Burnet of Barns: A Romance","author":"Buchan, John","year":null,"url":"http:\/\/www.gutenberg.org\/ebooks\/40014","placename":"Tweeddale","snippet":"They had not recognised me, I knew, for they were not men of ourcountryside; and if left to themselves, would keep the highway toMoffat, and have never a thought of turning aside into Tweeddale.    "},{"title":"John Burnet of Barns: A Romance","author":"Buchan, John","year":null,"url":"http:\/\/www.gutenberg.org\/ebooks\/40014","placename":"Tweeddale","snippet":"I am the Laird of Barns, inTweeddale, and this day an outlaw and a masterless man.    "},{"title":"John Burnet of Barns: A Romance","author":"Buchan, John","year":null,"url":"http:\/\/www.gutenberg.org\/ebooks\/40014","placename":"Tweeddale","snippet":"But such things were notfor me, and soon I was past all, and near the hamlet of Liberton and thehighway to Tweeddale.    "},{"title":"John Burnet of Barns: A Romance","author":"Buchan, John","year":null,"url":"http:\/\/www.gutenberg.org\/ebooks\/40014","placename":"Tweeddale","snippet":"Irushed hotly forward, for at the first glance I had known it for my ownmare Maisie, the best in all Tweeddale.    "},{"title":"John Burnet of Barns: A Romance","author":"Buchan, John","year":null,"url":"http:\/\/www.gutenberg.org\/ebooks\/40014","placename":"Tweeddale","snippet":"Once I were there I might find my way through the backparts of Leith to the country, and borrow a horse and ride to Tweeddale.    "},{"title":"John Burnet of Barns: A Romance","author":"Buchan, John","year":null,"url":"http:\/\/www.gutenberg.org\/ebooks\/40014","placename":"Tweeddale","snippet":"Were I only in Tweeddale I might yet find a way out ofthe trouble.    "},{"title":"John Burnet of Barns: A Romance","author":"Buchan, John","year":null,"url":"http:\/\/www.gutenberg.org\/ebooks\/40014","placename":"Tweeddale","snippet":"'When our Captain cam back frae furrin pairts,' says he, 'he gangs offto Tweeddale, your ain countryside, for it seems there's a lassie therehe's awfu' fond o'.    "},{"title":"John Burnet of Barns: A Romance","author":"Buchan, John","year":null,"url":"http:\/\/www.gutenberg.org\/ebooks\/40014","placename":"Tweeddale","snippet":"The broad twang of the fishermen, theshrill yatter of the fishwives, the look of the black, red-tiled houses,and the spires of the kirks--all was so Scots that it went straight tomy heart, and it was with a cheerful spirit that, followed by myservant, I made for the inn of _The Three Herrings_, where I purposed tosleep the night ere I rode to Tweeddale on the morrow.    "},{"title":"John Burnet of Barns: A Romance","author":"Buchan, John","year":null,"url":"http:\/\/www.gutenberg.org\/ebooks\/40014","placename":"Tweeddale","snippet":"I would soon be in Tweeddale again,and have Scrape and Dollar Law and Caerdon before my eyes, and hear thesing-song of Tweed running through the meadows.    "},{"title":"John Burnet of Barns: A Romance","author":"Buchan, John","year":null,"url":"http:\/\/www.gutenberg.org\/ebooks\/40014","placename":"Tweeddale","snippet":"Thetruth of the matter, I fancy, was that when I left Tweeddale I waslittle more than a boy, with a boy's interests, but that now I had grownto some measure of manhood and serious reflection.    "},{"title":"John Burnet of Barns: A Romance","author":"Buchan, John","year":null,"url":"http:\/\/www.gutenberg.org\/ebooks\/40014","placename":"Tweeddale","snippet":"He was whistling some barsof \"Leezie Lindsay,\" and the tune, which I had often heard in Tweeddale,put me much in mind of home and inclined my heart violently to the placeI had left.    "},{"title":"John Burnet of Barns: A Romance","author":"Buchan, John","year":null,"url":"http:\/\/www.gutenberg.org\/ebooks\/40014","placename":"Tweeddale","snippet":"Ilearned too of other lands where he had been and wars which he hadfought; and many tales which I have often told at home in Tweeddale Ifirst heard from his lips.    "},{"title":"John Burnet of Barns: A Romance","author":"Buchan, John","year":null,"url":"http:\/\/www.gutenberg.org\/ebooks\/40014","placename":"Tweeddale","snippet":"It mindedme so keenly of the mornings at home in Tweeddale, when I was used torise before daylight and go far up Tweed with my rod, and bring back, ifmy luck were good, great baskets of trout.    "},{"title":"John Burnet of Barns: A Romance","author":"Buchan, John","year":null,"url":"http:\/\/www.gutenberg.org\/ebooks\/40014","placename":"Tweeddale","snippet":"But Iwas ever of a curious disposition, liking to be always in mind ofTweeddale and the folk there, so that I kept the Sabbath during my lifeabroad as strictly as a covenanting minister on the moors of Ayr.    "},{"title":"John Burnet of Barns: A Romance","author":"Buchan, John","year":null,"url":"http:\/\/www.gutenberg.org\/ebooks\/40014","placename":"Tweeddale","snippet":"\"And how goes all in Tweeddale, my dear cousin?\" said he.    "},{"title":"John Burnet of Barns: A Romance","author":"Buchan, John","year":null,"url":"http:\/\/www.gutenberg.org\/ebooks\/40014","placename":"Tweeddale","snippet":"I answered shortly and with no great cordiality, for I still rememberedthe doings in Tweeddale, and my heart was still sore in the matter of myfather's death.    "},{"title":"John Burnet of Barns: A Romance","author":"Buchan, John","year":null,"url":"http:\/\/www.gutenberg.org\/ebooks\/40014","placename":"Tweeddale","snippet":"One thing I noted--that the air was somewhat soft and damp, lacking, tomy mind, the acrid strength of the air of Tweeddale, or even of theLothians.    "},{"title":"John Burnet of Barns: A Romance","author":"Buchan, John","year":null,"url":"http:\/\/www.gutenberg.org\/ebooks\/40014","placename":"Tweeddale","snippet":"\"Nicol,\" I groaned, \"if I never gee home again, I look to you to tellthe folk in Tweeddale.    "},{"title":"John Burnet of Barns: A Romance","author":"Buchan, John","year":null,"url":"http:\/\/www.gutenberg.org\/ebooks\/40014","placename":"Tweeddale","snippet":"I scarce delayed inEddleston, but pushed on up the valley, expecting to get dinner at theinn at Leadburn, which stands at the watershed, just where the county ofEdinburgh touches our shire of Tweeddale.    "},{"title":"John Burnet of Barns: A Romance","author":"Buchan, John","year":null,"url":"http:\/\/www.gutenberg.org\/ebooks\/40014","placename":"Tweeddale","snippet":"I was to ride Maisieas far as Leith, where I was to leave her with a man at theHarbour-Walk, who would send her back to Tweeddale; for I knew it wouldbe a hard thing to get passage for a horse in the small ships whichsailed between our land and the Low Countries at that time of year.    "},{"title":"John Burnet of Barns: A Romance","author":"Buchan, John","year":null,"url":"http:\/\/www.gutenberg.org\/ebooks\/40014","placename":"Tweeddale","snippet":"I would rather be a shepherd in Tweeddale than a noblein Spain.\"    "},{"title":"John Burnet of Barns: A Romance","author":"Buchan, John","year":null,"url":"http:\/\/www.gutenberg.org\/ebooks\/40014","placename":"Tweeddale","snippet":"\"I trust you may not learn in those far-away places to look down onTweeddale and the simple folks here.    "},{"title":"John Burnet of Barns: A Romance","author":"Buchan, John","year":null,"url":"http:\/\/www.gutenberg.org\/ebooks\/40014","placename":"Tweeddale","snippet":"\"I am vexed that you are going away,\" and she looked at me sadly; \"itwill be lonely in Tweeddale without you.\"    "},{"title":"John Burnet of Barns: A Romance","author":"Buchan, John","year":null,"url":"http:\/\/www.gutenberg.org\/ebooks\/40014","placename":"Tweeddale","snippet":"There's no mony Whigs in Tweeddale.    "},{"title":"John Burnet of Barns: A Romance","author":"Buchan, John","year":null,"url":"http:\/\/www.gutenberg.org\/ebooks\/40014","placename":"Tweeddale","snippet":"\"Ay, Marjory,\" I answered, \"I have come back to Tweeddale, for I havehad enough of Glasgow College and books, and I was wearying for thehills and Tweed and a sight of your face.    "},{"title":"John Burnet of Barns: A Romance","author":"Buchan, John","year":null,"url":"http:\/\/www.gutenberg.org\/ebooks\/40014","placename":"Tweeddale","snippet":"I cried aloud with delight, for nowI knew that no horse in Tweeddale could hope to match him when the moodwas on him.    "},{"title":"John Burnet of Barns: A Romance","author":"Buchan, John","year":null,"url":"http:\/\/www.gutenberg.org\/ebooks\/40014","placename":"Tweeddale","snippet":"At the top of the knowe above Symington I halted, for therebefore my eyes were the blue hills of Tweeddale.    "},{"title":"John Burnet of Barns: A Romance","author":"Buchan, John","year":null,"url":"http:\/\/www.gutenberg.org\/ebooks\/40014","placename":"Tweeddale","snippet":"I cried good-day to everyman, and flung money to the little children who shouted as I passed, sothat I believe if there had been many more boys on the road I would havereached Tweeddale a beggar.    "},{"title":"John Burnet of Barns: A Romance","author":"Buchan, John","year":null,"url":"http:\/\/www.gutenberg.org\/ebooks\/40014","placename":"Tweeddale","snippet":"In the midsummer months I went down to Tweeddale again, where Iastonished my father and all in the place with my new learning, and alsogrieved them.    "},{"title":"John Burnet of Barns: A Romance","author":"Buchan, John","year":null,"url":"http:\/\/www.gutenberg.org\/ebooks\/40014","placename":"Tweeddale","snippet":"As for myself, I was nothingloth to go, and see places beyond Tweeddale and add to my stock oflearning; for about this time a great enthusiasm for letters had seizedme (which I suppose happens at some time or other to most men), and Iconceived my proper vocation in life to be that of the scholar.    "},{"title":"John Burnet of Barns: A Romance","author":"Buchan, John","year":null,"url":"http:\/\/www.gutenberg.org\/ebooks\/40014","placename":"Tweeddale","snippet":"Here inTweeddale life runs easily and calm.    "},{"title":"John Burnet of Barns: A Romance","author":"Buchan, John","year":null,"url":"http:\/\/www.gutenberg.org\/ebooks\/40014","placename":"Tweeddale","snippet":"Nor did I neglect those in Tweeddale, for I sent news by near every postthat went to the North.    "},{"title":"John Burnet of Barns: A Romance","author":"Buchan, John","year":null,"url":"http:\/\/www.gutenberg.org\/ebooks\/40014","placename":"Tweeddale","snippet":"Then, when I would have returned toTweeddale, I received a post from my good kinsman, Dr. Gilbert Burnet,which led me first to Edinburgh and then so far afield as London itself.    "},{"title":"John Burnet of Barns: A Romance","author":"Buchan, John","year":null,"url":"http:\/\/www.gutenberg.org\/ebooks\/40014","placename":"Tweeddale","snippet":"ButI had been brought up to this very trick, for in the old days inTweeddale, Tam Todd would have taken his stand near the Tweed andstriven to force me back into the great pool.    "},{"title":"John Burnet of Barns: A Romance","author":"Buchan, John","year":null,"url":"http:\/\/www.gutenberg.org\/ebooks\/40014","placename":"Tweeddale","snippet":"\"Marjory Veitch isno more in this house; with the escort of my servant she is on her roadto Tweeddale.    "},{"title":"John Burnet of Barns: A Romance","author":"Buchan, John","year":null,"url":"http:\/\/www.gutenberg.org\/ebooks\/40014","placename":"Tweeddale","snippet":"By to-morrow you will be in Tweeddale, andin a very little while I will come to you.\"    "},{"title":"John Burnet of Barns: A Romance","author":"Buchan, John","year":null,"url":"http:\/\/www.gutenberg.org\/ebooks\/40014","placename":"Tweeddale","snippet":"\"If so happen we get Mistress Marjory safe,\" saidI, \"you will ride off with her without delay, down the valley to theClyde and then straight towards Tweeddale.    "},{"title":"John Burnet of Barns: A Romance","author":"Buchan, John","year":null,"url":"http:\/\/www.gutenberg.org\/ebooks\/40014","placename":"Tweeddale","snippet":"There was an inn there which I remembered of old time,for the innkeeper had come originally from Tweeddale.    "},{"title":"John Burnet of Barns: A Romance","author":"Buchan, John","year":null,"url":"http:\/\/www.gutenberg.org\/ebooks\/40014","placename":"Tweeddale","snippet":"You shall takethe lady home to Tweeddale, to Dawyck, which is her own, and leave mebehind you.    "},{"title":"John Burnet of Barns: A Romance","author":"Buchan, John","year":null,"url":"http:\/\/www.gutenberg.org\/ebooks\/40014","placename":"Tweeddale","snippet":"When he got noword Marjory was in sic a terror that nothing would suffice her but thathe maun off to Tweeddale and seek every heather-buss for word of ye.    "},{"title":"John Burnet of Barns: A Romance","author":"Buchan, John","year":null,"url":"http:\/\/www.gutenberg.org\/ebooks\/40014","placename":"Tweeddale","snippet":"Far on all sides I had a view of the wide landscape, from therugged high hills of Tweeddale and the upper Clyde to the lowlands inthe west which stretch to Glasgow and the sea.    "},{"title":"John Burnet of Barns: A Romance","author":"Buchan, John","year":null,"url":"http:\/\/www.gutenberg.org\/ebooks\/40014","placename":"Tweeddale","snippet":"With them I travelled over the wilduplands of Eskdale and Ettrick, and with them I now returned to theconfines of Tweeddale.    "},{"title":"John Burnet of Barns: A Romance","author":"Buchan, John","year":null,"url":"http:\/\/www.gutenberg.org\/ebooks\/40014","placename":"Tweeddale","snippet":"She was of the clan of the Baillies, the great gipsies of Tweeddale andClydesdale, offshoots of the house of Lamington, and proud as the devilor John Faa himself.    "},{"title":"John Burnet of Barns: A Romance","author":"Buchan, John","year":null,"url":"http:\/\/www.gutenberg.org\/ebooks\/40014","placename":"Tweeddale","snippet":"And all through these days I lay close hid in the wilds, now in oneplace, now in another, never wandering far from Tweeddale.    "},{"title":"John Burnet of Barns: A Romance","author":"Buchan, John","year":null,"url":"http:\/\/www.gutenberg.org\/ebooks\/40014","placename":"Tweeddale","snippet":"You musttake to the hills, and if you follow my advice you will hold over to thewestlands where your friends are, and so keep the pursuit fromTweeddale, which little deserves it.    "},{"title":"John Burnet of Barns: A Romance","author":"Buchan, John","year":null,"url":"http:\/\/www.gutenberg.org\/ebooks\/40014","placename":"Tweeddale","snippet":"Inall likelihood Gilbert had now returned and resumed the chief command ofthe troop, for otherwise there would have been no meaning in the journeyto Dawyck and lower Tweeddale which these fellows had taken.    "},{"title":"John Burnet of Barns: A Romance","author":"Buchan, John","year":null,"url":"http:\/\/www.gutenberg.org\/ebooks\/40014","placename":"Tweeddale","snippet":"I had given them a clue to mywhereabouts: more, I had brought the hunt down on lower Tweeddale, whichbefore had been left all but unmolested.    "},{"title":"John Burnet of Barns: A Romance","author":"Buchan, John","year":null,"url":"http:\/\/www.gutenberg.org\/ebooks\/40014","placename":"Tweeddale","snippet":"Now the task was hopeless from the commencement, for big though a manbe, and the miller was as broad and high a man as one may see inTweeddale, he has no chance against a mill-race.    "},{"title":"John Burnet of Barns: A Romance","author":"Buchan, John","year":null,"url":"http:\/\/www.gutenberg.org\/ebooks\/40014","placename":"Tweeddale","snippet":"There is a narrowbridle-path which follows the burn, leading from Broughton in Tweeddaleto Abington, so the way was easier walking.    "},{"title":"John Burnet of Barns: A Romance","author":"Buchan, John","year":null,"url":"http:\/\/www.gutenberg.org\/ebooks\/40014","placename":"Tweeddale","snippet":"However, Idreaded this the less, and looked for my troubles mainly after I hadonce entered my own lands in Tweeddale.    "},{"title":"John Burnet of Barns: A Romance","author":"Buchan, John","year":null,"url":"http:\/\/www.gutenberg.org\/ebooks\/40014","placename":"Tweeddale","snippet":"There was nothing for it but to make for the lowerwaters, ford the river above Coulter, and then come to Tweeddale in thelower parts, and thence make my way to the Water of Cor.    "},{"title":"John Burnet of Barns: A Romance","author":"Buchan, John","year":null,"url":"http:\/\/www.gutenberg.org\/ebooks\/40014","placename":"Tweeddale","snippet":"Now I dared not go back to Tweeddale by the way by which I had come, forthe Clyde valley above Abington would be a hunting-ground of dragoonsfor many days.    "},{"title":"John Burnet of Barns: A Romance","author":"Buchan, John","year":null,"url":"http:\/\/www.gutenberg.org\/ebooks\/40014","placename":"Tweeddale","snippet":"I take the only course; give thedragoons the slip, and ride straight to Tweeddale, escort her to a housewhere she will be safe and unknown; and when this is done take to thehills myself with a light heart.    "},{"title":"John Burnet of Barns: A Romance","author":"Buchan, John","year":null,"url":"http:\/\/www.gutenberg.org\/ebooks\/40014","placename":"Tweeddale","snippet":"I was a man of Tweeddale who had travelled and studied andmingled among men.    "},{"title":"John Burnet of Barns: A Romance","author":"Buchan, John","year":null,"url":"http:\/\/www.gutenberg.org\/ebooks\/40014","placename":"Tweeddale","snippet":"Would the Burnets everagain be great gentlemen of Tweeddale, a power in the countryside,having men at their beck and call?    "},{"title":"John Burnet of Barns: A Romance","author":"Buchan, John","year":null,"url":"http:\/\/www.gutenberg.org\/ebooks\/40014","placename":"Tweeddale","snippet":"Had I but known it,this cave was his finding, and half the retreats in Tweeddale andClydesdale were known to him.    "},{"title":"John Burnet of Barns: A Romance","author":"Buchan, John","year":null,"url":"http:\/\/www.gutenberg.org\/ebooks\/40014","placename":"Tweeddale","snippet":"So we fell to discussing many things\u2014menI had known in Leyden, men I had known in Tweeddale, together with themore momentous question of the future of each of us.    "},{"title":"John Burnet of Barns: A Romance","author":"Buchan, John","year":null,"url":"http:\/\/www.gutenberg.org\/ebooks\/40014","placename":"Tweeddale","snippet":"Forbye, you are a gentleman of Tweeddale, and it wouldbe queer if you werena right-hearted, Master John Burnet.\"    "},{"title":"John Burnet of Barns: A Romance","author":"Buchan, John","year":null,"url":"http:\/\/www.gutenberg.org\/ebooks\/40014","placename":"Tweeddale","snippet":"Is a Tweeddalegentleman no as guid as a bit westland lairdie?\"    "},{"title":"John Burnet of Barns: A Romance","author":"Buchan, John","year":null,"url":"http:\/\/www.gutenberg.org\/ebooks\/40014","placename":"Tweeddale","snippet":"Ihad come home from the Low Countries with a longing for the plaincountry life of Tweeddale, such as I had been bred to.    "},{"title":"John Burnet of Barns: A Romance","author":"Buchan, John","year":null,"url":"http:\/\/www.gutenberg.org\/ebooks\/40014","placename":"Tweeddale","snippet":"\"He would never, gin he had ony sense, gang doun Tweeddale,where there's nae hiding for man or beast.\"    "},{"title":"John Burnet of Barns: A Romance","author":"Buchan, John","year":null,"url":"http:\/\/www.gutenberg.org\/ebooks\/40014","placename":"Tweeddale","snippet":"At the sight of me hestarted, for my danger was known over all Tweeddale.    "},{"title":"John Burnet of Barns: A Romance","author":"Buchan, John","year":null,"url":"http:\/\/www.gutenberg.org\/ebooks\/40014","placename":"Tweeddale","snippet":"They had not recognised me, I knew, for they were not men of ourcountryside; and if left to themselves, would keep the highway toMoffat, and have never a thought of turning aside into Tweeddale.    "},{"title":"John Burnet of Barns: A Romance","author":"Buchan, John","year":null,"url":"http:\/\/www.gutenberg.org\/ebooks\/40014","placename":"Tweeddale","snippet":"I am the Laird of Barns, inTweeddale, and this day an outlaw and a masterless man.    "},{"title":"John Burnet of Barns: A Romance","author":"Buchan, John","year":null,"url":"http:\/\/www.gutenberg.org\/ebooks\/40014","placename":"Tweeddale","snippet":"But such things were notfor me, and soon I was past all, and near the hamlet of Liberton and thehighway to Tweeddale.    "},{"title":"John Burnet of Barns: A Romance","author":"Buchan, John","year":null,"url":"http:\/\/www.gutenberg.org\/ebooks\/40014","placename":"Tweeddale","snippet":"Irushed hotly forward, for at the first glance I had known it for my ownmare Maisie, the best in all Tweeddale.    "},{"title":"John Burnet of Barns: A Romance","author":"Buchan, John","year":null,"url":"http:\/\/www.gutenberg.org\/ebooks\/40014","placename":"Tweeddale","snippet":"Once I were there I might find my way through the backparts of Leith to the country, and borrow a horse and ride to Tweeddale.    "},{"title":"John Burnet of Barns: A Romance","author":"Buchan, John","year":null,"url":"http:\/\/www.gutenberg.org\/ebooks\/40014","placename":"Tweeddale","snippet":"Were I only in Tweeddale I might yet find a way out ofthe trouble.    "},{"title":"John Burnet of Barns: A Romance","author":"Buchan, John","year":null,"url":"http:\/\/www.gutenberg.org\/ebooks\/40014","placename":"Tweeddale","snippet":"'When our Captain cam back frae furrin pairts,' says he, 'he gangs offto Tweeddale, your ain countryside, for it seems there's a lassie therehe's awfu' fond o'.    "},{"title":"John Burnet of Barns: A Romance","author":"Buchan, John","year":null,"url":"http:\/\/www.gutenberg.org\/ebooks\/40014","placename":"Tweeddale","snippet":"The broad twang of the fishermen, theshrill yatter of the fishwives, the look of the black, red-tiled houses,and the spires of the kirks\u2014all was so Scots that it went straight to myheart, and it was with a cheerful spirit that, followed by my servant, Imade for the inn of _The Three Herrings_, where I purposed to sleep thenight ere I rode to Tweeddale on the morrow.    "},{"title":"John Burnet of Barns: A Romance","author":"Buchan, John","year":null,"url":"http:\/\/www.gutenberg.org\/ebooks\/40014","placename":"Tweeddale","snippet":"I would soon be in Tweeddale again,and have Scrape and Dollar Law and Caerdon before my eyes, and hear thesing-song of Tweed running through the meadows.    "},{"title":"John Burnet of Barns: A Romance","author":"Buchan, John","year":null,"url":"http:\/\/www.gutenberg.org\/ebooks\/40014","placename":"Tweeddale","snippet":"Thetruth of the matter, I fancy, was that when I left Tweeddale I waslittle more than a boy, with a boy's interests, but that now I had grownto some measure of manhood and serious reflection.    "},{"title":"John Burnet of Barns: A Romance","author":"Buchan, John","year":null,"url":"http:\/\/www.gutenberg.org\/ebooks\/40014","placename":"Tweeddale","snippet":"He was whistling some barsof \"Leezie Lindsay,\" and the tune, which I had often heard in Tweeddale,put me much in mind of home and inclined my heart violently to the placeI had left.    "},{"title":"John Burnet of Barns: A Romance","author":"Buchan, John","year":null,"url":"http:\/\/www.gutenberg.org\/ebooks\/40014","placename":"Tweeddale","snippet":"Ilearned too of other lands where he had been and wars which he hadfought; and many tales which I have often told at home in Tweeddale Ifirst heard from his lips.    "},{"title":"John Burnet of Barns: A Romance","author":"Buchan, John","year":null,"url":"http:\/\/www.gutenberg.org\/ebooks\/40014","placename":"Tweeddale","snippet":"It mindedme so keenly of the mornings at home in Tweeddale, when I was used torise before daylight and go far up Tweed with my rod, and bring back, ifmy luck were good, great baskets of trout.    "},{"title":"John Burnet of Barns: A Romance","author":"Buchan, John","year":null,"url":"http:\/\/www.gutenberg.org\/ebooks\/40014","placename":"Tweeddale","snippet":"But Iwas ever of a curious disposition, liking to be always in mind ofTweeddale and the folk there, so that I kept the Sabbath during my lifeabroad as strictly as a covenanting minister on the moors of Ayr.    "},{"title":"John Burnet of Barns: A Romance","author":"Buchan, John","year":null,"url":"http:\/\/www.gutenberg.org\/ebooks\/40014","placename":"Tweeddale","snippet":"\"And how goes all in Tweeddale, my dear cousin?\" said he.    "},{"title":"John Burnet of Barns: A Romance","author":"Buchan, John","year":null,"url":"http:\/\/www.gutenberg.org\/ebooks\/40014","placename":"Tweeddale","snippet":"I answered shortly and with no great cordiality, for I still rememberedthe doings in Tweeddale, and my heart was still sore in the matter of myfather's death.    "},{"title":"John Burnet of Barns: A Romance","author":"Buchan, John","year":null,"url":"http:\/\/www.gutenberg.org\/ebooks\/40014","placename":"Tweeddale","snippet":"One thing I noted\u2014that the air was somewhat soft and damp, lacking, tomy mind, the acrid strength of the air of Tweeddale, or even of theLothians.    "},{"title":"John Burnet of Barns: A Romance","author":"Buchan, John","year":null,"url":"http:\/\/www.gutenberg.org\/ebooks\/40014","placename":"Tweeddale","snippet":"\"Nicol,\" I groaned, \"if I never gee home again, I look to you to tellthe folk in Tweeddale.    "},{"title":"John Burnet of Barns: A Romance","author":"Buchan, John","year":null,"url":"http:\/\/www.gutenberg.org\/ebooks\/40014","placename":"Tweeddale","snippet":"I scarce delayed inEddleston, but pushed on up the valley, expecting to get dinner at theinn at Leadburn, which stands at the watershed, just where the county ofEdinburgh touches our shire of Tweeddale.    "},{"title":"John Burnet of Barns: A Romance","author":"Buchan, John","year":null,"url":"http:\/\/www.gutenberg.org\/ebooks\/40014","placename":"Tweeddale","snippet":"I was to ride Maisieas far as Leith, where I was to leave her with a man at theHarbour-Walk, who would send her back to Tweeddale; for I knew it wouldbe a hard thing to get passage for a horse in the small ships whichsailed between our land and the Low Countries at that time of year.    "},{"title":"John Burnet of Barns: A Romance","author":"Buchan, John","year":null,"url":"http:\/\/www.gutenberg.org\/ebooks\/40014","placename":"Tweeddale","snippet":"I would rather be a shepherd in Tweeddale than a noblein Spain.\"    "},{"title":"John Burnet of Barns: A Romance","author":"Buchan, John","year":null,"url":"http:\/\/www.gutenberg.org\/ebooks\/40014","placename":"Tweeddale","snippet":"\"I trust you may not learn in those far-away places to look down onTweeddale and the simple folks here.    "},{"title":"John Burnet of Barns: A Romance","author":"Buchan, John","year":null,"url":"http:\/\/www.gutenberg.org\/ebooks\/40014","placename":"Tweeddale","snippet":"\"I am vexed that you are going away,\" and she looked at me sadly; \"itwill be lonely in Tweeddale without you.\"    "},{"title":"John Burnet of Barns: A Romance","author":"Buchan, John","year":null,"url":"http:\/\/www.gutenberg.org\/ebooks\/40014","placename":"Tweeddale","snippet":"There's no mony Whigs in Tweeddale.    "},{"title":"John Burnet of Barns: A Romance","author":"Buchan, John","year":null,"url":"http:\/\/www.gutenberg.org\/ebooks\/40014","placename":"Tweeddale","snippet":"\"Ay, Marjory,\" I answered, \"I have come back to Tweeddale, for I havehad enough of Glasgow College and books, and I was wearying for thehills and Tweed and a sight of your face.    "},{"title":"John Burnet of Barns: A Romance","author":"Buchan, John","year":null,"url":"http:\/\/www.gutenberg.org\/ebooks\/40014","placename":"Tweeddale","snippet":"I cried aloud with delight, for nowI knew that no horse in Tweeddale could hope to match him when the moodwas on him.    "},{"title":"John Burnet of Barns: A Romance","author":"Buchan, John","year":null,"url":"http:\/\/www.gutenberg.org\/ebooks\/40014","placename":"Tweeddale","snippet":"At the top of the knowe above Symington I halted, for therebefore my eyes were the blue hills of Tweeddale.    "},{"title":"John Burnet of Barns: A Romance","author":"Buchan, John","year":null,"url":"http:\/\/www.gutenberg.org\/ebooks\/40014","placename":"Tweeddale","snippet":"I cried good-day to everyman, and flung money to the little children who shouted as I passed, sothat I believe if there had been many more boys on the road I would havereached Tweeddale a beggar.    "},{"title":"John Burnet of Barns: A Romance","author":"Buchan, John","year":null,"url":"http:\/\/www.gutenberg.org\/ebooks\/40014","placename":"Tweeddale","snippet":"In the midsummer months I went down to Tweeddale again, where Iastonished my father and all in the place with my new learning, and alsogrieved them.    "},{"title":"John Burnet of Barns: A Romance","author":"Buchan, John","year":null,"url":"http:\/\/www.gutenberg.org\/ebooks\/40014","placename":"Tweeddale","snippet":"As for myself, I was nothingloth to go, and see places beyond Tweeddale and add to my stock oflearning; for about this time a great enthusiasm for letters had seizedme (which I suppose happens at some time or other to most men), and Iconceived my proper vocation in life to be that of the scholar.    "},{"title":"Spare Hours","author":"Brown, John","year":null,"url":"http:\/\/www.gutenberg.org\/ebooks\/27153","placename":"Tweeddale","snippet":"We were in a moorlanddistrict in Tweeddale, rejoicing in the country, after nine months ofthe High School.    "},{"title":"Spare Hours","author":"Brown, John","year":null,"url":"http:\/\/www.gutenberg.org\/ebooks\/27153","placename":"Tweeddale","snippet":"He was known all over the Upper Ward and down Tweeddale for his riding.    "},{"title":"Spare Hours","author":"Brown, John","year":null,"url":"http:\/\/www.gutenberg.org\/ebooks\/27153","placename":"Tweeddale","snippet":"Dr. Reid of Peebles, long famous in the end oflast and beginning of this century, as the Doctor of Tweeddale; a man ofgreat force of character, and a true Philip, a lover of horses, saw oneFair day a black horse, entire, thoroughbred.    "},{"title":"Spare Hours","author":"Brown, John","year":null,"url":"http:\/\/www.gutenberg.org\/ebooks\/27153","placename":"Tweeddale","snippet":"We were in a moorlanddistrict in Tweeddale, rejoicing in the country, after nine months ofthe High School.    "},{"title":"Spare Hours","author":"Brown, John","year":null,"url":"http:\/\/www.gutenberg.org\/ebooks\/27153","placename":"Tweeddale","snippet":"He was known all over the Upper Ward and down Tweeddale for his riding.    "},{"title":"Spare Hours","author":"Brown, John","year":null,"url":"http:\/\/www.gutenberg.org\/ebooks\/27153","placename":"Tweeddale","snippet":"Dr. Reid of Peebles, long famous in the end oflast and beginning of this century, as the Doctor of Tweeddale; a man ofgreat force of character, and a true Philip, a lover of horses, saw oneFair day a black horse, entire, thoroughbred.    "},{"title":"Some friends of mine,","author":"Lucas, E. V.","year":null,"url":"http:\/\/babel.hathitrust.org\/cgi\/pt?id=uc2.ark:\/13960\/t29889q9d","placename":"Tweeddale","snippet":"He was known all over the Upper Ward and down Tweeddale for his riding.    "},{"title":"Miscellaneous Prose Works of Sir Walter Scott, Bart","author":"Scott, Walter","year":"1847-01-01","url":"https:\/\/historicaltexts.jisc.ac.uk\/bl-003316905-03","placename":"Tweeddale","snippet":"The Duke was therefore uncertainhow to decide, when the Earls of Lothian anelTweeddale came to demand a surreneder in thename of the Convention; and he at first offered tocomply, on obtaining indemnity for himself and hisfriends.    "}]