[{"title":"The Letters of Robert Louis Stevenson - Volume 1","author":"Stevenson, Robert Louis","year":null,"url":"http:\/\/www.gutenberg.org\/ebooks\/622","placename":"Stobo","snippet":"We should all be overjoyed - though Stobo it could not be, as it is but a kirk and manse, but possibly somewhere within reach.    "},{"title":"The Letters of Robert Louis Stevenson - Volume 1","author":"Stevenson, Robert Louis","year":null,"url":"http:\/\/www.gutenberg.org\/ebooks\/622","placename":"Stobo","snippet":"As Gallic Kids complain of 'Bobo,'I mourn for your mistake of Stobo.    "},{"title":"The Letters of Robert Louis Stevenson - Volume 1","author":"Stevenson, Robert Louis","year":null,"url":"http:\/\/www.gutenberg.org\/ebooks\/622","placename":"Stobo","snippet":"I would shoot you, but I have no bow:The place is not called Stobs, but Stobo.    "},{"title":"The Letters of Robert Louis Stevenson - Volume 1","author":"Stevenson, Robert Louis","year":null,"url":"http:\/\/www.gutenberg.org\/ebooks\/622","placename":"Stobo","snippet":"From Stobo you can conquer Peebles and Selkirk, or to give them their old decent names, Tweeddale and Ettrick.    "},{"title":"The Letters of Robert Louis Stevenson - Volume 1","author":"Stevenson, Robert Louis","year":null,"url":"http:\/\/www.gutenberg.org\/ebooks\/622","placename":"Stobo","snippet":"I shall write again about the opuscule; and about Stobo, which I have not seen since I was thirteen, though my memory speaks delightfully of it.    "},{"title":"The Works of Robert Louis Stevenson - Swanston Edition, Vol. 23","author":"Stevenson, Robert Louis","year":null,"url":"http:\/\/www.gutenberg.org\/ebooks\/30894","placename":"Stobo","snippet":"We should all beoverjoyed--though Stobo it could not be, as it is but a kirk and manse,but possibly somewhere within reach.    "},{"title":"The Works of Robert Louis Stevenson - Swanston Edition, Vol. 23","author":"Stevenson, Robert Louis","year":null,"url":"http:\/\/www.gutenberg.org\/ebooks\/30894","placename":"Stobo","snippet":"As Gallic Kids complain of \"Bobo,\"  I mourn for your mistake of Stobo.    "},{"title":"The Works of Robert Louis Stevenson - Swanston Edition, Vol. 23","author":"Stevenson, Robert Louis","year":null,"url":"http:\/\/www.gutenberg.org\/ebooks\/30894","placename":"Stobo","snippet":"I would shoot you, but I have no bow:  The place is not called Stobs, but Stobo.    "},{"title":"The Works of Robert Louis Stevenson - Swanston Edition, Vol. 23","author":"Stevenson, Robert Louis","year":null,"url":"http:\/\/www.gutenberg.org\/ebooks\/30894","placename":"Stobo","snippet":"From Stobo you can conquer Peebles and Selkirk, or to give them theirold decent names, Tweeddale and Ettrick.    "},{"title":"The Works of Robert Louis Stevenson - Swanston Edition, Vol. 23","author":"Stevenson, Robert Louis","year":null,"url":"http:\/\/www.gutenberg.org\/ebooks\/30894","placename":"Stobo","snippet":"I shall write again about the opuscule; and about Stobo,which I have not seen since I was thirteen, though my memory speaksdelightfully of it.    "},{"title":"The Works of Robert Louis Stevenson - Swanston Edition, Vol. 23","author":"Stevenson, Robert Louis","year":null,"url":"http:\/\/www.gutenberg.org\/ebooks\/30894","placename":"Stobo","snippet":"Before going to Stobo he made a short   excursion with his father to Lochearnhead; and later spent some three   weeks with me at Kingussie, but from neither place wrote any letters   worth preserving.    "},{"title":"The Works of Robert Louis Stevenson - Swanston Edition, Vol. 23","author":"Stevenson, Robert Louis","year":null,"url":"http:\/\/www.gutenberg.org\/ebooks\/30894","placename":"Stobo","snippet":"The few remaining letters of this period are dated from Edinburgh and   from Stobo Manse, near Peebles.    "},{"title":"The Works of Robert Louis Stevenson - Swanston Edition, Vol. 23","author":"Stevenson, Robert Louis","year":null,"url":"http:\/\/www.gutenberg.org\/ebooks\/30894","placename":"Stobo","snippet":"At Stobo the dampness of theseason and the place quickly threw him again into a very low state ofhealth, from which three subsequent weeks of brilliant sunshine inSpeyside did but little to restore him.    "},{"title":"The Works of Robert Louis Stevenson - Swanston Edition, Vol. 23","author":"Stevenson, Robert Louis","year":null,"url":"http:\/\/www.gutenberg.org\/ebooks\/30894","placename":"Stobo","snippet":"We should all beoverjoyed--though Stobo it could not be, as it is but a kirk and manse,but possibly somewhere within reach.    "},{"title":"The Works of Robert Louis Stevenson - Swanston Edition, Vol. 23","author":"Stevenson, Robert Louis","year":null,"url":"http:\/\/www.gutenberg.org\/ebooks\/30894","placename":"Stobo","snippet":"As Gallic Kids complain of \"Bobo,\"  I mourn for your mistake of Stobo.    "},{"title":"The Works of Robert Louis Stevenson - Swanston Edition, Vol. 23","author":"Stevenson, Robert Louis","year":null,"url":"http:\/\/www.gutenberg.org\/ebooks\/30894","placename":"Stobo","snippet":"I would shoot you, but I have no bow:  The place is not called Stobs, but Stobo.    "},{"title":"The Works of Robert Louis Stevenson - Swanston Edition, Vol. 23","author":"Stevenson, Robert Louis","year":null,"url":"http:\/\/www.gutenberg.org\/ebooks\/30894","placename":"Stobo","snippet":"From Stobo you can conquer Peebles and Selkirk, or to give them theirold decent names, Tweeddale and Ettrick.    "},{"title":"The Works of Robert Louis Stevenson - Swanston Edition, Vol. 23","author":"Stevenson, Robert Louis","year":null,"url":"http:\/\/www.gutenberg.org\/ebooks\/30894","placename":"Stobo","snippet":"I shall write again about the opuscule; and about Stobo,which I have not seen since I was thirteen, though my memory speaksdelightfully of it.    "},{"title":"The Works of Robert Louis Stevenson - Swanston Edition, Vol. 23","author":"Stevenson, Robert Louis","year":null,"url":"http:\/\/www.gutenberg.org\/ebooks\/30894","placename":"Stobo","snippet":"Before going to Stobo he made a short   excursion with his father to Lochearnhead; and later spent some three   weeks with me at Kingussie, but from neither place wrote any letters   worth preserving.    "},{"title":"The Works of Robert Louis Stevenson - Swanston Edition, Vol. 23","author":"Stevenson, Robert Louis","year":null,"url":"http:\/\/www.gutenberg.org\/ebooks\/30894","placename":"Stobo","snippet":"The few remaining letters of this period are dated from Edinburgh and   from Stobo Manse, near Peebles.    "},{"title":"The Works of Robert Louis Stevenson - Swanston Edition, Vol. 23","author":"Stevenson, Robert Louis","year":null,"url":"http:\/\/www.gutenberg.org\/ebooks\/30894","placename":"Stobo","snippet":"At Stobo the dampness of theseason and the place quickly threw him again into a very low state ofhealth, from which three subsequent weeks of brilliant sunshine inSpeyside did but little to restore him.    "},{"title":"The Black Dwarf","author":"Scott, Walter","year":null,"url":"http:\/\/www.gutenberg.org\/ebooks\/1460","placename":"Stobo","snippet":"He wasthe son of a labourer in the slate-quarries of Stobo, and must havebeen born in the misshapen form which he exhibited, though he sometimesimputed it to ill-usage when in infancy.    "},{"title":"John Burnet of Barns: A Romance","author":"Buchan, John","year":null,"url":"http:\/\/www.gutenberg.org\/ebooks\/40014","placename":"Stobo","snippet":"In the wide reaches of waterin Stobo Haughs I have cut down much of the encumbering brushwood andthus laid the places open for fishing with the rod.    "},{"title":"John Burnet of Barns: A Romance","author":"Buchan, John","year":null,"url":"http:\/\/www.gutenberg.org\/ebooks\/40014","placename":"Stobo","snippet":"I crossed Lyne abune theBrig, and came doun Stobo burn, and here I am.    "},{"title":"John Burnet of Barns: A Romance","author":"Buchan, John","year":null,"url":"http:\/\/www.gutenberg.org\/ebooks\/40014","placename":"Stobo","snippet":"I struck straight for the ridge of Dreva, androunding it, faced the long valley of Tweed, with Rachan woods andDrummelzier haughs and the level lands of Stobo.    "},{"title":"John Burnet of Barns: A Romance","author":"Buchan, John","year":null,"url":"http:\/\/www.gutenberg.org\/ebooks\/40014","placename":"Stobo","snippet":"In the place where I rode it was thinner, and the treessmaller, and, indeed, around the little village of Stobo, there lies anopen part of some fields' width.    "},{"title":"John Burnet of Barns: A Romance","author":"Buchan, John","year":null,"url":"http:\/\/www.gutenberg.org\/ebooks\/40014","placename":"Stobo","snippet":"I feared to come to Dawyck too early, so I forded Tweed belowthe island, and took the road up the further bank by Lyne and Stobo.    "},{"title":"John Burnet of Barns: A Romance","author":"Buchan, John","year":null,"url":"http:\/\/www.gutenberg.org\/ebooks\/40014","placename":"Stobo","snippet":"The house of Barns stands on a green knoll above the Tweed, half-waybetween the village of Stobo and the town of Peebles.    "},{"title":"John Burnet of Barns: A Romance","author":"Buchan, John","year":null,"url":"http:\/\/www.gutenberg.org\/ebooks\/40014","placename":"Stobo","snippet":"In the wide reaches of waterin Stobo Haughs I have cut down much of the encumbering brushwood andthus laid the places open for fishing with the rod.    "},{"title":"John Burnet of Barns: A Romance","author":"Buchan, John","year":null,"url":"http:\/\/www.gutenberg.org\/ebooks\/40014","placename":"Stobo","snippet":"I crossed Lyne abune theBrig, and came doun Stobo burn, and here I am.    "},{"title":"John Burnet of Barns: A Romance","author":"Buchan, John","year":null,"url":"http:\/\/www.gutenberg.org\/ebooks\/40014","placename":"Stobo","snippet":"I struck straight for the ridge of Dreva, androunding it, faced the long valley of Tweed, with Rachan woods andDrummelzier haughs and the level lands of Stobo.    "},{"title":"John Burnet of Barns: A Romance","author":"Buchan, John","year":null,"url":"http:\/\/www.gutenberg.org\/ebooks\/40014","placename":"Stobo","snippet":"In the place where I rode it was thinner, and the treessmaller, and, indeed, around the little village of Stobo, there lies anopen part of some fields' width.    "},{"title":"John Burnet of Barns: A Romance","author":"Buchan, John","year":null,"url":"http:\/\/www.gutenberg.org\/ebooks\/40014","placename":"Stobo","snippet":"I feared to come to Dawyck too early, so I forded Tweed belowthe island, and took the road up the further bank by Lyne and Stobo.    "},{"title":"John Burnet of Barns: A Romance","author":"Buchan, John","year":null,"url":"http:\/\/www.gutenberg.org\/ebooks\/40014","placename":"Stobo","snippet":"The house of Barns stands on a green knoll above the Tweed, half-waybetween the village of Stobo and the town of Peebles.    "},{"title":"John Burnet of Barns: A Romance","author":"Buchan, John","year":null,"url":"http:\/\/www.gutenberg.org\/ebooks\/40014","placename":"Stobo","snippet":"In the wide reaches of waterin Stobo Haughs I have cut down much of the encumbering brushwood andthus laid the places open for fishing with the rod.    "},{"title":"John Burnet of Barns: A Romance","author":"Buchan, John","year":null,"url":"http:\/\/www.gutenberg.org\/ebooks\/40014","placename":"Stobo","snippet":"I crossed Lyne abune theBrig, and came doun Stobo burn, and here I am.    "},{"title":"John Burnet of Barns: A Romance","author":"Buchan, John","year":null,"url":"http:\/\/www.gutenberg.org\/ebooks\/40014","placename":"Stobo","snippet":"I struck straight for the ridge of Dreva, androunding it, faced the long valley of Tweed, with Rachan woods andDrummelzier haughs and the level lands of Stobo.    "},{"title":"John Burnet of Barns: A Romance","author":"Buchan, John","year":null,"url":"http:\/\/www.gutenberg.org\/ebooks\/40014","placename":"Stobo","snippet":"In the place where I rode it was thinner, and the treessmaller, and, indeed, around the little village of Stobo, there lies anopen part of some fields' width.    "},{"title":"John Burnet of Barns: A Romance","author":"Buchan, John","year":null,"url":"http:\/\/www.gutenberg.org\/ebooks\/40014","placename":"Stobo","snippet":"I feared to come to Dawyck too early, so I forded Tweed belowthe island, and took the road up the further bank by Lyne and Stobo.    "},{"title":"John Burnet of Barns: A Romance","author":"Buchan, John","year":null,"url":"http:\/\/www.gutenberg.org\/ebooks\/40014","placename":"Stobo","snippet":"The house of Barns stands on a green knoll above the Tweed, half-waybetween the village of Stobo and the town of Peebles.    "},{"title":"Rab and His Friends and Other Papers","author":"Brown, John","year":null,"url":"http:\/\/www.gutenberg.org\/ebooks\/45929","placename":"Stobo","snippet":"\"My dear Sir,--David Ritchie, _alias_ Bowed Davie, was born at Easter Happrew, in the parish of Stobo, in the year 1741.    "},{"title":"Rab and His Friends and Other Papers","author":"Brown, John","year":null,"url":"http:\/\/www.gutenberg.org\/ebooks\/45929","placename":"Stobo","snippet":"\"My dear Sir,--David Ritchie, _alias_ Bowed Davie, was born at Easter Happrew, in the parish of Stobo, in the year 1741.    "},{"title":"Spare Hours","author":"Brown, John","year":null,"url":"http:\/\/www.gutenberg.org\/ebooks\/27153","placename":"Stobo","snippet":"\"MY DEAR SIR,\u2014David Ritchie, _alias_ Bowed Davie, was born at    Easter Happrew, in the parish of Stobo, in the year 1741.    "},{"title":"The works of the Right Rev. John Sage,","author":"Sage, John","year":null,"url":"http:\/\/babel.hathitrust.org\/cgi\/pt?id=yale.39002037209542","placename":"Stobo","snippet":"105, he rejects BuUo's account, whowas Episcopal minister of Stobo,2 in one word, thus \u2014 \" Inthis narrative are many lies, which is attested by Mr William Russell (Presbyterian) minister at Stobo.    "},{"title":"The works of the Right Rev. John Sage,","author":"Sage, John","year":null,"url":"http:\/\/babel.hathitrust.org\/cgi\/pt?id=yale.39002037209542","placename":"Stobo","snippet":"105, he rejects BuUo's account, whowas Episcopal minister of Stobo,2 in one word, thus \u2014 \" Inthis narrative are many lies, which is attested by Mr William Russell (Presbyterian) minister at Stobo.    "},{"title":"Tweed and Don; or, Recollections and reflections of an angler for the last fifty years ...","author":"Locke, James.","year":"1860-01-01","url":"http:\/\/babel.hathitrust.org\/cgi\/pt?id=uc2.ark:\/13960\/t3416vf14","placename":"Stobo","snippet":"Bonnie Tweed at Thornilee, There's ower mony fishing at her ; Frae Berwick Brig to Stobo Kirk Her banks are in a perfect hatter.    "},{"title":"Spare hours...","author":"Brown, John","year":"1862-01-01","url":"http:\/\/babel.hathitrust.org\/cgi\/pt?id=loc.ark:\/13960\/t4sj2ch2j","placename":"Stobo","snippet":"\"My dear Sir, \u2014 David Ritchie, alias Bowed Davie, was born at Easter Happrew, in the parish of Stobo, in the year 1741.    "},{"title":"Recollections of a Visit to Glasgow with the British Arch\u00e6ological Associations, August 27th to September 5th, 1888. With notes","author":"Lambert, George","year":"1891-01-01","url":"https:\/\/historicaltexts.jisc.ac.uk\/bl-002059679","placename":"Stobo","snippet":"The place of his final retreat wasDrummelzier, a village in the Valley of the Tweed, betweenBroughton (Station) and Stobo ; repeated allusion was madeby him, throughout his later poems, to \" the chancel onthe top of tho hill,\" which was supposed to refer to thechurch of Drummelzier.    "},{"title":"Recollections of a Visit to Glasgow with the British Arch\u00e6ological Associations, August 27th to September 5th, 1888. With notes","author":"Lambert, George","year":"1891-01-01","url":"https:\/\/historicaltexts.jisc.ac.uk\/bl-002059679","placename":"Stobo","snippet":"The entire possessions of the See at the Reformation were the seven baronies and regalities of Glasgow\u2014Carstairs, Stobo, Eddilstoun, Ancrum, Ashkirk, and Lilliesleaf, with the Bishop's Forest and other little things ofcomparatively trifling value in Carrick, Lothian, and elsewhere.    "}]