[{"title":"The Story of My Life, volumes 4-6","author":"Hare, Augustus J. C. (Augustus John Cuthbert)","year":null,"url":"http:\/\/www.gutenberg.org\/ebooks\/42770","placename":"Carstairs","snippet":"Monteith, Robert, of Carstairs, iii.    "},{"title":"The Story of My Life, volumes 4-6","author":"Hare, Augustus J. C. (Augustus John Cuthbert)","year":null,"url":"http:\/\/www.gutenberg.org\/ebooks\/42770","placename":"Carstairs","snippet":"Monteith, Robert, of Carstairs, iii.    "},{"title":"The World According to Bertie","author":"McCall Smith, Alexander","year":null,"url":null,"placename":"Carstairs","snippet":"My friend Tofu tells me that there are lots of mad babies in Carstairs and that they have special padded playpens for them.    "},{"title":"The World According to Bertie","author":"McCall Smith, Alexander","year":null,"url":null,"placename":"Carstairs","snippet":"Mummy will probably visit him there because she likes talking to him and she will miss him when he gets sent to Carstairs.    "},{"title":"The World According to Bertie","author":"McCall Smith, Alexander","year":null,"url":null,"placename":"Carstairs","snippet":"I think that this is because he knows that they are going to send him to Carstairs one day.    "},{"title":"The Unbearable Lightness of Scones","author":"McCall Smith, Alexander","year":null,"url":null,"placename":"Carstairs","snippet":"He knew that the State Hospital was at Carstairs, and he knew too that this is where Dr Fairbairn was likely to end up.    "},{"title":"The Unbearable Lightness of Scones","author":"McCall Smith, Alexander","year":null,"url":null,"placename":"Carstairs","snippet":"He knew that the State Hospital was at Carstairs, and he knew too that this is where Dr Fairbairn was likely to end up.    "},{"title":"The Unbearable Lightness of Scones","author":"McCall Smith, Alexander","year":null,"url":null,"placename":"Carstairs","snippet":"\"Is Carstairs near Aberdeen, Mummy?\"    "},{"title":"The Unbearable Lightness of Scones","author":"McCall Smith, Alexander","year":null,"url":null,"placename":"Carstairs","snippet":"\"Why should you want to know about Carstairs?\"    "},{"title":"The Unbearable Lightness of Scones","author":"McCall Smith, Alexander","year":null,"url":null,"placename":"Carstairs","snippet":"\"Is Carstairs near Aberdeen, Mummy?\"    "},{"title":"The Unbearable Lightness of Scones","author":"McCall Smith, Alexander","year":null,"url":null,"placename":"Carstairs","snippet":"\"Why should you want to know about Carstairs?\"    "},{"title":"Sunshine on Scotland Street","author":"McCall Smith, Alexander","year":null,"url":null,"placename":"Carstairs","snippet":"It was only a matter of time, he thought, before Dr Fairbairn would be taken off to Carstairs, where all the most dangerous disturbed people in Scotland were kept; for the time being he was on the loose in Aberdeen, but he was sure that that would not last.    "},{"title":"Memoirs of Charles Lee Lewes,","author":"Lewes, Charles Lee","year":"1805-01-01","url":"http:\/\/babel.hathitrust.org\/cgi\/pt?id=uc2.ark:\/13960\/t3fx77517","placename":"Carstairs","snippet":"Carstairs.    "},{"title":"Oliver Cromwell's letters and speeches: with elucidations.","author":"Cromwell, Oliver","year":"1845-01-01","url":"http:\/\/babel.hathitrust.org\/cgi\/pt?id=yale.39002008273931","placename":"Carstairs","snippet":"Ministers also ofthe Kirk Committee wereslain ; two Ministers I find taken, poor Carstairs of Glasgow,poor Waugh of some other place, \u2014 of whom we shall transientlyhear again.    "},{"title":"The Diamond Rose: a life of love and duty.","author":"Tytler, Sarah","year":null,"url":"https:\/\/historicaltexts.jisc.ac.uk\/bl-003700249","placename":"Carstairs","snippet":"there is manly Principal Carstairs, (\" Cardinal Carstairs,\" if ever man was by desert a cardinal,)master of all his faculties, bodily and spiritual, andwise and temperate in their use, who had beensubjected to torture and imprisonment with theillustrious sufferers in the Ryehousc Plot, and whowas classed by Dutch William as \" a truly honestman.\"    "},{"title":"Weir of Hermiston. An unfinished romance. [With an editorial note signed, S. C., i.e. Sidney Colvin.]","author":"Stevenson, Robert Louis","year":"1896-01-01","url":"https:\/\/historicaltexts.jisc.ac.uk\/bl-003501737","placename":"Carstairs","snippet":"But the Judge ekedout what was wanting with kind looks, produced his snuff-box (which was very rarelyseen) to fill in a pause, and at last, despairing of any further social success, was uponthe point of getting down a book to reada favourite passage, when there came arather startling summons at the front door,and Carstairs ushered in my Lord Glenkindie, hot from a midnight supper.    "},{"title":"Weir of Hermiston. An unfinished romance. [With an editorial note signed, S. C., i.e. Sidney Colvin.]","author":"Stevenson, Robert Louis","year":"1896-01-01","url":"https:\/\/historicaltexts.jisc.ac.uk\/bl-003501737","placename":"Carstairs","snippet":"Carstairs returned at this moment, andrapidly laid out a little supper; duringwhich Lord Glenalmond spoke at largeand a little vaguely on indifferent subjects,so that it might be rather said of him thathe made a cheerful noise, than that hecontributed to human conversation; andArchie sat upon the other side, not heedinghim, brooding over his wrongs and errors.    "},{"title":"Weir of Hermiston. An unfinished romance. [With an editorial note signed, S. C., i.e. Sidney Colvin.]","author":"Stevenson, Robert Louis","year":"1896-01-01","url":"https:\/\/historicaltexts.jisc.ac.uk\/bl-003501737","placename":"Carstairs","snippet":"Carstairs' (to his servant)' make up the fire, and then you can bringa bit of supper,' and again to Archie, witha very trivial accent: ' I was half expectingyou,' he added.    "}]