[{"title":"Essays critical and imaginative,","author":"Wilson, John","year":null,"url":"http:\/\/babel.hathitrust.org\/cgi\/pt?id=nc01.ark:\/13960\/t6h13x17k","placename":"Old Melrose","snippet":"Good-by, Boys \u2014 you will find the Old Man dodging about the holms of Old Melrose \u2014 perhaps asleep below a tree.    "},{"title":"Essays critical and imaginative,","author":"Wilson, John","year":null,"url":"http:\/\/babel.hathitrust.org\/cgi\/pt?id=nc01.ark:\/13960\/t6h13x17k","placename":"Old Melrose","snippet":"Ha ! there are our three young friends \u2014 the Neophytes  \u2014 angling their way from below Old Melrose \u2014 and we shall be forgathering with the foremost below Fly- Bridge.    "},{"title":"The works of Professor Wilson of the University of Edinburgh,","author":"Wilson, John","year":null,"url":"http:\/\/babel.hathitrust.org\/cgi\/pt?id=uc2.ark:\/13960\/t14m97m8r","placename":"Old Melrose","snippet":"Good-by, Boys \u2014 you will find the Old Man dodging about the holms of Old Melrose \u2014 perhaps asleep below a tree.    "},{"title":"The works of Professor Wilson of the University of Edinburgh,","author":"Wilson, John","year":null,"url":"http:\/\/babel.hathitrust.org\/cgi\/pt?id=uc2.ark:\/13960\/t14m97m8r","placename":"Old Melrose","snippet":"Ha ! there are our three young friends \u2014 the Neophytes  \u2014 angling their way from below Old Melrose \u2014 and we shall be forgathering with the foremost below Fly-Bridge.    "},{"title":"Black's picturesque tourist of Scotland.","author":null,"year":"1857-01-01","url":"http:\/\/babel.hathitrust.org\/cgi\/pt?id=uc2.ark:\/13960\/t9862nx30","placename":"Old Melrose","snippet":"On the same side, a little further on, but not visible from the rail- w;iy, is Old Melrose.    "},{"title":"Black's picturesque tourist of Scotland.","author":null,"year":"1857-01-01","url":"http:\/\/babel.hathitrust.org\/cgi\/pt?id=uc2.ark:\/13960\/t9862nx30","placename":"Old Melrose","snippet":"The estate of Old Melrose was long possessed by a family of the name of Ormestoun.    "},{"title":"A university tramp,","author":"Hubbell, Orrin Z. [from old catalog]","year":"1889-01-01","url":"http:\/\/babel.hathitrust.org\/cgi\/pt?id=loc.ark:\/13960\/t5fb5x31j","placename":"Old Melrose","snippet":"Old Melrose rose, and fair Tweed ran.\"    "},{"title":"The pilgrim's wallet;","author":"Haven, Gilbert","year":"1866-01-01","url":"http:\/\/babel.hathitrust.org\/cgi\/pt?id=loc.ark:\/13960\/t5fb5rd1h","placename":"Old Melrose","snippet":"No contrast could be greater than between this spot and Old Melrose.    "},{"title":"The pilgrim's wallet;","author":"Haven, Gilbert","year":"1866-01-01","url":"http:\/\/babel.hathitrust.org\/cgi\/pt?id=loc.ark:\/13960\/t5fb5rd1h","placename":"Old Melrose","snippet":"New Melrose is reached before Old Melrose, in time as well as in space.    "},{"title":"The pilgrim's wallet;","author":"Haven, Gilbert","year":"1866-01-01","url":"http:\/\/babel.hathitrust.org\/cgi\/pt?id=loc.ark:\/13960\/t5fb5rd1h","placename":"Old Melrose","snippet":"It is about three miles from Melrose Abbey, and is called Old Melrose.    "},{"title":"A Tour in Tartan-Land","author":"Bede, Cuthbert","year":"1863-01-01","url":"https:\/\/historicaltexts.jisc.ac.uk\/bl-000247793","placename":"Old Melrose","snippet":"The original abbey was sometwo miles farther down Tweedside, where is now thepicturesque village of Old Melrose.    "}]