[{"title":"The Wrecker","author":"Osbourne, Lloyd","year":null,"url":"http:\/\/www.gutenberg.org\/ebooks\/1024","placename":"Hadden","snippet":"Thiswelcome news broke upon them like the sun at midnight; and Hadden burstinto a storm of tears, sobbing aloud as he heaved upon the tackle.    "},{"title":"The Wrecker","author":"Osbourne, Lloyd","year":null,"url":"http:\/\/www.gutenberg.org\/ebooks\/1024","placename":"Hadden","snippet":"Carthew did hisbest, partly for the love of doing it, partly for love of the captain;Amalu was a willing drudge, and even Hemstead and Hadden turned to uponoccasion with a will.    "},{"title":"The Wrecker","author":"Osbourne, Lloyd","year":null,"url":"http:\/\/www.gutenberg.org\/ebooks\/1024","placename":"Hadden","snippet":"\"But look here!\" cried Hadden, \"how do you mean to manage?    "},{"title":"The Wrecker","author":"Osbourne, Lloyd","year":null,"url":"http:\/\/www.gutenberg.org\/ebooks\/1024","placename":"Hadden","snippet":"He began to think less seriouslyof the scheme, Hadden appearing too irresponsible a guide; but on theother hand, he enjoyed himself amazingly.    "},{"title":"The Wrecker","author":"Osbourne, Lloyd","year":null,"url":"http:\/\/www.gutenberg.org\/ebooks\/1024","placename":"Hadden","snippet":"\"Take your gin and guns to Putney!\" cried Hadden.    "},{"title":"The Wrecker","author":"Osbourne, Lloyd","year":null,"url":"http:\/\/www.gutenberg.org\/ebooks\/1024","placename":"Hadden","snippet":"On descending from the hansom at the Currency Lass, Hadden was struckwith the appearance of the cabman, a gross, salt-looking man, red-faced,blue-eyed, short-handed and short-winded, perhaps nearing forty.    "},{"title":"The Wrecker","author":"Osbourne, Lloyd","year":null,"url":"http:\/\/www.gutenberg.org\/ebooks\/1024","placename":"Hadden","snippet":"\"Are you?\" cried Hadden.    "},{"title":"The Wrecker","author":"Osbourne, Lloyd","year":null,"url":"http:\/\/www.gutenberg.org\/ebooks\/1024","placename":"Hadden","snippet":"\"And whatever else comes of it, you see,\" cried Hadden, \"we get our keepfor nothing.    "},{"title":"The Wrecker","author":"Osbourne, Lloyd","year":null,"url":"http:\/\/www.gutenberg.org\/ebooks\/1024","placename":"Hadden","snippet":"\"I'll show you! I'll figure it out for you!\" cried Hadden, and with apencil on the back of the bill of fare proceeded to perform miracles.    "},{"title":"The wrecker","author":"Stevenson, Robert Louis","year":null,"url":"http:\/\/ota.ox.ac.uk\/id\/3130","placename":"Hadden","snippet":"This welcome news broke upon them like the sun at midnight; and Hadden burst into a storm of tears, sobbing aloud as he heaved upon the tackle.    "},{"title":"The wrecker","author":"Stevenson, Robert Louis","year":null,"url":"http:\/\/ota.ox.ac.uk\/id\/3130","placename":"Hadden","snippet":"Carthew did his best, partly for the love of doing it, partly for love of the captain; Amalu was a willing drudge, and even Hemstead and Hadden turned to upon occasion with a will.    "},{"title":"The wrecker","author":"Stevenson, Robert Louis","year":null,"url":"http:\/\/ota.ox.ac.uk\/id\/3130","placename":"Hadden","snippet":"\"But, look here!\" cried Hadden, \"how do you mean to manage?    "},{"title":"The wrecker","author":"Stevenson, Robert Louis","year":null,"url":"http:\/\/ota.ox.ac.uk\/id\/3130","placename":"Hadden","snippet":"He began to think less seriously of the scheme, Hadden appearing too irresponsible a guide; but on the other hand, he enjoyed himself amazingly.    "},{"title":"The wrecker","author":"Stevenson, Robert Louis","year":null,"url":"http:\/\/ota.ox.ac.uk\/id\/3130","placename":"Hadden","snippet":"\"Take your gin and guns to Putney,\" cried Hadden.    "},{"title":"The wrecker","author":"Stevenson, Robert Louis","year":null,"url":"http:\/\/ota.ox.ac.uk\/id\/3130","placename":"Hadden","snippet":"On descending from the hansom at the Currency Lass, Hadden was struck with the appearance of the cabman, a gross, salt-looking man, red-faced, blue-eyed, short-handed and short-winded, perhaps nearing forty.    "},{"title":"The wrecker","author":"Stevenson, Robert Louis","year":null,"url":"http:\/\/ota.ox.ac.uk\/id\/3130","placename":"Hadden","snippet":"\"Are you?\" cried Hadden.    "},{"title":"The wrecker","author":"Stevenson, Robert Louis","year":null,"url":"http:\/\/ota.ox.ac.uk\/id\/3130","placename":"Hadden","snippet":"\"And whatever else comes of it, you see,\" cried Hadden, \"we get our keep for nothing.\u2014Come, buy some togs, that's the first thing you have to do of course; and then we'll take a hansom and go to the Currency Lass.\"    "},{"title":"The wrecker","author":"Stevenson, Robert Louis","year":null,"url":"http:\/\/ota.ox.ac.uk\/id\/3130","placename":"Hadden","snippet":"\"I'll show you! I'll figure it out for you!\" cried Hadden, and with a pencil on the back of the bill of fare proceeded to perform miracles.    "},{"title":"[Works]","author":"Stevenson, Robert Louis","year":"1910-01-01","url":"http:\/\/babel.hathitrust.org\/cgi\/pt?id=uc2.ark:\/13960\/t47p8w56w","placename":"Hadden","snippet":"This welcome news broke upon them like the sun at midnight ; and Hadden burst into a storm of tears, sobbing aloud as he heaved upon the tackle.    "},{"title":"[Works]","author":"Stevenson, Robert Louis","year":"1910-01-01","url":"http:\/\/babel.hathitrust.org\/cgi\/pt?id=uc2.ark:\/13960\/t47p8w56w","placename":"Hadden","snippet":"Carthew did his best, partly for the love of doing it, partly for love of the captain ; Amalu was a willing drudge, and even Hemstead and Hadden turned to upon occasion with a will.    "},{"title":"[Works]","author":"Stevenson, Robert Louis","year":"1910-01-01","url":"http:\/\/babel.hathitrust.org\/cgi\/pt?id=uc2.ark:\/13960\/t47p8w56w","placename":"Hadden","snippet":"\" But look here ! \" cried Hadden.    "},{"title":"[Works]","author":"Stevenson, Robert Louis","year":"1910-01-01","url":"http:\/\/babel.hathitrust.org\/cgi\/pt?id=uc2.ark:\/13960\/t47p8w56w","placename":"Hadden","snippet":"He began to think less seriously of the scheme, Hadden appearing too irresponsible a guide; but on the other hand, he enjoyed himself amazingly.    "},{"title":"[Works]","author":"Stevenson, Robert Louis","year":"1910-01-01","url":"http:\/\/babel.hathitrust.org\/cgi\/pt?id=uc2.ark:\/13960\/t47p8w56w","placename":"Hadden","snippet":"\" Take your gin and guns to Putney ! \" cried Hadden.    "},{"title":"[Works]","author":"Stevenson, Robert Louis","year":"1910-01-01","url":"http:\/\/babel.hathitrust.org\/cgi\/pt?id=uc2.ark:\/13960\/t47p8w56w","placename":"Hadden","snippet":"On descending from the hansom at the Currency Lass, Hadden was struck with the appearance of the cabman, a gross, salt-looking man, red-faced, blue-eyed, shorthanded  and short-winded, perhaps nearing forty.    "},{"title":"[Works]","author":"Stevenson, Robert Louis","year":"1910-01-01","url":"http:\/\/babel.hathitrust.org\/cgi\/pt?id=uc2.ark:\/13960\/t47p8w56w","placename":"Hadden","snippet":"\"Are you?\" cried Hadden.    "},{"title":"[Works]","author":"Stevenson, Robert Louis","year":"1910-01-01","url":"http:\/\/babel.hathitrust.org\/cgi\/pt?id=uc2.ark:\/13960\/t47p8w56w","placename":"Hadden","snippet":"\"And whatever else comes of it, you see,\" cried Hadden, \"we get our keep for nothing.    "},{"title":"[Works]","author":"Stevenson, Robert Louis","year":"1910-01-01","url":"http:\/\/babel.hathitrust.org\/cgi\/pt?id=uc2.ark:\/13960\/t47p8w56w","placename":"Hadden","snippet":"\"I'll show you! I'll figure it out for you!\" cried Hadden, and with a pencil on the back of the bill of fare, proceeded to perform miracles.    "},{"title":"The heart of Midlothian;","author":"Scott, Walter","year":null,"url":"http:\/\/babel.hathitrust.org\/cgi\/pt?id=uc2.ark:\/13960\/t2x34zf8j","placename":"Hadden","snippet":"HADDEN, held    "}]