[{"title":"The Journal of Sir Walter Scott; From the Original Manuscript at Abbotsford","author":"Scott, Walter","year":null,"url":"http:\/\/www.gutenberg.org\/ebooks\/14860","placename":"Wilsontown","snippet":"Mr., of Wilsontown, i.    "},{"title":"The Journal of Sir Walter Scott; From the Original Manuscript at Abbotsford","author":"Scott, Walter","year":null,"url":"http:\/\/www.gutenberg.org\/ebooks\/14860","placename":"Wilsontown","snippet":"[379] William Wilson of Wandsworth Common, formerly of Wilsontown, inLanarkshire.--J.G.L.    "},{"title":"The Journal of Sir Walter Scott; From the Original Manuscript at Abbotsford","author":"Scott, Walter","year":null,"url":"http:\/\/www.gutenberg.org\/ebooks\/14860","placename":"Wilsontown","snippet":"Lord M. and Lady Abercromby called this morning, and aworld of people besides, among others honest Mr. Wilson, late ofWilsontown, who took so much care of me at London, sending fresh eggsand all sorts of good things.    "},{"title":"The Journal of Sir Walter Scott; From the Original Manuscript at Abbotsford","author":"Scott, Walter","year":null,"url":"http:\/\/www.gutenberg.org\/ebooks\/14860","placename":"Wilsontown","snippet":"Mr., of Wilsontown, i.    "},{"title":"The Journal of Sir Walter Scott; From the Original Manuscript at Abbotsford","author":"Scott, Walter","year":null,"url":"http:\/\/www.gutenberg.org\/ebooks\/14860","placename":"Wilsontown","snippet":"[379] William Wilson of Wandsworth Common, formerly of Wilsontown, inLanarkshire.--J.G.L.    "},{"title":"The Journal of Sir Walter Scott; From the Original Manuscript at Abbotsford","author":"Scott, Walter","year":null,"url":"http:\/\/www.gutenberg.org\/ebooks\/14860","placename":"Wilsontown","snippet":"Lord M. and Lady Abercromby called this morning, and aworld of people besides, among others honest Mr. Wilson, late ofWilsontown, who took so much care of me at London, sending fresh eggsand all sorts of good things.    "},{"title":"The Journal of Sir Walter Scott; From the Original Manuscript at Abbotsford","author":"Scott, Walter","year":null,"url":"http:\/\/www.gutenberg.org\/ebooks\/14860","placename":"Wilsontown","snippet":"Mr., of Wilsontown, i.    "},{"title":"The Journal of Sir Walter Scott; From the Original Manuscript at Abbotsford","author":"Scott, Walter","year":null,"url":"http:\/\/www.gutenberg.org\/ebooks\/14860","placename":"Wilsontown","snippet":"[379] William Wilson of Wandsworth Common, formerly of Wilsontown, inLanarkshire.--J.G.L.    "},{"title":"The Journal of Sir Walter Scott; From the Original Manuscript at Abbotsford","author":"Scott, Walter","year":null,"url":"http:\/\/www.gutenberg.org\/ebooks\/14860","placename":"Wilsontown","snippet":"Lord M. and Lady Abercromby called this morning, and aworld of people besides, among others honest Mr. Wilson, late ofWilsontown, who took so much care of me at London, sending fresh eggsand all sorts of good things.    "},{"title":"The journal of Sir Walter Scott,","author":"Scott, Walter","year":"1891-01-01","url":"http:\/\/babel.hathitrust.org\/cgi\/pt?id=uc2.ark:\/13960\/t7jq0vz0t","placename":"Wilsontown","snippet":"gle strong recommendations to the late Lord formerly of Wilsontown, in Lanarkshire.    "},{"title":"The journal of Sir Walter Scott,","author":"Scott, Walter","year":"1891-01-01","url":"http:\/\/babel.hathitrust.org\/cgi\/pt?id=uc2.ark:\/13960\/t7jq0vz0t","placename":"Wilsontown","snippet":"Lord M. and Lady Abercromby called this morning,  and a world of people besides, among others honest Mr. Wilson, late of Wilsontown, who took so much care of me at London, sending  fresh eggs and all sorts of good things.    "}]