[{"title":"Letters from Thomas Percy, D.D. :","author":null,"year":"1830-01-01","url":"http:\/\/babel.hathitrust.org\/cgi\/pt?id=uc2.ark:\/13960\/t0sq8wh72","placename":"Craig","snippet":"Craig forth, Oct. 29- [17]81.    "},{"title":"Letters from Thomas Percy, D.D. :","author":null,"year":"1830-01-01","url":"http:\/\/babel.hathitrust.org\/cgi\/pt?id=uc2.ark:\/13960\/t0sq8wh72","placename":"Craig","snippet":"Craig forth, Aug. 7- 1781.    "},{"title":"Letters from Thomas Percy, D.D. :","author":null,"year":"1830-01-01","url":"http:\/\/babel.hathitrust.org\/cgi\/pt?id=uc2.ark:\/13960\/t0sq8wh72","placename":"Craig","snippet":"Craig forth, June 23.    "},{"title":"Letters from Thomas Percy, D.D. :","author":null,"year":"1830-01-01","url":"http:\/\/babel.hathitrust.org\/cgi\/pt?id=uc2.ark:\/13960\/t0sq8wh72","placename":"Craig","snippet":"Craig forth, May 9.    "},{"title":"Letters from Thomas Percy, D.D. :","author":null,"year":"1830-01-01","url":"http:\/\/babel.hathitrust.org\/cgi\/pt?id=uc2.ark:\/13960\/t0sq8wh72","placename":"Craig","snippet":"Craig forth, April 3.    "},{"title":"Letters from Thomas Percy, D.D. :","author":null,"year":"1830-01-01","url":"http:\/\/babel.hathitrust.org\/cgi\/pt?id=uc2.ark:\/13960\/t0sq8wh72","placename":"Craig","snippet":"Craig forth, March 28.    "},{"title":"Letters from Thomas Percy, D.D. :","author":null,"year":"1830-01-01","url":"http:\/\/babel.hathitrust.org\/cgi\/pt?id=uc2.ark:\/13960\/t0sq8wh72","placename":"Craig","snippet":"\u25a0Craig forth, 23d March, 1781.    "},{"title":"Letters from Thomas Percy, D.D. :","author":null,"year":"1830-01-01","url":"http:\/\/babel.hathitrust.org\/cgi\/pt?id=uc2.ark:\/13960\/t0sq8wh72","placename":"Craig","snippet":"Craig forth, March 12.    "},{"title":"Literary landmarks of Edinburgh,","author":"Hutton, Laurence","year":"1891-01-01","url":"http:\/\/babel.hathitrust.org\/cgi\/pt?id=uc2.ark:\/13960\/t2w37qg3h","placename":"Craig","snippet":"Craig's close, 265 high street    "},{"title":"Yesterdays with authors.","author":"Fields, James Thomas","year":"1872-01-01","url":"http:\/\/babel.hathitrust.org\/cgi\/pt?id=loc.ark:\/13960\/t22b9j820","placename":"Craig","snippet":"Craig written to you to tell you of her marriage ? I will run the risk of repetition and tell you that it is the charming Margaret De Quincey, who has married the son of a Scotch neighbor.    "},{"title":"Tours in Scotland 1677 & 1681. By T. Kirk and R. Thoresby. Edited by P. Hume Brown","author":"Kirk, Thomas","year":"1892-01-01","url":"https:\/\/historicaltexts.jisc.ac.uk\/bl-001975511","placename":"Craig","snippet":"The old castle of Craig is represented by a tower and gateway, and part of ahouse added in 1639.    "},{"title":"Tours in Scotland 1677 & 1681. By T. Kirk and R. Thoresby. Edited by P. Hume Brown","author":"Kirk, Thomas","year":"1892-01-01","url":"https:\/\/historicaltexts.jisc.ac.uk\/bl-001975511","placename":"Craig","snippet":"4 The barony of Craig was nearly identical with the present estate of Eossie.    "},{"title":"Tours in Scotland 1677 & 1681. By T. Kirk and R. Thoresby. Edited by P. Hume Brown","author":"Kirk, Thomas","year":"1892-01-01","url":"https:\/\/historicaltexts.jisc.ac.uk\/bl-001975511","placename":"Craig","snippet":"1 The medicinal spring at Kinghorn, first brought into repute by Dr PatrickAnderson in his Cold Spring of Kinrjhorne Craig: his admirable and newtrycd properties (1618).    "},{"title":"Story of a Stolen Heir. A novel","author":"Bertram, James Glass.","year":"1858-01-01","url":"https:\/\/historicaltexts.jisc.ac.uk\/bl-000300859-01","placename":"Craig","snippet":"The whole world had been electrified,when, by the cleverness of the great lawfirm of Lawson, Brodie, Craig, and Grinton, Mr. William Middlemass, an obscurehalf-pay captain, was found out to be thenearest heir to the eccentric old Sir GdbertBarnton, the wealthy banker and moneylender.    "},{"title":"Story of a Stolen Heir. A novel","author":"Bertram, James Glass.","year":"1858-01-01","url":"https:\/\/historicaltexts.jisc.ac.uk\/bl-000300859-01","placename":"Craig","snippet":"and as some people said, the \" very ambitious,\" Mr. AUan Brodie, of the great Whigfirm of Lawson, Brodie, Craig, and Grinton.    "},{"title":"Story of a Stolen Heir. A novel","author":"Bertram, James Glass.","year":"1858-01-01","url":"https:\/\/historicaltexts.jisc.ac.uk\/bl-000300859-01","placename":"Craig","snippet":"Mr. Joseph Liddell was the head clerkand confidential book-keeper of the greatfirm of Lawson, Brodie, Craig, and Grintonand as many knew, he was the private factotum of Mr. AUan Brodie as well.    "},{"title":"Story of a Stolen Heir. A novel","author":"Bertram, James Glass.","year":"1858-01-01","url":"https:\/\/historicaltexts.jisc.ac.uk\/bl-000300859-01","placename":"Craig","snippet":"Ambition was his god,his ruUng passion\u2014not the ambition of SirHenry Craig, his partner ; not a showydinner-giving, platform reputation; not thereputation of a planner of chques, or deviser of election tactics\u2014he left that to thetalking partner of the firm, and to otherand less ambitious men.    "},{"title":"Story of a Stolen Heir. A novel","author":"Bertram, James Glass.","year":"1858-01-01","url":"https:\/\/historicaltexts.jisc.ac.uk\/bl-000300859-01","placename":"Craig","snippet":"Sir Henry Craig of Pinkerton was themoving spirit of the business, so far as thepoUtics of the house were concerned\u2014thecentre of Whig consultation\u2014the partnerwho gave the dinner parties\u2014who made allthe show and who \" did\" the speechifying,of which there was a great deal at thisperiod.    "},{"title":"Secretar. Founded on the story of the Casket Letters","author":"Beatty, W.","year":"1897-01-01","url":"https:\/\/historicaltexts.jisc.ac.uk\/bl-000240159","placename":"Craig","snippet":"But whether she was grave or gay, or whether Icalled her to mind at St. Giles, listening with her gash-lookingfather to the preaching of Maister Craig or the fiery Knox, or atsome merrymaking, she was aye, to my mind, despite her fleer,the winsomest, the blythest, and the best-hearted lass in theworld.    "}]