[{"title":"The works of Professor Wilson of the University of Edinburgh,","author":"Wilson, John","year":null,"url":"http:\/\/babel.hathitrust.org\/cgi\/pt?id=uc2.ark:\/13960\/t9k35v13q","placename":"Poo","snippet":"1 Poo'r\u2014 power.    "},{"title":"The works of Professor Wilson of the University of Edinburgh,","author":"Wilson, John","year":null,"url":"http:\/\/babel.hathitrust.org\/cgi\/pt?id=uc2.ark:\/13960\/t9k35v13q","placename":"Poo","snippet":"Poo ! It has tcazed me a little for these last fifty years    "},{"title":"The works of Professor Wilson of the University of Edinburgh,","author":"Wilson, John","year":null,"url":"http:\/\/babel.hathitrust.org\/cgi\/pt?id=uc2.ark:\/13960\/t9k35v13q","placename":"Poo","snippet":"Poo ! That was nae day's fishin ava, man, in comparison to ane o' mine on St Mary's Loch.    "},{"title":"Noctes ambrosianae,","author":"Wilson, John","year":"1876-01-01","url":"http:\/\/babel.hathitrust.org\/cgi\/pt?id=uc2.ark:\/13960\/t7hq3sc5m","placename":"Poo","snippet":"Poo ! That was nae day s fishin ava, man, in comparison to ane o mine on St. Mary s Loch.    "},{"title":"Noctes ambrosianae,","author":"Wilson, John","year":"1876-01-01","url":"http:\/\/babel.hathitrust.org\/cgi\/pt?id=uc2.ark:\/13960\/t7hq3sc5m","placename":"Poo","snippet":"Poo    "},{"title":"Noctes ambrosianae,","author":"Wilson, John","year":"1876-01-01","url":"http:\/\/babel.hathitrust.org\/cgi\/pt?id=uc2.ark:\/13960\/t7hq3sc5m","placename":"Poo","snippet":"Poo I should at once take the bull by the horns or, seizing him by the tail, drive him.    "},{"title":"Noctes ambrosianae,","author":"Wilson, John","year":"1876-01-01","url":"http:\/\/babel.hathitrust.org\/cgi\/pt?id=uc2.ark:\/13960\/t7hq3sc5m","placename":"Poo","snippet":"Poo I m no sae pernickitty * as that about my original ideas ; only when folk do mak use o my obs, I think it but fair they should add, &quot; as Mr. Hogg well said,&quot; &quot; as the Ettrick Shepherd admirably remarked,&quot; &quot;as the celebrated author o the Queen s Wake, wi his usual felicity, observed &quot; and so forth and ma faith, if some folk that s reckoned yeloquent at roots and petty soopers were aye to do that when they re what s ca d maist brilliant, my name wad be seldom out o their mouths.    "},{"title":"Noctes ambrosianae,","author":"Wilson, John","year":"1876-01-01","url":"http:\/\/babel.hathitrust.org\/cgi\/pt?id=uc2.ark:\/13960\/t7hq3sc5m","placename":"Poo","snippet":"Poo, poo we all know that but out of doors ?    "},{"title":"The works of Professor Wilson of the University of Edinburgh,","author":"Wilson, John","year":null,"url":"http:\/\/babel.hathitrust.org\/cgi\/pt?id=uc2.ark:\/13960\/t78s4s569","placename":"Poo","snippet":"Poo upon poetry ! Fire away, Kit.    "},{"title":"The works of Professor Wilson of the University of Edinburgh,","author":"Wilson, John","year":null,"url":"http:\/\/babel.hathitrust.org\/cgi\/pt?id=uc2.ark:\/13960\/t78s4s569","placename":"Poo","snippet":"Poo ! verbal hypercriticism is my contempt, sir.    "},{"title":"Essays critical and imaginative,","author":"Wilson, John","year":null,"url":"http:\/\/babel.hathitrust.org\/cgi\/pt?id=nc01.ark:\/13960\/t6h13x17k","placename":"Poo","snippet":"Poo ! poo ! a set of sumphs.    "},{"title":"The works of Professor Wilson of the University of Edinburgh,","author":"Wilson, John","year":null,"url":"http:\/\/babel.hathitrust.org\/cgi\/pt?id=uc2.ark:\/13960\/t6251p712","placename":"Poo","snippet":"Poo \u2014 a dwarf! Stand up witli your back to that stalk.    "},{"title":"Noctes Ambrosian\u00e6.","author":"Wilson, John","year":"1884-01-01","url":"http:\/\/babel.hathitrust.org\/cgi\/pt?id=loc.ark:\/13960\/t3pv75d8d","placename":"Poo","snippet":"Poo ! That was nae day's fishin ava, man, in comparison to.ane o' mine on St. Mary's Loch.    "},{"title":"Noctes Ambrosian\u00e6.","author":"Wilson, John","year":"1884-01-01","url":"http:\/\/babel.hathitrust.org\/cgi\/pt?id=loc.ark:\/13960\/t3pv75d8d","placename":"Poo","snippet":"Poo    "},{"title":"Noctes Ambrosian\u00e6.","author":"Wilson, John","year":"1884-01-01","url":"http:\/\/babel.hathitrust.org\/cgi\/pt?id=loc.ark:\/13960\/t3pv75d8d","placename":"Poo","snippet":"Poo, poo \u2014 we all know that \u2014 but out of doors ?    "},{"title":"The works of Professor Wilson of the University of Edinburgh,","author":"Wilson, John","year":null,"url":"http:\/\/babel.hathitrust.org\/cgi\/pt?id=uc2.ark:\/13960\/t14m97m8r","placename":"Poo","snippet":"Poo ! poo ! a set of sumphs.    "},{"title":"The works of Professor Wilson of the University of Edinburgh,","author":"Wilson, John","year":null,"url":"http:\/\/babel.hathitrust.org\/cgi\/pt?id=uc2.ark:\/13960\/t0rr1wk99","placename":"Poo","snippet":"Poo, poo \u2014 we all know that \u2014 ^but out of doors ?    "},{"title":"The recreations of Christopher North","author":"Wilson, John","year":"1854-01-01","url":"http:\/\/babel.hathitrust.org\/cgi\/pt?id=uc2.ark:\/13960\/t0gt5th2x","placename":"Poo","snippet":"Poo \u2014 a dwarf! Stand up with your back to that stalk.    "},{"title":"Noctes ambrosian\u00e6,","author":"Wilson, John","year":"1863-01-01","url":"http:\/\/babel.hathitrust.org\/cgi\/pt?id=uc2.ark:\/13960\/t00z73n39","placename":"Poo","snippet":"Poo ! Find out that there was some Odoherty, of course ,here were many but no matter for that in the army of M'Fadyen, tho lad that flung his \"own head after Lieutenant-Genei al Sir William Wallace, Baronet, K.T. and C G.B. or in the armies of Montrose which, by the by, were almost all of them Irish armies ; secundo, Find out that this glorious fellow being, of course, (as all gentlemen in those days were,) a Knight-Bachelor had been once no matter from what beastly ignorance, or from what low, fairing vulgarity, addressed    "},{"title":"Noctes ambrosian\u00e6,","author":"Wilson, John","year":"1863-01-01","url":"http:\/\/babel.hathitrust.org\/cgi\/pt?id=uc2.ark:\/13960\/t00z73n39","placename":"Poo","snippet":"Poo ! poo ! be not so sensitive.    "},{"title":"Noctes ambrosian\u00e6,","author":"Wilson, John","year":"1863-01-01","url":"http:\/\/babel.hathitrust.org\/cgi\/pt?id=uc2.ark:\/13960\/t00z73n39","placename":"Poo","snippet":"Poo ! poo ! he took the benefit of the cessio as usual.    "},{"title":"Noctes ambrosian\u00e6,","author":"Wilson, John","year":"1863-01-01","url":"http:\/\/babel.hathitrust.org\/cgi\/pt?id=uc2.ark:\/13960\/t00z73n39","placename":"Poo","snippet":"Poo, poo, Odoherty, you know as well as I that he had very little to do with that humbug.    "},{"title":"The library of choice literature :","author":null,"year":null,"url":"http:\/\/babel.hathitrust.org\/cgi\/pt?id=uc2.ark:\/13960\/t8rb6xx2s","placename":"Poo","snippet":"Poo, poo!    "},{"title":"The library of choice literature :","author":null,"year":null,"url":"http:\/\/babel.hathitrust.org\/cgi\/pt?id=uc2.ark:\/13960\/t8rb6xx2s","placename":"Poo","snippet":"Poo, poo, it is a foolish girl's whimsy : I'll have nothing to do with it.    "},{"title":"The library of choice literature :","author":null,"year":null,"url":"http:\/\/babel.hathitrust.org\/cgi\/pt?id=uc2.ark:\/13960\/t8rb6xx2s","placename":"Poo","snippet":"Poo, poo, get along, young gipsies, and don't tease me any more.    "}]