[{"title":"The works of Professor Wilson of the University of Edinburgh,","author":"Wilson, John","year":null,"url":"http:\/\/babel.hathitrust.org\/cgi\/pt?id=uc2.ark:\/13960\/t9k35v13q","placename":"Lockhart","snippet":"This droll old tippling sinner was a joker in his way, and to Lockhart and his friends, a subject of constant mystifications and quizzes which he partly saw through ; but his uncommon vanity mado him like the notice, and when at last the wags began to publish songs and ballads in his name, 0, then, he could not resist going into the delusion ! and though he had a horrid bad voice and hardly any ear, he would roar and sing the songs in every company as his own.    "},{"title":"Famous persons and places.","author":"Willis, Nathaniel Parker","year":"1854-01-01","url":"http:\/\/babel.hathitrust.org\/cgi\/pt?id=loc.ark:\/13960\/t9377vz62","placename":"Lockhart","snippet":"\" It was a barbarous and unjustifiable attack; and, oddly enough, I said so yesterday to Lockhart himself, who was here, and he differed from me entirely.    "},{"title":"Sunny memories of foreign lands.","author":"Stowe, Harriet Beecher","year":"1854-01-01","url":"http:\/\/babel.hathitrust.org\/cgi\/pt?id=nc01.ark:\/13960\/t2j67nj40","placename":"Lockhart","snippet":"What he vainly struggled to say to Lockhart on his death bed would have been a new revelation  of his soul to the world, could he have lived to unfold it in literature.    "},{"title":"Sunny memories of foreign lands \/","author":"Stowe, Harriet Beecher","year":"1854-01-01","url":"http:\/\/babel.hathitrust.org\/cgi\/pt?id=miun.adm0370.0001.001","placename":"Lockhart","snippet":"What he vainly struggled to sayto Lockhart on his death bed would have been a new revelation of his soul to the world, could he have lived to unfold itin literature.    "},{"title":"Last leaves;","author":"Smith, Alexander","year":"1868-01-01","url":"http:\/\/babel.hathitrust.org\/cgi\/pt?id=uc2.ark:\/13960\/t5x63jt3k","placename":"Lockhart","snippet":"Scott and Gait created the imaginative belt ; Jeffrey, Wilson, and Lockhart the critical belt.    "},{"title":"The journal of Sir Walter Scott,","author":"Scott, Walter","year":"1890-01-01","url":"http:\/\/babel.hathitrust.org\/cgi\/pt?id=uc2.ark:\/13960\/t9h41n97z","placename":"Lockhart","snippet":"2 Rees has given Cadell a written offer to be binding till the twelfth ; meantime I have written to Lockhart  to ask John Murray if he will treat for the fourth share of Marmion, which he possesses.    "},{"title":"The journal of Sir Walter Scott,","author":"Scott, Walter","year":"1890-01-01","url":"http:\/\/babel.hathitrust.org\/cgi\/pt?id=uc2.ark:\/13960\/t9h41n97z","placename":"Lockhart","snippet":"I worked in the morning, and think I have sent Croker a packet which may be useful, and to Lockhart a critique on rather a dry topic, viz.    "},{"title":"The journal of Sir Walter Scott,","author":"Scott, Walter","year":"1890-01-01","url":"http:\/\/babel.hathitrust.org\/cgi\/pt?id=uc2.ark:\/13960\/t9h41n97z","placename":"Lockhart","snippet":"Wrote a long letter to Lockhart about Williams' situation, saying how, by sitting betwixt two stools, he    "},{"title":"The journal of Sir Walter Scott,","author":"Scott, Walter","year":"1890-01-01","url":"http:\/\/babel.hathitrust.org\/cgi\/pt?id=uc2.ark:\/13960\/t9h41n97z","placename":"Lockhart","snippet":"But I wrote a letter to Lockhart in the meantime.    "},{"title":"The journal of Sir Walter Scott,","author":"Scott, Walter","year":"1890-01-01","url":"http:\/\/babel.hathitrust.org\/cgi\/pt?id=uc2.ark:\/13960\/t9h41n97z","placename":"Lockhart","snippet":"Wrote to Lockhart and to Charles, and will do more if I can, but am sadly done up.    "},{"title":"The journal of Sir Walter Scott,","author":"Scott, Walter","year":"1890-01-01","url":"http:\/\/babel.hathitrust.org\/cgi\/pt?id=uc2.ark:\/13960\/t9h41n97z","placename":"Lockhart","snippet":"This forenoon finished the review, and despatched it to Lockhart before dinner.    "},{"title":"The journal of Sir Walter Scott,","author":"Scott, Walter","year":"1891-01-01","url":"http:\/\/babel.hathitrust.org\/cgi\/pt?id=uc2.ark:\/13960\/t7jq0vz0t","placename":"Lockhart","snippet":"2 Rees has given Cadell a written offer to be binding till the twelfth ; meantime I have written to Lockhart to ask John Murray if he will treat for the fourth share of Marmion, which he possesses.    "},{"title":"The journal of Sir Walter Scott,","author":"Scott, Walter","year":"1891-01-01","url":"http:\/\/babel.hathitrust.org\/cgi\/pt?id=uc2.ark:\/13960\/t7jq0vz0t","placename":"Lockhart","snippet":"I worked in the morning, and think I have sent Croker  a packet which may be useful, and to Lockhart a critique on rather a dry topic, viz.    "},{"title":"The journal of Sir Walter Scott,","author":"Scott, Walter","year":"1891-01-01","url":"http:\/\/babel.hathitrust.org\/cgi\/pt?id=uc2.ark:\/13960\/t7jq0vz0t","placename":"Lockhart","snippet":"Wrote a long letter to Lockhart about Williams' situation,  saying how, by sitting betwixt two stools, he    "},{"title":"The journal of Sir Walter Scott,","author":"Scott, Walter","year":"1891-01-01","url":"http:\/\/babel.hathitrust.org\/cgi\/pt?id=uc2.ark:\/13960\/t7jq0vz0t","placename":"Lockhart","snippet":"But I wrote a letter to Lockhart in the meantime.    "},{"title":"The journal of Sir Walter Scott,","author":"Scott, Walter","year":"1891-01-01","url":"http:\/\/babel.hathitrust.org\/cgi\/pt?id=uc2.ark:\/13960\/t7jq0vz0t","placename":"Lockhart","snippet":"Wrote to Lockhart and to Charles, and will do more if I can, but am sadly done up.    "},{"title":"The journal of Sir Walter Scott,","author":"Scott, Walter","year":"1891-01-01","url":"http:\/\/babel.hathitrust.org\/cgi\/pt?id=uc2.ark:\/13960\/t7jq0vz0t","placename":"Lockhart","snippet":"This forenoon finished the review, and despatched it to Lockhart before dinner.    "},{"title":"The journal of Sir Walter Scott,","author":"Scott, Walter","year":"1891-01-01","url":"http:\/\/babel.hathitrust.org\/cgi\/pt?id=uc2.ark:\/13960\/t7jq0vz0t","placename":"Lockhart","snippet":"Yet I wish sincerely to help poor Hogg, and have written to Lockhart about it.    "},{"title":"The journal of Sir Walter Scott,","author":"Scott, Walter","year":"1891-01-01","url":"http:\/\/babel.hathitrust.org\/cgi\/pt?id=uc2.ark:\/13960\/t7jq0vz0t","placename":"Lockhart","snippet":"Sent off the packet to Lockhart ; at the same time sent Croker a volume of French tracts, containing La Porte- feuille de Bonaparte, which he wished to see.    "},{"title":"The journal of Sir Walter Scott,","author":"Scott, Walter","year":"1891-01-01","url":"http:\/\/babel.hathitrust.org\/cgi\/pt?id=uc2.ark:\/13960\/t7jq0vz0t","placename":"Lockhart","snippet":"Duke of Clarence in the Navy ? wild work- Scott to Lockhart : Lift, vol.    "},{"title":"The journal of Sir Walter Scott,","author":"Scott, Walter","year":"1891-01-01","url":"http:\/\/babel.hathitrust.org\/cgi\/pt?id=uc2.ark:\/13960\/t7jq0vz0t","placename":"Lockhart","snippet":"How if I send it to Lockhart by and by ?    "},{"title":"The journal of Sir Walter Scott,","author":"Scott, Walter","year":"1891-01-01","url":"http:\/\/babel.hathitrust.org\/cgi\/pt?id=uc2.ark:\/13960\/t7jq0vz0t","placename":"Lockhart","snippet":"all was right, that D' Israeli was sent to me, not to Lockhart, and that I was only invited to write two confidential letters, and other incoherencies  which intimate his fright has got into another quarter.    "},{"title":"The journal of Sir Walter Scott,","author":"Scott, Walter","year":"1891-01-01","url":"http:\/\/babel.hathitrust.org\/cgi\/pt?id=uc2.ark:\/13960\/t7jq0vz0t","placename":"Lockhart","snippet":"Other views are held out to Lockhart which may turn to great advantage.    "},{"title":"The journal of Sir Walter Scott,","author":"Scott, Walter","year":"1891-01-01","url":"http:\/\/babel.hathitrust.org\/cgi\/pt?id=loc.ark:\/13960\/t6rz05s28","placename":"Lockhart","snippet":"I should have done more, but my head, as Squire Sullen says, \" aiked consumedly.\"^ Rees has given Cadell a written offer to be binding till the twelfth ; meantime T have written to Lockhart to ask John Murray if he will treat for the fourth share of Marmion, which he possesses.    "},{"title":"The journal of Sir Walter Scott,","author":"Scott, Walter","year":"1891-01-01","url":"http:\/\/babel.hathitrust.org\/cgi\/pt?id=loc.ark:\/13960\/t6rz05s28","placename":"Lockhart","snippet":"\u2014 I worked in the morning, and think I have sent Croker  a packet which may be useful, and to Lockhart a critique on rather a dry topic, viz.    "},{"title":"The journal of Sir Walter Scott,","author":"Scott, Walter","year":"1891-01-01","url":"http:\/\/babel.hathitrust.org\/cgi\/pt?id=loc.ark:\/13960\/t6rz05s28","placename":"Lockhart","snippet":"\u2014 Wrote a long letter to Lockhart about Williams' situation,  saying how, by sitting betwixt two stools, he    "},{"title":"The journal of Sir Walter Scott,","author":"Scott, Walter","year":"1891-01-01","url":"http:\/\/babel.hathitrust.org\/cgi\/pt?id=loc.ark:\/13960\/t6rz05s28","placename":"Lockhart","snippet":"But I wrote a letter to Lockhart in the meantime.    "},{"title":"The journal of Sir Walter Scott,","author":"Scott, Walter","year":"1891-01-01","url":"http:\/\/babel.hathitrust.org\/cgi\/pt?id=loc.ark:\/13960\/t6rz05s28","placename":"Lockhart","snippet":"Wrote to Lockhart and to Charles, and will do more if I can, but am sadly done up.    "},{"title":"The journal of Sir Walter Scott,","author":"Scott, Walter","year":"1891-01-01","url":"http:\/\/babel.hathitrust.org\/cgi\/pt?id=loc.ark:\/13960\/t6rz05s28","placename":"Lockhart","snippet":"\u2014 This forenoon finished the review, and despatched it to Lockhart before dinner.    "},{"title":"The journal of Sir Walter Scott,","author":"Scott, Walter","year":"1891-01-01","url":"http:\/\/babel.hathitrust.org\/cgi\/pt?id=loc.ark:\/13960\/t6rz05s28","placename":"Lockhart","snippet":"Yet I wish sincerely to help poor Hogg, and have written to Lockhart about it.    "},{"title":"The journal of Sir Walter Scott,","author":"Scott, Walter","year":"1891-01-01","url":"http:\/\/babel.hathitrust.org\/cgi\/pt?id=loc.ark:\/13960\/t6rz05s28","placename":"Lockhart","snippet":"Sent off the packet to Lockhart ; at the same time sent Croker a volume of French tracts, containing La Porte- feuille de Bonaparte, which he wished to see.    "},{"title":"The journal of Sir Walter Scott,","author":"Scott, Walter","year":"1891-01-01","url":"http:\/\/babel.hathitrust.org\/cgi\/pt?id=loc.ark:\/13960\/t6rz05s28","placename":"Lockhart","snippet":"crisis will be found in his letters to Lockhart    "},{"title":"The journal of Sir Walter Scott,","author":"Scott, Walter","year":"1891-01-01","url":"http:\/\/babel.hathitrust.org\/cgi\/pt?id=loc.ark:\/13960\/t6rz05s28","placename":"Lockhart","snippet":"How if I send it to Lockhart by and by ?    "},{"title":"The journal of Sir Walter Scott,","author":"Scott, Walter","year":"1891-01-01","url":"http:\/\/babel.hathitrust.org\/cgi\/pt?id=loc.ark:\/13960\/t6rz05s28","placename":"Lockhart","snippet":"all was right, that D' Israeli was sent to me, not to Lockhart, and that I was only invited to write two confidential letters, and other incoherencies  \u2014 which intimate his fright has got into another quarter.    "},{"title":"The journal of Sir Walter Scott,","author":"Scott, Walter","year":"1891-01-01","url":"http:\/\/babel.hathitrust.org\/cgi\/pt?id=loc.ark:\/13960\/t6rz05s28","placename":"Lockhart","snippet":"Other views are held out to Lockhart which may turn to great advantage.    "},{"title":"Library notes,","author":"Russell, A. P.","year":"1903-01-01","url":"http:\/\/babel.hathitrust.org\/cgi\/pt?id=loc.ark:\/13960\/t49p3m46v","placename":"Lockhart","snippet":"That Professor Wilson, whose same in great part rests upon Noctes Ambrosianae,  was indebted to Lockhart for the idea, who jvrote the first of those famous papers, and gave them    "},{"title":"Memoirs, journal, and correspondence of Thomas Moore.","author":"Moore, Thomas","year":null,"url":"http:\/\/babel.hathitrust.org\/cgi\/pt?id=uc2.ark:\/13960\/t8df6rh3r","placename":"Lockhart","snippet":"Present  the two solicitors, young Turner and Clark, and Lockhart the witness.    "},{"title":"Memoirs of the life of Sir Walter Scott,","author":"Lockhart, J. G.","year":null,"url":"http:\/\/babel.hathitrust.org\/cgi\/pt?id=uc2.ark:\/13960\/t24b2xb0f","placename":"Lockhart","snippet":"Yet I wish sincerely  to help poor Hogg, and have written to Lockhart about it.    "},{"title":"Memoirs of the life of Sir Walter Scott,","author":"Lockhart, J. G.","year":null,"url":"http:\/\/babel.hathitrust.org\/cgi\/pt?id=uc2.ark:\/13960\/t24b2xb0f","placename":"Lockhart","snippet":"How if I send it to Lockhart by and by ?    "},{"title":"Rambles with an American,","author":"[Jacques, Edward Tyrell]","year":"1910-01-01","url":"http:\/\/babel.hathitrust.org\/cgi\/pt?id=uc2.ark:\/13960\/t0qr4r11f","placename":"Lockhart","snippet":"Sophia Scott was married to Lockhart  there ; I suppose in the drawing-room that room on the first floor.\"    "},{"title":"Traditions of Edinburgh.","author":"Chambers, Robert","year":"1847-01-01","url":"http:\/\/babel.hathitrust.org\/cgi\/pt?id=uc2.ark:\/13960\/t80k29d0q","placename":"Lockhart","snippet":"On the east side of the wynd, nearly opposite to Lockhart' s Court, was a good house,t which, early in the last century, was possessed by James Erskine of Grange, best    "},{"title":"Story of Maurice Lestrange. Being an account of his travels and adventures in Scotland during the year 1765. [A tale.]","author":"Omond, George William Thomson.","year":"1896-01-01","url":"https:\/\/historicaltexts.jisc.ac.uk\/bl-002709091","placename":"Lockhart","snippet":"What do you say, Lockhart ? \"    "}]