[{"title":"Wilson's Tales of the Borders and of Scotland, Volume 18","author":"Alexander Leighton","year":null,"url":"http:\/\/www.gutenberg.org\/ebooks\/39759","placename":"Carstairs","snippet":"This was the strong view taken by thosewho fought and who fell at Bothwell Bridge, and this was the view takenby nine-tenths of the inhabitants of Scotland--of the descendants andadmirers of Bruce and Wallace--of Knox and Carstairs.    "},{"title":"Wilson's Tales of the Borders and of Scotland, Volume 18","author":"Alexander Leighton","year":null,"url":"http:\/\/www.gutenberg.org\/ebooks\/39759","placename":"Carstairs","snippet":"This was the strong view taken by thosewho fought and who fell at Bothwell Bridge, and this was the view takenby nine-tenths of the inhabitants of Scotland--of the descendants andadmirers of Bruce and Wallace--of Knox and Carstairs.    "},{"title":"Wilson's Tales of the Borders and of Scotland, Volume 21","author":"Alexander Leighton","year":null,"url":"http:\/\/www.gutenberg.org\/ebooks\/37336","placename":"Carstairs","snippet":"\"That's the rector o' Carstairs'.\"    "},{"title":"Wilson's Tales of the Borders and of Scotland, Volume 21","author":"Alexander Leighton","year":null,"url":"http:\/\/www.gutenberg.org\/ebooks\/37336","placename":"Carstairs","snippet":"\"That's the rector o' Carstairs'.\"    "},{"title":"Curriculum Vitae: A Volume of Autobiography","author":"Spark, Muriel","year":null,"url":null,"placename":"Carstairs","snippet":"The most amazing thing was, before the train started to go Mother would be giving our sandwiches to any other people in the carriage, so that by the time we got to Carstairs, all the food was gone and we had to wait until we got to Crewe to get a cup of tea from the wagon that came around.    "},{"title":"The Dead Beat","author":"Johnstone, Doug","year":null,"url":null,"placename":"Carstairs","snippet":"'But even with a history of mental instability, Johnny was in Carstairs for so long.'    "},{"title":"The Dead Beat","author":"Johnstone, Doug","year":null,"url":null,"placename":"Carstairs","snippet":"'You being locked up in Carstairs.'    "},{"title":"The Dead Beat","author":"Johnstone, Doug","year":null,"url":null,"placename":"Carstairs","snippet":"Started with her dad's suicide, her first day in the office, Gordon's call, Ian's journal, Carstairs, the Royal Edinburgh, and now Rose.    "},{"title":"The Dead Beat","author":"Johnstone, Doug","year":null,"url":null,"placename":"Carstairs","snippet":"'They don't get a prescribed sentence, not at Carstairs.    "},{"title":"The Dead Beat","author":"Johnstone, Doug","year":null,"url":null,"placename":"Carstairs","snippet":"Johnny spent, what, twenty-one years in Carstairs?    "},{"title":"The Dead Beat","author":"Johnstone, Doug","year":null,"url":null,"placename":"Carstairs","snippet":"Johnny was switched from Carstairs to the Royal a couple of months ago.    "},{"title":"The Dead Beat","author":"Johnstone, Doug","year":null,"url":null,"placename":"Carstairs","snippet":"'But he was sent here from Carstairs, wasn't he?'    "},{"title":"The Dead Beat","author":"Johnstone, Doug","year":null,"url":null,"placename":"Carstairs","snippet":"'He's not in Carstairs any more,' she said.    "},{"title":"The Dead Beat","author":"Johnstone, Doug","year":null,"url":null,"placename":"Carstairs","snippet":"'Me and Billy were at Carstairs.'    "},{"title":"The Dead Beat","author":"Johnstone, Doug","year":null,"url":null,"placename":"Carstairs","snippet":"Halfway to Carstairs she got a call from Cal.    "},{"title":"The Dead Beat","author":"Johnstone, Doug","year":null,"url":null,"placename":"Carstairs","snippet":"'Billy, what do you know about Carstairs psychiatric hospital?'    "},{"title":"The Dead Beat","author":"Johnstone, Doug","year":null,"url":null,"placename":"Carstairs","snippet":"'What do you know about Carstairs?'    "},{"title":"Ghost Moon","author":"Butlin, Ron","year":null,"url":null,"placename":"Carstairs","snippet":"Lockerbie, Carstairs, Glasgow Central and then the West Highland Line to Mallaig, the ferry across to Lewis \u2013 h    "},{"title":"Weir of Hermiston :","author":"Stevenson, Robert Louis","year":"1920-01-01","url":"http:\/\/babel.hathitrust.org\/cgi\/pt?id=uc2.ark:\/13960\/t8z895z3x","placename":"Carstairs","snippet":"But the Judge eked out what was wanting  with kind looks, produced his snuff-box (which was very rarely seen) to fill in a pause, and at last, despairing of any further social success, was upon the point of getting down a book to read a favourite  passage, when there came a rather startling summons at the front door, and Carstairs ushered in my Lord Glenkindie, hot from a midnight    "},{"title":"Weir of Hermiston :","author":"Stevenson, Robert Louis","year":"1920-01-01","url":"http:\/\/babel.hathitrust.org\/cgi\/pt?id=uc2.ark:\/13960\/t8z895z3x","placename":"Carstairs","snippet":"Carstairs returned at this moment, and rapidly laid out a little supper ; during which Lord Glenalmond  spoke at large and a little vaguely on indifferent  subjects, so that it might be rather said of him that he made a cheerful noise, than that he contributed to human conversation; and Archie sat upon the other side, not heeding him, brooding over his wrongs and errors.    "},{"title":"Weir of Hermiston :","author":"Stevenson, Robert Louis","year":"1920-01-01","url":"http:\/\/babel.hathitrust.org\/cgi\/pt?id=uc2.ark:\/13960\/t8z895z3x","placename":"Carstairs","snippet":"Carstairs \" (to his servant), \"make up the fire, and then you can bring a bit of supper,\" and again to Archie, with a very trivial accent : \" I was half expecting you,\" he added.    "},{"title":"Recollections of a Visit to Glasgow with the British Arch\u00e6ological Associations, August 27th to September 5th, 1888. With notes","author":"Lambert, George","year":"1891-01-01","url":"https:\/\/historicaltexts.jisc.ac.uk\/bl-002059679","placename":"Carstairs","snippet":"The entire possessions of the See at the Reformation were the seven baronies and regalities of Glasgow\u2014Carstairs, Stobo, Eddilstoun, Ancrum, Ashkirk, and Lilliesleaf, with the Bishop's Forest and other little things ofcomparatively trifling value in Carrick, Lothian, and elsewhere.    "},{"title":"Night-Lights. Shadows from a doctor's reading-lamp","author":"Frost, Arthur Broadfield.","year":null,"url":"https:\/\/historicaltexts.jisc.ac.uk\/bl-001335326","placename":"Carstairs","snippet":"I always hate that half-hour or so between Carstairs    "}]