[{"title":"The Works of Robert Louis Stevenson - Swanston Edition, Vol. 20","author":"Stevenson, Robert Louis","year":null,"url":"http:\/\/www.gutenberg.org\/ebooks\/30849","placename":"Leadburn","snippet":"Ye'll be from Leadburn, I'm thinkin'?\"    "},{"title":"The Works of Robert Louis Stevenson - Swanston Edition, Vol. 20","author":"Stevenson, Robert Louis","year":null,"url":"http:\/\/www.gutenberg.org\/ebooks\/30849","placename":"Leadburn","snippet":"Ye'll be from Leadburn, I'm thinkin'?\"    "},{"title":"John Burnet of Barns: A Romance","author":"Buchan, John","year":null,"url":"http:\/\/www.gutenberg.org\/ebooks\/40014","placename":"Leadburn","snippet":"At Leadburn was the inn where I had first met my servant Nicol, mytrusty comrade through so many varying fates.    "},{"title":"John Burnet of Barns: A Romance","author":"Buchan, John","year":null,"url":"http:\/\/www.gutenberg.org\/ebooks\/40014","placename":"Leadburn","snippet":"Soin a little, when the lights of Penicuik were well on the left, I cameto the Hawes Burn, which passes the Inn of Leadburn, and tracking itdownward, came to the bald white house which does duty for a hostel.    "},{"title":"John Burnet of Barns: A Romance","author":"Buchan, John","year":null,"url":"http:\/\/www.gutenberg.org\/ebooks\/40014","placename":"Leadburn","snippet":"And see, gin ye tak my advice and gin ye're gaun toBarns, gang off the Peebles road at Leadburn, and haud doun by theBrochtoun and Newlands ways, for a' the way atween Leadburn and Peeblesis hotchin' wi' sodgers and what-ye-may-ca'-thems.    "},{"title":"John Burnet of Barns: A Romance","author":"Buchan, John","year":null,"url":"http:\/\/www.gutenberg.org\/ebooks\/40014","placename":"Leadburn","snippet":"And see, gin ye tak my advice and gin ye're gaun toBarns, gang off the Peebles road at Leadburn, and haud doun by theBrochtoun and Newlands ways, for a' the way atween Leadburn and Peeblesis hotchin' wi' sodgers and what-ye-may-ca'-thems.    "},{"title":"John Burnet of Barns: A Romance","author":"Buchan, John","year":null,"url":"http:\/\/www.gutenberg.org\/ebooks\/40014","placename":"Leadburn","snippet":"I came to Leadburn about eleven o'clock in the forenoon, somewhat coldin body, but brisk and comforted in spirit.    "},{"title":"John Burnet of Barns: A Romance","author":"Buchan, John","year":null,"url":"http:\/\/www.gutenberg.org\/ebooks\/40014","placename":"Leadburn","snippet":"I scarce delayed inEddleston, but pushed on up the valley, expecting to get dinner at theinn at Leadburn, which stands at the watershed, just where the county ofEdinburgh touches our shire of Tweeddale.    "},{"title":"John Burnet of Barns: A Romance","author":"Buchan, John","year":null,"url":"http:\/\/www.gutenberg.org\/ebooks\/40014","placename":"Leadburn","snippet":"At Leadburn was the inn where I had first met my servant Nicol, mytrusty comrade through so many varying fates.    "},{"title":"John Burnet of Barns: A Romance","author":"Buchan, John","year":null,"url":"http:\/\/www.gutenberg.org\/ebooks\/40014","placename":"Leadburn","snippet":"Soin a little, when the lights of Penicuik were well on the left, I cameto the Hawes Burn, which passes the Inn of Leadburn, and tracking itdownward, came to the bald white house which does duty for a hostel.    "},{"title":"John Burnet of Barns: A Romance","author":"Buchan, John","year":null,"url":"http:\/\/www.gutenberg.org\/ebooks\/40014","placename":"Leadburn","snippet":"And see, gin ye tak my advice and gin ye're gaun toBarns, gang off the Peebles road at Leadburn, and haud doun by theBrochtoun and Newlands ways, for a' the way atween Leadburn and Peeblesis hotchin' wi' sodgers and what-ye-may-ca'-thems.    "},{"title":"John Burnet of Barns: A Romance","author":"Buchan, John","year":null,"url":"http:\/\/www.gutenberg.org\/ebooks\/40014","placename":"Leadburn","snippet":"And see, gin ye tak my advice and gin ye're gaun toBarns, gang off the Peebles road at Leadburn, and haud doun by theBrochtoun and Newlands ways, for a' the way atween Leadburn and Peeblesis hotchin' wi' sodgers and what-ye-may-ca'-thems.    "},{"title":"John Burnet of Barns: A Romance","author":"Buchan, John","year":null,"url":"http:\/\/www.gutenberg.org\/ebooks\/40014","placename":"Leadburn","snippet":"I came to Leadburn about eleven o'clock in the forenoon, somewhat coldin body, but brisk and comforted in spirit.    "},{"title":"John Burnet of Barns: A Romance","author":"Buchan, John","year":null,"url":"http:\/\/www.gutenberg.org\/ebooks\/40014","placename":"Leadburn","snippet":"I scarce delayed inEddleston, but pushed on up the valley, expecting to get dinner at theinn at Leadburn, which stands at the watershed, just where the county ofEdinburgh touches our shire of Tweeddale.    "},{"title":"John Burnet of Barns: A Romance","author":"Buchan, John","year":null,"url":"http:\/\/www.gutenberg.org\/ebooks\/40014","placename":"Leadburn","snippet":"At Leadburn was the inn where I had first met my servant Nicol, mytrusty comrade through so many varying fates.    "},{"title":"John Burnet of Barns: A Romance","author":"Buchan, John","year":null,"url":"http:\/\/www.gutenberg.org\/ebooks\/40014","placename":"Leadburn","snippet":"Soin a little, when the lights of Penicuik were well on the left, I cameto the Hawes Burn, which passes the Inn of Leadburn, and tracking itdownward, came to the bald white house which does duty for a hostel.    "},{"title":"John Burnet of Barns: A Romance","author":"Buchan, John","year":null,"url":"http:\/\/www.gutenberg.org\/ebooks\/40014","placename":"Leadburn","snippet":"And see, gin ye tak my advice and gin ye're gaun toBarns, gang off the Peebles road at Leadburn, and haud doun by theBrochtoun and Newlands ways, for a' the way atween Leadburn and Peeblesis hotchin' wi' sodgers and what-ye-may-ca'-thems.    "},{"title":"John Burnet of Barns: A Romance","author":"Buchan, John","year":null,"url":"http:\/\/www.gutenberg.org\/ebooks\/40014","placename":"Leadburn","snippet":"And see, gin ye tak my advice and gin ye're gaun toBarns, gang off the Peebles road at Leadburn, and haud doun by theBrochtoun and Newlands ways, for a' the way atween Leadburn and Peeblesis hotchin' wi' sodgers and what-ye-may-ca'-thems.    "},{"title":"John Burnet of Barns: A Romance","author":"Buchan, John","year":null,"url":"http:\/\/www.gutenberg.org\/ebooks\/40014","placename":"Leadburn","snippet":"I came to Leadburn about eleven o'clock in the forenoon, somewhat coldin body, but brisk and comforted in spirit.    "},{"title":"John Burnet of Barns: A Romance","author":"Buchan, John","year":null,"url":"http:\/\/www.gutenberg.org\/ebooks\/40014","placename":"Leadburn","snippet":"I scarce delayed inEddleston, but pushed on up the valley, expecting to get dinner at theinn at Leadburn, which stands at the watershed, just where the county ofEdinburgh touches our shire of Tweeddale.    "},{"title":"Spare Hours","author":"Brown, John","year":null,"url":"http:\/\/www.gutenberg.org\/ebooks\/27153","placename":"Leadburn","snippet":"She told me that one day she sawJames coming down from Leadburn with the cart; he had been away west,getting eggs and butter, cheese and hens for Edinburgh.    "},{"title":"Spare Hours","author":"Brown, John","year":null,"url":"http:\/\/www.gutenberg.org\/ebooks\/27153","placename":"Leadburn","snippet":"She told me that one day she sawJames coming down from Leadburn with the cart; he had been away west,getting eggs and butter, cheese and hens for Edinburgh.    "},{"title":"St. Ives; being the adventures of a French prisoner in England.","author":"Stevenson, Robert Louis","year":null,"url":"http:\/\/babel.hathitrust.org\/cgi\/pt?id=uc2.ark:\/13960\/t6tx37p44","placename":"Leadburn","snippet":"Ye'll be from Leadburn, I'm thinkin' ? \"    "},{"title":"St. Ives,","author":"Stevenson, Robert Louis","year":"1898-01-01","url":"http:\/\/babel.hathitrust.org\/cgi\/pt?id=uc2.ark:\/13960\/t58d00d3m","placename":"Leadburn","snippet":"Ye '11 be from Leadburn, I 'm thinkin' ?'    "},{"title":"[Works]","author":"Stevenson, Robert Louis","year":"1910-01-01","url":"http:\/\/babel.hathitrust.org\/cgi\/pt?id=uc2.ark:\/13960\/t0gt5gx25","placename":"Leadburn","snippet":"Yell be from Leadburn, I'm thinkin'?\"    "},{"title":"The novels and tales of Robert Louis Stevenson.","author":"Stevenson, Robert Louis","year":"1903-01-01","url":"http:\/\/babel.hathitrust.org\/cgi\/pt?id=uc2.ark:\/13960\/t00001k38","placename":"Leadburn","snippet":"Ye'll be from Leadburn, I'm thinkin' ? \"    "},{"title":"Horae subsecivae.","author":"Brown, John","year":"1893-01-01","url":"http:\/\/babel.hathitrust.org\/cgi\/pt?id=loc.ark:\/13960\/t8mc9js2p","placename":"Leadburn","snippet":"She told me that one day she saw James coming down from Leadburn with the cart ; he had been away west, getting eggs and butter, cheese and hens, for Edinburgh.    "},{"title":"St. Ives: being the adventures of a French prisoner in England. [Completed by A. T. Quiller-Couch.]","author":"Stevenson, Robert Louis","year":null,"url":"https:\/\/historicaltexts.jisc.ac.uk\/bl-003501502","placename":"Leadburn","snippet":"Ye '11 be from Leadburn, I 'm thinkin' ?'    "}]