[{"title":"Leaves from the journal of our life in the Highlands, from 1848 to 1861 :","author":"Victoria","year":"1868-01-01","url":"http:\/\/babel.hathitrust.org\/cgi\/pt?id=yale.39002001723692","placename":"Bonnyrigg","snippet":"The Duchess told us there were many of thesecaves all along the river to Rosslyn. We came home through Bonnyrigg, anothercollier village, and through Dalkeith. Thursday, September 15.    "},{"title":"Trainspotting","author":"Welsh, Irvine","year":null,"url":null,"placename":"Bonnyrigg","snippet":"It was her Auntie Cathy and Uncle Davie. They had made good time from Leith out to Bonnyrigg.    "},{"title":"Skagboys","author":"Welsh, Irvine","year":null,"url":null,"placename":"Bonnyrigg","snippet":"We baith notice that Fiona and slimy Geoff fae Bonnyrigg areapproaching. If that cunt's been chattin her up . . .    "},{"title":"Leaves from the journal of our life in the Highlands, from 1848 to 1861.","author":"Victoria","year":"1868-01-01","url":"http:\/\/babel.hathitrust.org\/cgi\/pt?id=yale.39002032015217","placename":"Bonnyrigg","snippet":"The Duchess told us there were many of thesecaves aU along the river to Rosslyn. We came home through Bonnyrigg, anothercollier vUlage, and through Dalkeith.    "},{"title":"Leaves from the journal of our life in the Highlands, from 1848 to 1861.","author":"Victoria","year":"1868-01-01","url":"http:\/\/babel.hathitrust.org\/cgi\/pt?id=uc2.ark:\/13960\/t4kk9bn60","placename":"Bonnyrigg","snippet":"We came home through Bonnyrigg, another collier village, and through Dalkeith.    "},{"title":"Trainspotting","author":"Welsh, Irvine","year":null,"url":null,"placename":"Bonnyrigg","snippet":"The by-pass makes a difference. Pick it up just ootside Portobellah, git off jist before Bonnyrigg, Davie explained dutifully.    "},{"title":"Trainspotting","author":"Welsh, Irvine","year":null,"url":null,"placename":"Bonnyrigg","snippet":"Her Auntie Cathy and Uncle Davie (he was from Glasgow and a Protestant), had two sons: Billy, who had just come out of the army, and Mark, who was supposed to be into drugs. They were not here, as they hardly knew Andy or any of the Bonnyrigg crowd. They would probably be at the funeral.    "},{"title":"The Story of My Life, volumes 4-6","author":"Hare, Augustus J. C. (Augustus John Cuthbert)","year":null,"url":"http:\/\/www.gutenberg.org\/ebooks\/42770","placename":"Bonnyrigg","snippet":"Bonnyrigg, ii. 341.    "},{"title":"The Story of My Life, volumes 4-6","author":"Hare, Augustus J. C. (Augustus John Cuthbert)","year":null,"url":"http:\/\/www.gutenberg.org\/ebooks\/42770","placename":"Bonnyrigg","snippet":"Bonnyrigg, ii. 341.    "}]