[{"title":"The Works of Robert Louis Stevenson - Swanston Edition, Vol. 20","author":"Stevenson, Robert Louis","year":null,"url":"http:\/\/www.gutenberg.org\/ebooks\/30849","placename":"Howden","snippet":"\"The top o' Howden, sure eneuch,\" said Candlish.    "},{"title":"The Works of Robert Louis Stevenson - Swanston Edition, Vol. 20","author":"Stevenson, Robert Louis","year":null,"url":"http:\/\/www.gutenberg.org\/ebooks\/30849","placename":"Howden","snippet":"\"Weel,\" he said, \"here we're at the top o' Howden.\"    "},{"title":"The Works of Robert Louis Stevenson - Swanston Edition, Vol. 20","author":"Stevenson, Robert Louis","year":null,"url":"http:\/\/www.gutenberg.org\/ebooks\/30849","placename":"Howden","snippet":"\"The top o' Howden, sure eneuch,\" said Candlish.    "},{"title":"The Works of Robert Louis Stevenson - Swanston Edition, Vol. 20","author":"Stevenson, Robert Louis","year":null,"url":"http:\/\/www.gutenberg.org\/ebooks\/30849","placename":"Howden","snippet":"\"Weel,\" he said, \"here we're at the top o' Howden.\"    "},{"title":"St. Ives; being the adventures of a French prisoner in England.","author":"Stevenson, Robert Louis","year":null,"url":"http:\/\/babel.hathitrust.org\/cgi\/pt?id=uc2.ark:\/13960\/t6tx37p44","placename":"Howden","snippet":"\"The top o' Howden, sure eneuch,\" said Candlish.    "},{"title":"St. Ives; being the adventures of a French prisoner in England.","author":"Stevenson, Robert Louis","year":null,"url":"http:\/\/babel.hathitrust.org\/cgi\/pt?id=uc2.ark:\/13960\/t6tx37p44","placename":"Howden","snippet":"\" Weel,\" he said, \" here we're at the top o' Howden.\"    "},{"title":"St. Ives,","author":"Stevenson, Robert Louis","year":"1898-01-01","url":"http:\/\/babel.hathitrust.org\/cgi\/pt?id=uc2.ark:\/13960\/t58d00d3m","placename":"Howden","snippet":"'The top o' Howden.    "},{"title":"St. Ives,","author":"Stevenson, Robert Louis","year":"1898-01-01","url":"http:\/\/babel.hathitrust.org\/cgi\/pt?id=uc2.ark:\/13960\/t58d00d3m","placename":"Howden","snippet":"'Weel,' he said, 'here we 're at the top o' Howden.'    "},{"title":"St. Ives;","author":"Stevenson, Robert Louis","year":"1897-01-01","url":"http:\/\/babel.hathitrust.org\/cgi\/pt?id=uc2.ark:\/13960\/t2988b585","placename":"Howden","snippet":"\" The top o' Howden, sure eneuch\/' said Candlish.    "},{"title":"St. Ives;","author":"Stevenson, Robert Louis","year":"1897-01-01","url":"http:\/\/babel.hathitrust.org\/cgi\/pt?id=uc2.ark:\/13960\/t2988b585","placename":"Howden","snippet":"^' Weel,'^ he said, \" here we're at the top o' Howden.\"    "},{"title":"[Works]","author":"Stevenson, Robert Louis","year":"1910-01-01","url":"http:\/\/babel.hathitrust.org\/cgi\/pt?id=uc2.ark:\/13960\/t0gt5gx25","placename":"Howden","snippet":"\" The top o' Howden, sure eneuch,\" said Candlish.    "},{"title":"[Works]","author":"Stevenson, Robert Louis","year":"1910-01-01","url":"http:\/\/babel.hathitrust.org\/cgi\/pt?id=uc2.ark:\/13960\/t0gt5gx25","placename":"Howden","snippet":"\" Weel,\" he said, \" here we're at the top o' Howden.\"    "},{"title":"The novels and tales of Robert Louis Stevenson.","author":"Stevenson, Robert Louis","year":"1903-01-01","url":"http:\/\/babel.hathitrust.org\/cgi\/pt?id=uc2.ark:\/13960\/t00001k38","placename":"Howden","snippet":"\"The top o' Howden, sure eneuch,\" said Candlish.    "},{"title":"The novels and tales of Robert Louis Stevenson.","author":"Stevenson, Robert Louis","year":"1903-01-01","url":"http:\/\/babel.hathitrust.org\/cgi\/pt?id=uc2.ark:\/13960\/t00001k38","placename":"Howden","snippet":"\" Weel,\" he said, \" here we're at the top o' Howden.\"    "},{"title":"The heart of Midlothian;","author":"Scott, Walter","year":null,"url":"http:\/\/babel.hathitrust.org\/cgi\/pt?id=uc2.ark:\/13960\/t2x34zf8j","placename":"Howden","snippet":"cows, 442 Highwaymen on the North Road, 284 Howden, Mrs., on Porteous's reprieve,    "},{"title":"St. Ives: being the adventures of a French prisoner in England. [Completed by A. T. Quiller-Couch.]","author":"Stevenson, Robert Louis","year":null,"url":"https:\/\/historicaltexts.jisc.ac.uk\/bl-003501502","placename":"Howden","snippet":"' The top o' Howden, sure eneuch,' said Candlish.    "},{"title":"St. Ives: being the adventures of a French prisoner in England. [Completed by A. T. Quiller-Couch.]","author":"Stevenson, Robert Louis","year":null,"url":"https:\/\/historicaltexts.jisc.ac.uk\/bl-003501502","placename":"Howden","snippet":"' Weel\/ he said, ' here we 're at the top o' Howden.'    "},{"title":"The Heart of Mid-Lothian.","author":"Scott, Walter","year":null,"url":"https:\/\/historicaltexts.jisc.ac.uk\/bl-003317343","placename":"Howden","snippet":"\" Hout, neighbour,\" said Mrs, Howden, \" we suld live and letlive\u2014we hae been young oursells, and we are no aye to judge thewarst when lads and lasses forgather.\"    "},{"title":"Reminiscences of Yarrow. Edited and annotated by ... Professor Veitch, LL.D. Illustrated by Tom Scott ... Second edition","author":"Russell, James","year":"1894-01-01","url":"https:\/\/historicaltexts.jisc.ac.uk\/bl-003193748","placename":"Howden","snippet":"Thenext day the roads were one sheet of ice; and theRev. Mr Oliver of Maxton, finding the post-chaisein which he was proceeding up Ettrick curling somuch on the brae at Howden, durst not venturefarther, and returned to Selkirk.    "}]