[{"title":"Skagboys","author":"Welsh, Irvine","year":null,"url":null,"placename":"Edinburgh South","snippet":"Norman Vincente, 45, Edinburgh South, wine bar proprietor, father ofthree, unprotected sexual contact with intravenous drug user.    "},{"title":"Skagboys","author":"Welsh, Irvine","year":null,"url":null,"placename":"Edinburgh South","snippet":"Angela Towers, 20, Edinburgh South, retail worker, British Home Stores,route of transmission undisclosed.    "},{"title":"Skagboys","author":"Welsh, Irvine","year":null,"url":null,"placename":"Edinburgh South","snippet":"George Thake, 22, Edinburgh South, University of Edinburgh accountancy student and Duke of Edinburgh Award recipient, intravenous druguse.    "},{"title":"Skagboys","author":"Welsh, Irvine","year":null,"url":null,"placename":"Edinburgh South","snippet":"Kenneth Stirling, 24, Edinburgh South, unemployed, intravenous druguse.    "},{"title":"Skagboys","author":"Welsh, Irvine","year":null,"url":null,"placename":"Edinburgh South","snippet":"Scott Samuels, 27, Edinburgh South, karate instructor, unprotected sexualcontact with intravenous drug user.    "},{"title":"Skagboys","author":"Welsh, Irvine","year":null,"url":null,"placename":"Edinburgh South","snippet":"Colin Jefferies, 22, Edinburgh South, clerical officer in GPO and singer\/guitarist in rock 'n' roll band, intravenous drug use.    "},{"title":"Skagboys","author":"Welsh, Irvine","year":null,"url":null,"placename":"Edinburgh South","snippet":"Nigel Jamieson, 18, Edinburgh South, unemployed, intravenous drug use.    "},{"title":"Skagboys","author":"Welsh, Irvine","year":null,"url":null,"placename":"Edinburgh South","snippet":"514Andrew Garner, 23, Edinburgh South, unemployed, intravenous druguse.    "},{"title":"Skagboys","author":"Welsh, Irvine","year":null,"url":null,"placename":"Edinburgh South","snippet":"Bradley Davidson, 17, Edinburgh South,YTS Edinburgh Council, intravenous drug use.    "},{"title":"Skagboys","author":"Welsh, Irvine","year":null,"url":null,"placename":"Edinburgh South","snippet":"George Park, 27, Edinburgh South, unemployed labourer, father of one,intravenous drug use.    "}]