[{"title":"Memoirs of the Life of Sir Walter Scott, Volume 6","author":"Lockhart, J. G. (John Gibson)","year":null,"url":"http:\/\/www.gutenberg.org\/ebooks\/37631","placename":"Airdrie","snippet":"It is high to hear these young fellows talk of the Raid     of Airdrie, the trot of Kilmarnock, and so on, like so many     moss-troopers.    "},{"title":"Memoirs of the Life of Sir Walter Scott, Volume 6","author":"Lockhart, J. G. (John Gibson)","year":null,"url":"http:\/\/www.gutenberg.org\/ebooks\/37631","placename":"Airdrie","snippet":"It is high to hear these young fellows talk of the Raid     of Airdrie, the trot of Kilmarnock, and so on, like so many     moss-troopers.    "},{"title":"The Sunday Philosophy Club","author":"McCall Smith, Alexander","year":null,"url":null,"placename":"Airdrie","snippet":"He would do it for a year, and then back to crime in some place like Airdrie or Bathgate.    "},{"title":"The Right Attitude to Rain","author":"McCall Smith, Alexander","year":null,"url":null,"placename":"Airdrie","snippet":"homes in Dunfermline or Airdrie or somewhere, running away from abuse or tyranny, or sheer disorder.    "},{"title":"And the Land Lay Still","author":"Robertson, James","year":null,"url":null,"placename":"Airdrie","snippet":"Have you ever been to Airdrie, David?'    "},{"title":"And the Land Lay Still","author":"Robertson, James","year":null,"url":null,"placename":"Airdrie","snippet":"Once in Airdrie and twice in Ayrshire.    "},{"title":"Autobiography of the Rev. Dr. Alexander Carlyle, Minister of Inveresk,","author":"Carlyle, Alexander","year":"1860-01-01","url":"http:\/\/babel.hathitrust.org\/cgi\/pt?id=uc2.ark:\/13960\/t9j38s62g","placename":"Airdrie","snippet":"About the end of April, my sister, and my wife, and [I, paid] a visit to our friends in Glasgow, where we were most cordially received by my old friends, Mr Dreghorn and sundry other merchants, who were connected with Mr Bell in Airdrie, particularly Eobin Boyle and the Dunlops.    "},{"title":"Autobiography of the Rev. Dr Alexander Carlyle ;","author":"Carlyle, Alexander","year":"1861-01-01","url":"http:\/\/babel.hathitrust.org\/cgi\/pt?id=uc2.ark:\/13960\/t3rv0fk21","placename":"Airdrie","snippet":"About the end of April, my sister, and my wife, and [I, paid] a visit to our friends in Glasgow, where we were most cordially received by my old friends, Mr Dreghorn and sundry other merchants, who were connected with Mr Bell in Airdrie, particularly Robin Boyle and the Dunlops.    "}]