[{"title":"The Journal of Sir Walter Scott; From the Original Manuscript at Abbotsford","author":"Scott, Walter","year":null,"url":"http:\/\/www.gutenberg.org\/ebooks\/14860","placename":"Harburn","snippet":"Young,  Alexander, of Harburn, i.    "},{"title":"The Journal of Sir Walter Scott; From the Original Manuscript at Abbotsford","author":"Scott, Walter","year":null,"url":"http:\/\/www.gutenberg.org\/ebooks\/14860","placename":"Harburn","snippet":"Young of Harburn, a steady Whig of the old school, and asteady and esteemed friend of Sir Walter's.--J.G.L.    "},{"title":"The Journal of Sir Walter Scott; From the Original Manuscript at Abbotsford","author":"Scott, Walter","year":null,"url":"http:\/\/www.gutenberg.org\/ebooks\/14860","placename":"Harburn","snippet":"Young,  Alexander, of Harburn, i.    "},{"title":"The Journal of Sir Walter Scott; From the Original Manuscript at Abbotsford","author":"Scott, Walter","year":null,"url":"http:\/\/www.gutenberg.org\/ebooks\/14860","placename":"Harburn","snippet":"Young of Harburn, a steady Whig of the old school, and asteady and esteemed friend of Sir Walter's.--J.G.L.    "},{"title":"The Journal of Sir Walter Scott; From the Original Manuscript at Abbotsford","author":"Scott, Walter","year":null,"url":"http:\/\/www.gutenberg.org\/ebooks\/14860","placename":"Harburn","snippet":"Young,  Alexander, of Harburn, i.    "},{"title":"The Journal of Sir Walter Scott; From the Original Manuscript at Abbotsford","author":"Scott, Walter","year":null,"url":"http:\/\/www.gutenberg.org\/ebooks\/14860","placename":"Harburn","snippet":"Young of Harburn, a steady Whig of the old school, and asteady and esteemed friend of Sir Walter's.--J.G.L.    "},{"title":"The journal of Sir Walter Scott,","author":"Scott, Walter","year":"1891-01-01","url":"http:\/\/babel.hathitrust.org\/cgi\/pt?id=uc2.ark:\/13960\/t7jq0vz0t","placename":"Harburn","snippet":"Young of Harburn, a steady Whig of the old school, and a steady and esteemed friend of Sir Walter'?.    "},{"title":"Memoirs of the life of Sir Walter Scott,","author":"Lockhart, J. G.","year":null,"url":"http:\/\/babel.hathitrust.org\/cgi\/pt?id=uc2.ark:\/13960\/t24b2xb0f","placename":"Harburn","snippet":"* Alexander Young, Esq. of Harburn \u2014 a steady Whig of the oM tchool, and a steady and highly esteemed friend of Sir Walter's.    "}]