[{"title":"The Letters of Robert Louis Stevenson - Volume 1","author":"Stevenson, Robert Louis","year":null,"url":"http:\/\/www.gutenberg.org\/ebooks\/622","placename":"Lothianburn","snippet":"I shall send this off to-day to let you know of my new address - Swanston Cottage, Lothianburn, Edinburgh.    "},{"title":"The Letters of Robert Louis Stevenson - Volume 1","author":"Stevenson, Robert Louis","year":null,"url":"http:\/\/www.gutenberg.org\/ebooks\/622","placename":"Lothianburn","snippet":"WE are now at Swanston Cottage, Lothianburn, Edinburgh.    "},{"title":"The Works of Robert Louis Stevenson - Swanston Edition, Vol. 23","author":"Stevenson, Robert Louis","year":null,"url":"http:\/\/www.gutenberg.org\/ebooks\/30894","placename":"Lothianburn","snippet":"I shall send this off to-day to let you know of my newaddress--Swanston Cottage, Lothianburn, Edinburgh.    "},{"title":"The Works of Robert Louis Stevenson - Swanston Edition, Vol. 23","author":"Stevenson, Robert Louis","year":null,"url":"http:\/\/www.gutenberg.org\/ebooks\/30894","placename":"Lothianburn","snippet":"_Swanston, Lothianburn, Edinburgh [May 1874]._    "},{"title":"The Works of Robert Louis Stevenson - Swanston Edition, Vol. 23","author":"Stevenson, Robert Louis","year":null,"url":"http:\/\/www.gutenberg.org\/ebooks\/30894","placename":"Lothianburn","snippet":"We are now at Swanston Cottage, Lothianburn, Edinburgh.    "},{"title":"The Works of Robert Louis Stevenson - Swanston Edition, Vol. 23","author":"Stevenson, Robert Louis","year":null,"url":"http:\/\/www.gutenberg.org\/ebooks\/30894","placename":"Lothianburn","snippet":"[_Swanston Cottage, Lothianburn, Summer 1871._]    "},{"title":"The Works of Robert Louis Stevenson - Swanston Edition, Vol. 23","author":"Stevenson, Robert Louis","year":null,"url":"http:\/\/www.gutenberg.org\/ebooks\/30894","placename":"Lothianburn","snippet":"From1867 the family life became more settled between Edinburgh and SwanstonCottage, Lothianburn, a country home in the Pentlands which Mr.Stevenson first rented in that year, and the scenery and associations ofwhich sank deeply into the young man's spirit, and vitally affected hisafter thoughts and his art.    "},{"title":"The Works of Robert Louis Stevenson - Swanston Edition, Vol. 23","author":"Stevenson, Robert Louis","year":null,"url":"http:\/\/www.gutenberg.org\/ebooks\/30894","placename":"Lothianburn","snippet":"I shall send this off to-day to let you know of my newaddress--Swanston Cottage, Lothianburn, Edinburgh.    "},{"title":"The Works of Robert Louis Stevenson - Swanston Edition, Vol. 23","author":"Stevenson, Robert Louis","year":null,"url":"http:\/\/www.gutenberg.org\/ebooks\/30894","placename":"Lothianburn","snippet":"_Swanston, Lothianburn, Edinburgh [May 1874]._    "},{"title":"The Works of Robert Louis Stevenson - Swanston Edition, Vol. 23","author":"Stevenson, Robert Louis","year":null,"url":"http:\/\/www.gutenberg.org\/ebooks\/30894","placename":"Lothianburn","snippet":"We are now at Swanston Cottage, Lothianburn, Edinburgh.    "},{"title":"The Works of Robert Louis Stevenson - Swanston Edition, Vol. 23","author":"Stevenson, Robert Louis","year":null,"url":"http:\/\/www.gutenberg.org\/ebooks\/30894","placename":"Lothianburn","snippet":"[_Swanston Cottage, Lothianburn, Summer 1871._]    "},{"title":"The Works of Robert Louis Stevenson - Swanston Edition, Vol. 23","author":"Stevenson, Robert Louis","year":null,"url":"http:\/\/www.gutenberg.org\/ebooks\/30894","placename":"Lothianburn","snippet":"From1867 the family life became more settled between Edinburgh and SwanstonCottage, Lothianburn, a country home in the Pentlands which Mr.Stevenson first rented in that year, and the scenery and associations ofwhich sank deeply into the young man's spirit, and vitally affected hisafter thoughts and his art.    "},{"title":"The Works of Robert Louis Stevenson - Swanston Edition, Vol. 25","author":"Stevenson, Robert Louis","year":null,"url":"http:\/\/www.gutenberg.org\/ebooks\/30714","placename":"Lothianburn","snippet":"Swanston Cottage, Lothianburn, xxiii.    "},{"title":"The Works of Robert Louis Stevenson - Swanston Edition, Vol. 25","author":"Stevenson, Robert Louis","year":null,"url":"http:\/\/www.gutenberg.org\/ebooks\/30714","placename":"Lothianburn","snippet":"Swanston Cottage, Lothianburn, xxiii.    "},{"title":"The novels and tales of Robert Louis Stevenson.","author":"Stevenson, Robert Louis","year":"1903-01-01","url":"http:\/\/babel.hathitrust.org\/cgi\/pt?id=uc2.ark:\/13960\/t9v11xp78","placename":"Lothianburn","snippet":"[SWANSTON COTTAGE, LOTHIANBURN, July, ... I HAVE the strangest repugnance for writing; indeed, I have nearly got myself persuaded into the notion that letters don't arrive, in order to salve my conscience for never sending them off.    "},{"title":"The novels and tales of Robert Louis Stevenson.","author":"Stevenson, Robert Louis","year":"1903-01-01","url":"http:\/\/babel.hathitrust.org\/cgi\/pt?id=uc2.ark:\/13960\/t9v11xp78","placename":"Lothianburn","snippet":"[SWANSTON COTTAGE, LOTHIANBURN, July, 1876.'} HERE I am, here, and very well too.    "},{"title":"The novels and tales of Robert Louis Stevenson.","author":"Stevenson, Robert Louis","year":"1903-01-01","url":"http:\/\/babel.hathitrust.org\/cgi\/pt?id=uc2.ark:\/13960\/t9v11xp78","placename":"Lothianburn","snippet":"I shall send this off to-day to let you know of my new address Swanston Cottage, Lothianburn, Edinburgh.    "},{"title":"The novels and tales of Robert Louis Stevenson.","author":"Stevenson, Robert Louis","year":"1903-01-01","url":"http:\/\/babel.hathitrust.org\/cgi\/pt?id=uc2.ark:\/13960\/t9v11xp78","placename":"Lothianburn","snippet":"WE are now at Swanston Cottage, Lothianburn, Edinburgh.    "},{"title":"The novels and tales of Robert Louis Stevenson.","author":"Stevenson, Robert Louis","year":"1903-01-01","url":"http:\/\/babel.hathitrust.org\/cgi\/pt?id=uc2.ark:\/13960\/t9v11xp78","placename":"Lothianburn","snippet":"From 1867 the family life became more settled between Edinburgh and Swanston Cottage, Lothianburn, a country home in the Pentlands which Mr. Stevenson first rented in that year, and the scenery and associations of which    "}]