[{"title":"Redgauntlet: A Tale Of The Eighteenth Century","author":"Scott, Walter","year":null,"url":"http:\/\/www.gutenberg.org\/ebooks\/2516","placename":"Whare","snippet":"Whare will I get a bonny boy  That will win hose and shoon:  That will gae down to Durisdeer,  And bid my merry men come?    "},{"title":"The works of Professor Wilson of the University of Edinburgh,","author":"Wilson, John","year":null,"url":"http:\/\/babel.hathitrust.org\/cgi\/pt?id=uc2.ark:\/13960\/t9k35v13q","placename":"Whare","snippet":"Whare were we at ?    "},{"title":"Noctes ambrosianae,","author":"Wilson, John","year":"1876-01-01","url":"http:\/\/babel.hathitrust.org\/cgi\/pt?id=uc2.ark:\/13960\/t7hq3sc5m","placename":"Whare","snippet":"Whare else should I hae left him ?    "},{"title":"Noctes ambrosianae,","author":"Wilson, John","year":"1876-01-01","url":"http:\/\/babel.hathitrust.org\/cgi\/pt?id=uc2.ark:\/13960\/t7hq3sc5m","placename":"Whare","snippet":"Whare were you and what hae ye been about ? No * shavin at least for twa sic bairds I dinna remember ha in witnessed sin I was in Wales towards the close o the century and they belanged to twa he-goats glowerin ower at me frae the ruins o Dolbaldron Castle.    "},{"title":"Noctes ambrosianae,","author":"Wilson, John","year":"1876-01-01","url":"http:\/\/babel.hathitrust.org\/cgi\/pt?id=uc2.ark:\/13960\/t7hq3sc5m","placename":"Whare","snippet":"Whare s the strange auld tyke ? Whare s the queer auld fallow ? Whare s the canty auld chiel ! Whare s the dear auld deevil ? Oh ! North North North North ma freen ma brither ma faither let s tak ane anither intil ane anither s arms let s kiss ane anither s cheek as the guid cheevalry knichts used to do when, ha in fa en out aboot some leddy-luve, or some disputed laun , or some king s rhangefu favor, or aiblins aboot naething ava but the stupit lees o some evil tongues, they happened to forgather when riding opposite ways through a wood, and flingin themsels, wi ae feeling and ae thocht, aff their twa horses, cam clashin thegither wi their mailed breists, and began sobbin in the silence o the auncient aiks that were touched to their verra cores to see sic forgiveness and sic affection atween thae twa stalwart champions, wha, though baith noo weepin like weans or women, had aften ridden side by side thegither, wi shields    "},{"title":"Noctes ambrosianae,","author":"Wilson, John","year":"1876-01-01","url":"http:\/\/babel.hathitrust.org\/cgi\/pt?id=uc2.ark:\/13960\/t7hq3sc5m","placename":"Whare","snippet":"Whare were we at ?    "},{"title":"Noctes ambrosianae,","author":"Wilson, John","year":"1876-01-01","url":"http:\/\/babel.hathitrust.org\/cgi\/pt?id=uc2.ark:\/13960\/t7hq3sc5m","placename":"Whare","snippet":"Whare s the gig?    "},{"title":"Noctes ambrosianae,","author":"Wilson, John","year":"1876-01-01","url":"http:\/\/babel.hathitrust.org\/cgi\/pt?id=uc2.ark:\/13960\/t7hq3sc5m","placename":"Whare","snippet":"Whare the deevil s Mr. Tickler ?    "},{"title":"The works of Professor Wilson of the University of Edinburgh,","author":"Wilson, John","year":null,"url":"http:\/\/babel.hathitrust.org\/cgi\/pt?id=uc2.ark:\/13960\/t78s4s569","placename":"Whare","snippet":"Whare was ye last nicht, you auld Archimawgo ? I then laid hauns on a new pipe my farther had brocht frae Selkirk in a present for my mother \u2014 for tho cutty was worn doun to an inch, and had owcr strong a smell even for the auld wives; but as for my mother, she was then in the prime o' life, and reckoned verra like the Duchess; and bavin provided  mysel wi' a tea-cup and a drap water, I stole out intil what ance had been the garden o' Ettrick Ha', and sal doun aneath ane o' the elm-trees, as big I hen as they arc noo \u2014 and in solitude, wi' a beatin heart, prepared my suds.    "},{"title":"The works of Professor Wilson of the University of Edinburgh,","author":"Wilson, John","year":null,"url":"http:\/\/babel.hathitrust.org\/cgi\/pt?id=uc2.ark:\/13960\/t78s4s569","placename":"Whare","snippet":"Whare else should I hae left him ?    "},{"title":"The works of Professor Wilson of the University of Edinburgh,","author":"Wilson, John","year":null,"url":"http:\/\/babel.hathitrust.org\/cgi\/pt?id=uc2.ark:\/13960\/t78s4s569","placename":"Whare","snippet":"Whare were y OU \u2014 and what hae ye been about ? No 1 shavin at least \u2014 for twa sic bairds I dinna remember ha'in witnessed sin' I was in Wales \u2014 towards the close o' the century \u2014 and they belanged to twa he-goats glowerin ower at me frae the ruins o' Dolbal- dron Castle.    "},{"title":"Noctes Ambrosian\u00e6.","author":"Wilson, John","year":"1884-01-01","url":"http:\/\/babel.hathitrust.org\/cgi\/pt?id=loc.ark:\/13960\/t3pv75d8d","placename":"Whare","snippet":"Whare else should I hae left him ?    "},{"title":"Noctes Ambrosian\u00e6.","author":"Wilson, John","year":"1884-01-01","url":"http:\/\/babel.hathitrust.org\/cgi\/pt?id=loc.ark:\/13960\/t3pv75d8d","placename":"Whare","snippet":"Whare were you \u2014 and what hae ye been about ? No ^ shavin at least \u2014 for twa sic bairds I dinna remember ha'in witnessed sin' I was in Wales \u2014 towards the close o' the century \u2014 and they belanged to twa he-goats glowerin ower at me frae the ruins o' Dolbaldron Castle.    "},{"title":"Noctes Ambrosian\u00e6.","author":"Wilson, John","year":"1884-01-01","url":"http:\/\/babel.hathitrust.org\/cgi\/pt?id=loc.ark:\/13960\/t3pv75d8d","placename":"Whare","snippet":"Whare were we at?    "},{"title":"Noctes Ambrosian\u00e6.","author":"Wilson, John","year":"1884-01-01","url":"http:\/\/babel.hathitrust.org\/cgi\/pt?id=loc.ark:\/13960\/t3pv75d8d","placename":"Whare","snippet":"Whare the deevil's Mr. Tickler ?    "},{"title":"The works of Professor Wilson of the University of Edinburgh,","author":"Wilson, John","year":null,"url":"http:\/\/babel.hathitrust.org\/cgi\/pt?id=uc2.ark:\/13960\/t0rr1wk99","placename":"Whare","snippet":"Whare got he sae weel acquaint wi' a' the tribes \u2014 for do they not herd in swamps and woods whare man's    "},{"title":"Noctes ambrosian\u00e6,","author":"Wilson, John","year":"1863-01-01","url":"http:\/\/babel.hathitrust.org\/cgi\/pt?id=uc2.ark:\/13960\/t00z73n39","placename":"Whare","snippet":"Whare are you gaun ? Wait an hour or twa, and I'll see ye name.    "},{"title":"Penelope's progress :","author":"Wiggin, Kate Douglas Smith","year":null,"url":"http:\/\/babel.hathitrust.org\/cgi\/pt?id=uc2.ark:\/13960\/t90864w9z","placename":"Whare","snippet":"Whare her frien's they canna find her.\"    "},{"title":"Penelope's progress :","author":"Wiggin, Kate Douglas Smith","year":"1898-01-01","url":"http:\/\/babel.hathitrust.org\/cgi\/pt?id=uc2.ark:\/13960\/t5t728p7f","placename":"Whare","snippet":"Whare her frien's they canna find her.\"    "},{"title":"The heart of Midlothian;","author":"Scott, Walter","year":null,"url":"http:\/\/babel.hathitrust.org\/cgi\/pt?id=uc2.ark:\/13960\/t2x34zf8j","placename":"Whare","snippet":"Whare can ye hae been sae late ?\"    "},{"title":"The works of Robert Burns: with an account of his life, and criticism on his writings.","author":"Burns, Robert","year":"1830-01-01","url":"http:\/\/babel.hathitrust.org\/cgi\/pt?id=loc.ark:\/13960\/t77s86n39","placename":"Whare","snippet":"An' owre the hill gaed scrieviu, Whare three lairds' lands met at a burnt    "},{"title":"The works of Robert Burns: with an account of his life, and criticism on his writings.","author":"Burns, Robert","year":"1830-01-01","url":"http:\/\/babel.hathitrust.org\/cgi\/pt?id=loc.ark:\/13960\/t77s86n39","placename":"Whare","snippet":"Whare she has beea.    "},{"title":"The works of Robert Burns;","author":"Burns, Robert","year":"1816-01-01","url":"http:\/\/babel.hathitrust.org\/cgi\/pt?id=loc.ark:\/13960\/t76t1jw9v","placename":"Whare","snippet":"Whare are you gaun, my bonnie lass, Whare are you gaun, my liinnie ?    "},{"title":"The works of Robert Burns;","author":"Burns, Robert","year":"1816-01-01","url":"http:\/\/babel.hathitrust.org\/cgi\/pt?id=loc.ark:\/13960\/t76t1jw9v","placename":"Whare","snippet":"Whare are you gaun, my bonnie lass, Whare are you gaun, my liinnie ?    "},{"title":"The works of Robert Burns;","author":"Burns, Robert","year":"1816-01-01","url":"http:\/\/babel.hathitrust.org\/cgi\/pt?id=loc.ark:\/13960\/t76t1jw9v","placename":"Whare","snippet":"Whare, where; whare'^er, wherever    "},{"title":"The works of Robert Burns;","author":"Burns, Robert","year":"1816-01-01","url":"http:\/\/babel.hathitrust.org\/cgi\/pt?id=loc.ark:\/13960\/t76t1jw9v","placename":"Whare","snippet":"By this time he was cross the ford, Whare in the snaw the chapman smoor'd ; And past the birks andmeikle stane, Whare drunken Charlie brak's neck-bane ; And thro\" the whins, and by the caira, Whare hunters sand the murder'd bairn ; And near the thorn, aboon the well, Whare Mango's mither hang'd hersel.\u2014 Before him Doon pours all his floods ; The doubling storm roars thro' the woods ; The lightnings flash from pole to pole ; Near and more near the thunders roll ; When, glimmering thro' the groaning trees, Kirk-AUorvay seem'd in a bleeze ; Thro' ilka bore the beams were glancing ; And loud resounded mirth and dancing.\u2014    "},{"title":"The works of Robert Burns;","author":"Burns, Robert","year":"1816-01-01","url":"http:\/\/babel.hathitrust.org\/cgi\/pt?id=loc.ark:\/13960\/t76t1jw9v","placename":"Whare","snippet":"By this time he was cross the ford, Whare in the snaw the chapman smoor'd ; And past the birks andmeikle stane, Whare drunken Charlie brak's neck-bane ; And thro\" the whins, and by the caira, Whare hunters sand the murder'd bairn ; And near the thorn, aboon the well, Whare Mango's mither hang'd hersel.\u2014 Before him Doon pours all his floods ; The doubling storm roars thro' the woods ; The lightnings flash from pole to pole ; Near and more near the thunders roll ; When, glimmering thro' the groaning trees, Kirk-AUorvay seem'd in a bleeze ; Thro' ilka bore the beams were glancing ; And loud resounded mirth and dancing.\u2014    "},{"title":"The works of Robert Burns;","author":"Burns, Robert","year":"1816-01-01","url":"http:\/\/babel.hathitrust.org\/cgi\/pt?id=loc.ark:\/13960\/t76t1jw9v","placename":"Whare","snippet":"That lie between us and our hame, Whare sits our sulky sullen dame.    "},{"title":"The works of Robert Burns;","author":"Burns, Robert","year":"1816-01-01","url":"http:\/\/babel.hathitrust.org\/cgi\/pt?id=loc.ark:\/13960\/t76t1jw9v","placename":"Whare","snippet":"To some hain'd rig, Whare ye may nobly rax your leather,    "},{"title":"The works of Robert Burns;","author":"Burns, Robert","year":"1816-01-01","url":"http:\/\/babel.hathitrust.org\/cgi\/pt?id=loc.ark:\/13960\/t76t1jw9v","placename":"Whare","snippet":"Whare'er thou gaed.    "},{"title":"The works of Robert Burns;","author":"Burns, Robert","year":"1816-01-01","url":"http:\/\/babel.hathitrust.org\/cgi\/pt?id=loc.ark:\/13960\/t76t1jw9v","placename":"Whare","snippet":"An' owre the hill gaed scrievin, Whare three lairds\" lands met at a burn*,    "},{"title":"The works of Robert Burns;","author":"Burns, Robert","year":"1816-01-01","url":"http:\/\/babel.hathitrust.org\/cgi\/pt?id=loc.ark:\/13960\/t76t1jw9v","placename":"Whare","snippet":"Whare she has been.    "},{"title":"The works of Robert Burns;","author":"Burns, Robert","year":"1816-01-01","url":"http:\/\/babel.hathitrust.org\/cgi\/pt?id=loc.ark:\/13960\/t76t1jw9v","placename":"Whare","snippet":"Whare'er I gang.    "},{"title":"The complete poetical and prose works of Robert Burns:","author":"Burns, Robert","year":"1859-01-01","url":"http:\/\/babel.hathitrust.org\/cgi\/pt?id=loc.ark:\/13960\/t4pk0xn8h","placename":"Whare","snippet":"O, WHARE did you get that hauver meal bannock  ? Oh silly blind body, oh dinna ye see ?    "},{"title":"The complete poetical and prose works of Robert Burns:","author":"Burns, Robert","year":"1859-01-01","url":"http:\/\/babel.hathitrust.org\/cgi\/pt?id=loc.ark:\/13960\/t4pk0xn8h","placename":"Whare","snippet":"Whare she has been.    "},{"title":"The complete poetical and prose works of Robert Burns:","author":"Burns, Robert","year":"1859-01-01","url":"http:\/\/babel.hathitrust.org\/cgi\/pt?id=loc.ark:\/13960\/t4pk0xn8h","placename":"Whare","snippet":"To some hain'd rig, Whare ye may nobly rax your leather,    "},{"title":"The complete poetical and prose works of Robert Burns:","author":"Burns, Robert","year":"1881-01-01","url":"http:\/\/babel.hathitrust.org\/cgi\/pt?id=loc.ark:\/13960\/t43r1df6g","placename":"Whare","snippet":"To some haiu'd rig, Whare ye may i obly rax your leather^    "},{"title":"The complete poetical and prose works of Robert Burns:","author":"Burns, Robert","year":"1881-01-01","url":"http:\/\/babel.hathitrust.org\/cgi\/pt?id=loc.ark:\/13960\/t43r1df6g","placename":"Whare","snippet":"Whare'er thou gaed.    "},{"title":"The complete works of Robert Burns:","author":"Burns, Robert","year":"1854-01-01","url":"http:\/\/babel.hathitrust.org\/cgi\/pt?id=loc.ark:\/13960\/t2z32c284","placename":"Whare","snippet":"\" Whare are you gaun, my bonie lass, Whare are you gaun, my hinnie, She answer'd me right saucilie, An errand for my minnie.    "},{"title":"The complete works of Robert Burns:","author":"Burns, Robert","year":"1854-01-01","url":"http:\/\/babel.hathitrust.org\/cgi\/pt?id=loc.ark:\/13960\/t2z32c284","placename":"Whare","snippet":"By this time he was cross the foord, Whare in the suaw the chapman smoor'd ; And past the birks and meikle stane.    "},{"title":"The complete works of Robert Burns:","author":"Burns, Robert","year":"1854-01-01","url":"http:\/\/babel.hathitrust.org\/cgi\/pt?id=loc.ark:\/13960\/t2z32c284","placename":"Whare","snippet":"Whare three lairds' lauds met at a burn,' To dip her left sark-sleeve in,    "},{"title":"The complete works of Robert Burns:","author":"Burns, Robert","year":"1854-01-01","url":"http:\/\/babel.hathitrust.org\/cgi\/pt?id=loc.ark:\/13960\/t2z32c284","placename":"Whare","snippet":"Whare'er I gang.    "},{"title":"The complete works of Robert Burns:","author":"Burns, Robert","year":"1854-01-01","url":"http:\/\/babel.hathitrust.org\/cgi\/pt?id=loc.ark:\/13960\/t2z32c284","placename":"Whare","snippet":"To some hain'd rig, Whare ye may nobly rax your leather,    "},{"title":"The complete works of Robert Burns: containing his poems, songs, and correspondence.","author":"Burns, Robert","year":"1852-01-01","url":"http:\/\/babel.hathitrust.org\/cgi\/pt?id=loc.ark:\/13960\/t01z4r72g","placename":"Whare","snippet":"Whare in the snaw the chapman smoor'd ;    "},{"title":"The complete works of Robert Burns: containing his poems, songs, and correspondence.","author":"Burns, Robert","year":"1852-01-01","url":"http:\/\/babel.hathitrust.org\/cgi\/pt?id=loc.ark:\/13960\/t01z4r72g","placename":"Whare","snippet":"Whare three lairds' lands met at a bui-n,' To dip her left sark-sleeve in,    "},{"title":"The complete works of Robert Burns: containing his poems, songs, and correspondence.","author":"Burns, Robert","year":"1852-01-01","url":"http:\/\/babel.hathitrust.org\/cgi\/pt?id=loc.ark:\/13960\/t01z4r72g","placename":"Whare","snippet":"Whare she has been.    "},{"title":"The complete works of Robert Burns: containing his poems, songs, and correspondence.","author":"Burns, Robert","year":"1852-01-01","url":"http:\/\/babel.hathitrust.org\/cgi\/pt?id=loc.ark:\/13960\/t01z4r72g","placename":"Whare","snippet":"Whare'er I gang.    "},{"title":"The complete works of Robert Burns: containing his poems, songs, and correspondence.","author":"Burns, Robert","year":"1852-01-01","url":"http:\/\/babel.hathitrust.org\/cgi\/pt?id=loc.ark:\/13960\/t01z4r72g","placename":"Whare","snippet":"To some hain'd rig, Whare ye may nobly rax your leather,    "},{"title":"The Heart of Mid-Lothian.","author":"Scott, Walter","year":null,"url":"https:\/\/historicaltexts.jisc.ac.uk\/bl-003317343","placename":"Whare","snippet":"Whare can ye hae been sae late ?\"\"Nae gate,\" answered Effie.    "},{"title":"Over the Ocean; or, Sights and Scenes in Foreign Lands","author":"Guild, Curtis.","year":"1871-01-01","url":"https:\/\/historicaltexts.jisc.ac.uk\/bl-001538563","placename":"Whare","snippet":"Whare in the snaw the chapman smoored,And past the birks and meikle stane,Whare drunken Charlie braks neck-bane;    "}]