[{"title":"The Underground City; Or, The Black Indies; (Sometimes Called The Child of the Cavern)","author":"Verne, Jules","year":null,"url":"http:\/\/www.gutenberg.org\/ebooks\/1355","placename":"Nell","snippet":"To Nell, this suburb of the capitalappeared only a collection of gloomy dark houses, just like Coal Town,only that the roof was higher, and gleamed with small lights.    "},{"title":"The Underground City; Or, The Black Indies; (Sometimes Called The Child of the Cavern)","author":"Verne, Jules","year":null,"url":"http:\/\/www.gutenberg.org\/ebooks\/1355","placename":"Nell","snippet":"One day,however, Harry was led to make known to Nell what James Starr, hisfather, mother, and himself believed they owed to her interference.    "},{"title":"Mr. Peters :","author":"Stephens, Riccardo.","year":"1897-01-01","url":"http:\/\/babel.hathitrust.org\/cgi\/pt?id=uc2.ark:\/13960\/t16m3369j","placename":"Nell","snippet":"Even the tobacconist s shop began to show signs of coming prosperity, thanks to Nell s careful consideration of its possibilities, and also to Melia s pleasant ways with the customers.    "},{"title":"Mr. Peters :","author":"Stephens, Riccardo.","year":"1897-01-01","url":"http:\/\/babel.hathitrust.org\/cgi\/pt?id=uc2.ark:\/13960\/t16m3369j","placename":"Nell","snippet":"He being now, as it were, the prisoner at the bar, Lucius the judge, with a theory to uphold, and Nell the    "},{"title":"Mr. Peters :","author":"Stephens, Riccardo.","year":"1897-01-01","url":"http:\/\/babel.hathitrust.org\/cgi\/pt?id=uc2.ark:\/13960\/t16m3369j","placename":"Nell","snippet":"Lucius tortures her with his open admiration and enjoy ment of the widow s lively badinage, while the widow her self, expanding figuratively in the warmth of his smile, looks to Nell horribly and deceitfully young and traitorous.    "},{"title":"Mr. Peters :","author":"Stephens, Riccardo.","year":"1897-01-01","url":"http:\/\/babel.hathitrust.org\/cgi\/pt?id=uc2.ark:\/13960\/t16m3369j","placename":"Nell","snippet":"Peters was at most only thirty-five, but to Nell that seemed quite middle-aged, if not past it.    "},{"title":"St. Paul's to St. Sophia;","author":"McCormick, Richard C.","year":"1860-01-01","url":"http:\/\/babel.hathitrust.org\/cgi\/pt?id=loc.ark:\/13960\/t7sn11w0v","placename":"Nell","snippet":"The huge grate in this curious room was from Nell Gwynne's house London.    "},{"title":"White House at Inch Gow, etc. [A tale.]","author":"Pitt, Sarah.","year":"1891-01-01","url":"https:\/\/historicaltexts.jisc.ac.uk\/bl-002927158","placename":"Nell","snippet":"\" Yes; I was reading it out to Nell this morning.    "},{"title":"White House at Inch Gow, etc. [A tale.]","author":"Pitt, Sarah.","year":"1891-01-01","url":"https:\/\/historicaltexts.jisc.ac.uk\/bl-002927158","placename":"Nell","snippet":"Itwas a little surprise to Nell to find herself so wellpleased to be at home again : she had grown accustomed to the household ways, and since there had tobe a stepmother, Mrs. Sage made a just and dependable one ; according to her judgment, doing what sheconsidered best for each member of the family circle.    "},{"title":"White House at Inch Gow, etc. [A tale.]","author":"Pitt, Sarah.","year":"1891-01-01","url":"https:\/\/historicaltexts.jisc.ac.uk\/bl-002927158","placename":"Nell","snippet":"be thought of, but for you and Nell I see no objection.\"    "},{"title":"White House at Inch Gow, etc. [A tale.]","author":"Pitt, Sarah.","year":"1891-01-01","url":"https:\/\/historicaltexts.jisc.ac.uk\/bl-002927158","placename":"Nell","snippet":"AndrewSquare was not a particularly enjoyable place to Nellfor those first months, but it would have been stilldrearier without Eleanor.    "},{"title":"White House at Inch Gow, etc. [A tale.]","author":"Pitt, Sarah.","year":"1891-01-01","url":"https:\/\/historicaltexts.jisc.ac.uk\/bl-002927158","placename":"Nell","snippet":"\" Your mamma is looking very well indeed,\" shebegan to Nell.    "},{"title":"White House at Inch Gow, etc. [A tale.]","author":"Pitt, Sarah.","year":"1891-01-01","url":"https:\/\/historicaltexts.jisc.ac.uk\/bl-002927158","placename":"Nell","snippet":"She had not been twentyfour hours in the house, but it seemed to Nell thatshe had been more ruffled in that space than in allthe years of her sojourn at Blairshill\u2014Janet included.    "},{"title":"White House at Inch Gow, etc. [A tale.]","author":"Pitt, Sarah.","year":"1891-01-01","url":"https:\/\/historicaltexts.jisc.ac.uk\/bl-002927158","placename":"Nell","snippet":"It did not make muchdifference to Nell: she had never known anythingelse, and took it as a matter of course ; but Gilberthad.    "}]