[{"title":"The Works of Robert Louis Stevenson - Swanston Edition, Vol. 20","author":"Stevenson, Robert Louis","year":null,"url":"http:\/\/www.gutenberg.org\/ebooks\/30849","placename":"Dalmahoy","snippet":"Keeping a tight hold on his hysteria,Dalmahoy steadied himself by a rope and bowed.    "},{"title":"The Works of Robert Louis Stevenson - Swanston Edition, Vol. 20","author":"Stevenson, Robert Louis","year":null,"url":"http:\/\/www.gutenberg.org\/ebooks\/30849","placename":"Dalmahoy","snippet":"It was the egregious Dalmahoy.    "},{"title":"The Works of Robert Louis Stevenson - Swanston Edition, Vol. 20","author":"Stevenson, Robert Louis","year":null,"url":"http:\/\/www.gutenberg.org\/ebooks\/30849","placename":"Dalmahoy","snippet":"Keeping a tight hold on his hysteria,Dalmahoy steadied himself by a rope and bowed.    "},{"title":"The Works of Robert Louis Stevenson - Swanston Edition, Vol. 20","author":"Stevenson, Robert Louis","year":null,"url":"http:\/\/www.gutenberg.org\/ebooks\/30849","placename":"Dalmahoy","snippet":"It was the egregious Dalmahoy.    "},{"title":"The Journal of Sir Walter Scott; From the Original Manuscript at Abbotsford","author":"Scott, Walter","year":null,"url":"http:\/\/www.gutenberg.org\/ebooks\/14860","placename":"Dalmahoy","snippet":"I went to Dalmahoy, where we were most kindly received.    "},{"title":"The Journal of Sir Walter Scott; From the Original Manuscript at Abbotsford","author":"Scott, Walter","year":null,"url":"http:\/\/www.gutenberg.org\/ebooks\/14860","placename":"Dalmahoy","snippet":"I then got home too late todo anything, as I must prepare to go to Dalmahoy.    "},{"title":"The Journal of Sir Walter Scott; From the Original Manuscript at Abbotsford","author":"Scott, Walter","year":null,"url":"http:\/\/www.gutenberg.org\/ebooks\/14860","placename":"Dalmahoy","snippet":"_June_ 16.--Dined at Dalmahoy, with the young Earl and Countess ofMorton.    "},{"title":"The Journal of Sir Walter Scott; From the Original Manuscript at Abbotsford","author":"Scott, Walter","year":null,"url":"http:\/\/www.gutenberg.org\/ebooks\/14860","placename":"Dalmahoy","snippet":"I went to Dalmahoy, where we were most kindly received.    "},{"title":"The Journal of Sir Walter Scott; From the Original Manuscript at Abbotsford","author":"Scott, Walter","year":null,"url":"http:\/\/www.gutenberg.org\/ebooks\/14860","placename":"Dalmahoy","snippet":"I then got home too late todo anything, as I must prepare to go to Dalmahoy.    "},{"title":"The Journal of Sir Walter Scott; From the Original Manuscript at Abbotsford","author":"Scott, Walter","year":null,"url":"http:\/\/www.gutenberg.org\/ebooks\/14860","placename":"Dalmahoy","snippet":"_June_ 16.--Dined at Dalmahoy, with the young Earl and Countess ofMorton.    "},{"title":"The Journal of Sir Walter Scott; From the Original Manuscript at Abbotsford","author":"Scott, Walter","year":null,"url":"http:\/\/www.gutenberg.org\/ebooks\/14860","placename":"Dalmahoy","snippet":"I went to Dalmahoy, where we were most kindly received.    "},{"title":"The Journal of Sir Walter Scott; From the Original Manuscript at Abbotsford","author":"Scott, Walter","year":null,"url":"http:\/\/www.gutenberg.org\/ebooks\/14860","placename":"Dalmahoy","snippet":"I then got home too late todo anything, as I must prepare to go to Dalmahoy.    "},{"title":"The Journal of Sir Walter Scott; From the Original Manuscript at Abbotsford","author":"Scott, Walter","year":null,"url":"http:\/\/www.gutenberg.org\/ebooks\/14860","placename":"Dalmahoy","snippet":"_June_ 16.--Dined at Dalmahoy, with the young Earl and Countess ofMorton.    "},{"title":"St. Ives; being the adventures of a French prisoner in England.","author":"Stevenson, Robert Louis","year":null,"url":"http:\/\/babel.hathitrust.org\/cgi\/pt?id=uc2.ark:\/13960\/t6tx37p44","placename":"Dalmahoy","snippet":"Keeping a tight hold on his hysteria, Dalmahoy steadied himself by a rope and bowed.    "},{"title":"St. Ives; being the adventures of a French prisoner in England.","author":"Stevenson, Robert Louis","year":null,"url":"http:\/\/babel.hathitrust.org\/cgi\/pt?id=uc2.ark:\/13960\/t6tx37p44","placename":"Dalmahoy","snippet":"It was the egregious Dalmahoy.    "},{"title":"St. Ives,","author":"Stevenson, Robert Louis","year":"1898-01-01","url":"http:\/\/babel.hathitrust.org\/cgi\/pt?id=uc2.ark:\/13960\/t58d00d3m","placename":"Dalmahoy","snippet":"Keeping a tight hold on his hysteria, Dalmahoy steadied himself by a rope and bowed.    "},{"title":"St. Ives,","author":"Stevenson, Robert Louis","year":"1898-01-01","url":"http:\/\/babel.hathitrust.org\/cgi\/pt?id=uc2.ark:\/13960\/t58d00d3m","placename":"Dalmahoy","snippet":"It was the egregious Dalmahoy.    "},{"title":"St. Ives;","author":"Stevenson, Robert Louis","year":"1897-01-01","url":"http:\/\/babel.hathitrust.org\/cgi\/pt?id=uc2.ark:\/13960\/t2988b585","placename":"Dalmahoy","snippet":"\" But I say\/' expostulated Dalmahoy.    "},{"title":"St. Ives;","author":"Stevenson, Robert Louis","year":"1897-01-01","url":"http:\/\/babel.hathitrust.org\/cgi\/pt?id=uc2.ark:\/13960\/t2988b585","placename":"Dalmahoy","snippet":"Keeping a tight hold on his hysteria, Dalmahoy steadied himself by a rope and bowed.    "},{"title":"St. Ives;","author":"Stevenson, Robert Louis","year":"1897-01-01","url":"http:\/\/babel.hathitrust.org\/cgi\/pt?id=uc2.ark:\/13960\/t2988b585","placename":"Dalmahoy","snippet":"It was the egregious Dalmahoy.    "},{"title":"[Works]","author":"Stevenson, Robert Louis","year":"1910-01-01","url":"http:\/\/babel.hathitrust.org\/cgi\/pt?id=uc2.ark:\/13960\/t0gt5gx25","placename":"Dalmahoy","snippet":"Excuse you, Sheepshanks ? My dear sir ! At this altitude  one shank was more than we had a right to expect ; ihe plural multiplies the obligation.'* Keeping a tight hold on his hysteria, Dalmahoy steadied himself by a rope and bowed.    "},{"title":"[Works]","author":"Stevenson, Robert Louis","year":"1910-01-01","url":"http:\/\/babel.hathitrust.org\/cgi\/pt?id=uc2.ark:\/13960\/t0gt5gx25","placename":"Dalmahoy","snippet":"It was the egregious Dalmahoy.    "},{"title":"The novels and tales of Robert Louis Stevenson.","author":"Stevenson, Robert Louis","year":"1903-01-01","url":"http:\/\/babel.hathitrust.org\/cgi\/pt?id=uc2.ark:\/13960\/t00001k38","placename":"Dalmahoy","snippet":"Keeping a tight hold on his hysteria, Dalmahoy steadied himself by a rope and bowed.    "},{"title":"The novels and tales of Robert Louis Stevenson.","author":"Stevenson, Robert Louis","year":"1903-01-01","url":"http:\/\/babel.hathitrust.org\/cgi\/pt?id=uc2.ark:\/13960\/t00001k38","placename":"Dalmahoy","snippet":"It was the egregious Dalmahoy.    "},{"title":"The journal of Sir Walter Scott,","author":"Scott, Walter","year":"1890-01-01","url":"http:\/\/babel.hathitrust.org\/cgi\/pt?id=uc2.ark:\/13960\/t9h41n97z","placename":"Dalmahoy","snippet":"I went to Dalmahoy, where we were most kindly received.    "},{"title":"The journal of Sir Walter Scott,","author":"Scott, Walter","year":"1890-01-01","url":"http:\/\/babel.hathitrust.org\/cgi\/pt?id=uc2.ark:\/13960\/t9h41n97z","placename":"Dalmahoy","snippet":"I then got home too late to do anything, as I must prepare to go to Dalmahoy.    "},{"title":"The journal of Sir Walter Scott,","author":"Scott, Walter","year":"1890-01-01","url":"http:\/\/babel.hathitrust.org\/cgi\/pt?id=uc2.ark:\/13960\/t9h41n97z","placename":"Dalmahoy","snippet":"Dined at Dalmahoy, with the young Earl and Countess of Morton.    "},{"title":"The journal of Sir Walter Scott,","author":"Scott, Walter","year":"1891-01-01","url":"http:\/\/babel.hathitrust.org\/cgi\/pt?id=uc2.ark:\/13960\/t7jq0vz0t","placename":"Dalmahoy","snippet":"I went to Dalmahoy, where we were most kindly received.    "},{"title":"The journal of Sir Walter Scott,","author":"Scott, Walter","year":"1891-01-01","url":"http:\/\/babel.hathitrust.org\/cgi\/pt?id=uc2.ark:\/13960\/t7jq0vz0t","placename":"Dalmahoy","snippet":"I then got home too late to do anything, as I must prepare to go to Dalmahoy.    "},{"title":"The journal of Sir Walter Scott,","author":"Scott, Walter","year":"1891-01-01","url":"http:\/\/babel.hathitrust.org\/cgi\/pt?id=uc2.ark:\/13960\/t7jq0vz0t","placename":"Dalmahoy","snippet":"Dined at Dalmahoy, with the young Earl and Countess of Morton.    "},{"title":"The journal of Sir Walter Scott,","author":"Scott, Walter","year":"1891-01-01","url":"http:\/\/babel.hathitrust.org\/cgi\/pt?id=loc.ark:\/13960\/t6rz05s28","placename":"Dalmahoy","snippet":"I went to Dalmahoy, where we were most kindly received.    "},{"title":"The journal of Sir Walter Scott,","author":"Scott, Walter","year":"1891-01-01","url":"http:\/\/babel.hathitrust.org\/cgi\/pt?id=loc.ark:\/13960\/t6rz05s28","placename":"Dalmahoy","snippet":"I then got home too late to do anything, as I must prepare to go to Dalmahoy, Mr. Gibson came in for a little while ; no news.    "},{"title":"The journal of Sir Walter Scott,","author":"Scott, Walter","year":"1891-01-01","url":"http:\/\/babel.hathitrust.org\/cgi\/pt?id=loc.ark:\/13960\/t6rz05s28","placename":"Dalmahoy","snippet":"\u2014 Dined at Dalmahoy, with the young Earl and Countess of Morton.    "},{"title":"Memoirs of the life and writings of Thomas Chalmers...","author":"Hanna, William","year":null,"url":"http:\/\/babel.hathitrust.org\/cgi\/pt?id=uc2.ark:\/13960\/t7sn0457p","placename":"Dalmahoy","snippet":"\" When we met at Dalmahoy, your Lordship stated as your objection to the above proposal, that it did not preclude the General Assembly from maintaining the Veto Law.    "},{"title":"Fishers of men,","author":"Crockett, S. R.","year":"1906-01-01","url":"http:\/\/babel.hathitrust.org\/cgi\/pt?id=uc2.ark:\/13960\/t27945767","placename":"Dalmahoy","snippet":"Meanwhile Knifer Jackson pursued his companion, and Mag, running from knowe to knowe, followed the chase, till, with a great gulp at the throat, she saw the low sun of afternoon striking from behind the black humps of Dalmahoy shine on a polished blade held a moment high above the Knifer's head.    "},{"title":"St. Ives: being the adventures of a French prisoner in England. [Completed by A. T. Quiller-Couch.]","author":"Stevenson, Robert Louis","year":null,"url":"https:\/\/historicaltexts.jisc.ac.uk\/bl-003501502","placename":"Dalmahoy","snippet":"Excuse you,Sheepshanks ? My dear sir! At this altitude one shank wasmore than we had a right to expect: the plural multiplies theobligation\/ Keeping a tight hold on his hysteria, Dalmahoysteadied himself by a rope and bowed.    "},{"title":"St. Ives: being the adventures of a French prisoner in England. [Completed by A. T. Quiller-Couch.]","author":"Stevenson, Robert Louis","year":null,"url":"https:\/\/historicaltexts.jisc.ac.uk\/bl-003501502","placename":"Dalmahoy","snippet":"'Ducie, by all that's friendly! Playmate of my youth andprop of my declining years, how goes it ? 'It was the egregious Dalmahoy.    "}]