[{"title":"Noctes ambrosian\u00e6,","author":"Wilson, John","year":"1863-01-01","url":"http:\/\/babel.hathitrust.org\/cgi\/pt?id=uc2.ark:\/13960\/t00z73n39","placename":"Est","snippet":"Est modus in rebus, sunt certi denique fines,    "},{"title":"St. Ives,","author":"Stevenson, Robert Louis","year":"1898-01-01","url":"http:\/\/babel.hathitrust.org\/cgi\/pt?id=uc2.ark:\/13960\/t58d00d3m","placename":"Est","snippet":"Est a\/iquid, quocunque  loco, quocunque sacello. . , .'    "},{"title":"Eight journeys abroad \/","author":"Rosengarten, Mary D. Richardson","year":"1917-01-01","url":"http:\/\/babel.hathitrust.org\/cgi\/pt?id=loc.ark:\/13960\/t5fb5rb5j","placename":"Est","snippet":"It is always drunk fresh and they say the Est, Est, Est should never be taken down from its hill.    "},{"title":"Eight journeys abroad \/","author":"Rosengarten, Mary D. Richardson","year":"1917-01-01","url":"http:\/\/babel.hathitrust.org\/cgi\/pt?id=loc.ark:\/13960\/t5fb5rb5j","placename":"Est","snippet":"It is always drunk fresh and they say the Est, Est, Est should never be taken down from its hill.    "},{"title":"Eight journeys abroad \/","author":"Rosengarten, Mary D. Richardson","year":"1917-01-01","url":"http:\/\/babel.hathitrust.org\/cgi\/pt?id=loc.ark:\/13960\/t5fb5rb5j","placename":"Est","snippet":"It is always drunk fresh and they say the Est, Est, Est should never be taken down from its hill.    "},{"title":"Eight journeys abroad \/","author":"Rosengarten, Mary D. Richardson","year":"1917-01-01","url":"http:\/\/babel.hathitrust.org\/cgi\/pt?id=loc.ark:\/13960\/t5fb5rb5j","placename":"Est","snippet":"When the valet came to Montefiascone  he found the wine so good he wrote Est, Est, Est, and the bishop drank so much he died that night.    "},{"title":"Eight journeys abroad \/","author":"Rosengarten, Mary D. Richardson","year":"1917-01-01","url":"http:\/\/babel.hathitrust.org\/cgi\/pt?id=loc.ark:\/13960\/t5fb5rb5j","placename":"Est","snippet":"When the valet came to Montefiascone  he found the wine so good he wrote Est, Est, Est, and the bishop drank so much he died that night.    "},{"title":"Eight journeys abroad \/","author":"Rosengarten, Mary D. Richardson","year":"1917-01-01","url":"http:\/\/babel.hathitrust.org\/cgi\/pt?id=loc.ark:\/13960\/t5fb5rb5j","placename":"Est","snippet":"When the valet came to Montefiascone  he found the wine so good he wrote Est, Est, Est, and the bishop drank so much he died that night.    "},{"title":"Eight journeys abroad \/","author":"Rosengarten, Mary D. Richardson","year":"1917-01-01","url":"http:\/\/babel.hathitrust.org\/cgi\/pt?id=loc.ark:\/13960\/t5fb5rb5j","placename":"Est","snippet":"It is called Est, Est, Est, because an old Bishop Fugger, who was very fond of wine, when he was travelling through this country was preceded by a valet who when he liked the wine would write on the wall Est, and the bishop only stopped where he saw the wine.    "},{"title":"Eight journeys abroad \/","author":"Rosengarten, Mary D. Richardson","year":"1917-01-01","url":"http:\/\/babel.hathitrust.org\/cgi\/pt?id=loc.ark:\/13960\/t5fb5rb5j","placename":"Est","snippet":"It is called Est, Est, Est, because an old Bishop Fugger, who was very fond of wine, when he was travelling through this country was preceded by a valet who when he liked the wine would write on the wall Est, and the bishop only stopped where he saw the wine.    "},{"title":"Eight journeys abroad \/","author":"Rosengarten, Mary D. Richardson","year":"1917-01-01","url":"http:\/\/babel.hathitrust.org\/cgi\/pt?id=loc.ark:\/13960\/t5fb5rb5j","placename":"Est","snippet":"It is called Est, Est, Est, because an old Bishop Fugger, who was very fond of wine, when he was travelling through this country was preceded by a valet who when he liked the wine would write on the wall Est, and the bishop only stopped where he saw the wine.    "},{"title":"Eight journeys abroad \/","author":"Rosengarten, Mary D. Richardson","year":"1917-01-01","url":"http:\/\/babel.hathitrust.org\/cgi\/pt?id=loc.ark:\/13960\/t5fb5rb5j","placename":"Est","snippet":"It is called Est, Est, Est, because an old Bishop Fugger, who was very fond of wine, when he was travelling through this country was preceded by a valet who when he liked the wine would write on the wall Est, and the bishop only stopped where he saw the wine.    "},{"title":"Eight journeys abroad \/","author":"Rosengarten, Mary D. Richardson","year":"1917-01-01","url":"http:\/\/babel.hathitrust.org\/cgi\/pt?id=loc.ark:\/13960\/t5fb5rb5j","placename":"Est","snippet":"called Est, Est, Est. . . .Apr. 8, 1906 561    "},{"title":"Eight journeys abroad \/","author":"Rosengarten, Mary D. Richardson","year":"1917-01-01","url":"http:\/\/babel.hathitrust.org\/cgi\/pt?id=loc.ark:\/13960\/t5fb5rb5j","placename":"Est","snippet":"called Est, Est, Est. . . .Apr. 8, 1906 561    "},{"title":"Eight journeys abroad \/","author":"Rosengarten, Mary D. Richardson","year":"1917-01-01","url":"http:\/\/babel.hathitrust.org\/cgi\/pt?id=loc.ark:\/13960\/t5fb5rb5j","placename":"Est","snippet":"called Est, Est, Est. . . .Apr. 8, 1906 561    "},{"title":"Hill-side and border sketches:","author":"Maxwell, W. H.","year":"1847-01-01","url":"http:\/\/babel.hathitrust.org\/cgi\/pt?id=loc.ark:\/13960\/t0wq0jw9q","placename":"Est","snippet":"Est nobis digna Katerine vox benigna.    "},{"title":"Memoirs of the life of Sir Walter Scott,","author":"Lockhart, J. G.","year":null,"url":"http:\/\/babel.hathitrust.org\/cgi\/pt?id=uc2.ark:\/13960\/t4qj78631","placename":"Est","snippet":"We may adopt, though in another sense, his own presumptuous motto \u2014 Sic Suit, Est, et Erit.    "},{"title":"Notes in England and Italy.","author":"Hawthorne, Sophia Peabody","year":"1870-01-01","url":"http:\/\/babel.hathitrust.org\/cgi\/pt?id=loc.ark:\/13960\/t4cn7zv9n","placename":"Est","snippet":"At dinner we ordered some of the very famous Montefiascone wine, the Est, Est, Est.    "},{"title":"Notes in England and Italy.","author":"Hawthorne, Sophia Peabody","year":"1870-01-01","url":"http:\/\/babel.hathitrust.org\/cgi\/pt?id=loc.ark:\/13960\/t4cn7zv9n","placename":"Est","snippet":"At dinner we ordered some of the very famous Montefiascone wine, the Est, Est, Est.    "},{"title":"Notes in England and Italy.","author":"Hawthorne, Sophia Peabody","year":"1870-01-01","url":"http:\/\/babel.hathitrust.org\/cgi\/pt?id=loc.ark:\/13960\/t4cn7zv9n","placename":"Est","snippet":"At dinner we ordered some of the very famous Montefiascone wine, the Est, Est, Est.    "}]