[{"title":"Trainspotting","author":"Welsh, Irvine","year":null,"url":null,"placename":"Begbie","snippet":"Then, when ah wis apprenticed as a chippy wi a Gorgie builder, ah goes along tae Telford College tae dae ma national certificate modules in joinery. Ah sat doon tae ma chips in the cafeteria, whin whae comes along but that cunt Begbie, wi a couple ay other psychos. They wir oan this specialist course in metalwork fir problem teenagers.    "},{"title":"Trainspotting","author":"Welsh, Irvine","year":null,"url":null,"placename":"Begbie","snippet":"It wis the same story at secondary. Ah only did well at school tae git intae an O Level class tae git away fae Begbie. Whin Begbie wis expelled n sent tae another school en route tae Polmont, ma performance declined, and ah wis pit back intae the non-certificate stream.    "},{"title":"Trainspotting","author":"Welsh, Irvine","year":null,"url":null,"placename":"Begbie","snippet":"\u2014 Ah'll huv your fuckin bacon n sausage n fuckin black puddin then, Begbie suggests.    "},{"title":"The Works of Robert Louis Stevenson - Swanston Edition, Vol. 1","author":"Stevenson, Robert Louis","year":null,"url":"http:\/\/www.gutenberg.org\/ebooks\/21686","placename":"Begbie","snippet":"Here, it is the tale of Begbie the bank-porter, stricken to the heart ata blow and left in his blood within a step or two of the crowded HighStreet. There, people hush their voices over Burke and Hare; over drugsand violated graves, and the resurrection-men smothering their victimswith their knees.    "},{"title":"Trainspotting","author":"Welsh, Irvine","year":null,"url":null,"placename":"Begbie","snippet":"Dark circles under his eyes attest to the fact that he has just spent most of the day shagging these two American women, who are staying at the Minto Hotel. There is no chance of either Spud, Renton or Begbie making up a foursome. They are both going back with Sick Boy, and Sick Boy alone.    "},{"title":"The Works of Robert Louis Stevenson - Swanston Edition, Vol. 1","author":"Stevenson, Robert Louis","year":null,"url":"http:\/\/www.gutenberg.org\/ebooks\/21686","placename":"Begbie","snippet":"Here, it is the tale of Begbie the bank-porter, stricken to the heart ata blow and left in his blood within a step or two of the crowded HighStreet. There, people hush their voices over Burke and Hare; over drugsand violated graves, and the resurrection-men smothering their victimswith their knees.    "},{"title":"Edinburgh,","author":"Stevenson, Robert Louis","year":"1912-01-01","url":"http:\/\/babel.hathitrust.org\/cgi\/pt?id=loc.ark:\/13960\/t51g17p9w","placename":"Begbie","snippet":"Here, it is the tale of Begbie the bank-porter, stricken to the heart at a blow and left in his blood within a step or two of the crowded High Street. There, people hush their voices over    "},{"title":"Trainspotting","author":"Welsh, Irvine","year":null,"url":null,"placename":"Begbie","snippet":"Over at the table, Begbie indicates that he is in need of more solid nourishment: \u2014 Ah'm fuckin Lee Marvin. Lit's git some scran, then hit a decent fuckin boozer.    "},{"title":"Wilson's Tales of the Borders and of Scotland, Volume 05","author":"Various","year":null,"url":"http:\/\/www.gutenberg.org\/ebooks\/34145","placename":"Begbie","snippet":"\"All a sham,too, his being connected with these players. I have no doubt in my ownmind that he is either the murderer of Begbie in disguise, or aresurrectionist. Ah! perhaps he has run away from the world, and comehere for the purpose of committing suicide in a quiet way.    "},{"title":"Trainspotting","author":"Welsh, Irvine","year":null,"url":null,"placename":"Begbie","snippet":"Ah realised thit Begbie, now involved in a conspiratorial tale wi an ugly, box-heided wanker, the type who ye avoid like the plague, hud slipped Sick Boy the dough tae git the bevvy up.    "},{"title":"Trainspotting","author":"Welsh, Irvine","year":null,"url":null,"placename":"Begbie","snippet":"She ignored us completely, and naebody else laughed, no even Billy. Indeed, Begbie and Sick Boy looked at us like disapproving uncles do tae a cheeky brat whae it isnae their place tae chastise. Ah'm now relegated tae the same status as Begbie's bairn.    "},{"title":"Trainspotting","author":"Welsh, Irvine","year":null,"url":null,"placename":"Begbie","snippet":"Renton recalled the time when Begbie had glassed Roy Sneddon, in The Vine, for fuck all. Nothing other than the guy had an irritating voice and Begbie was hungover. It was ugly, sickening and pointless.    "},{"title":"The Stickit minister,","author":"Crockett, S. R.","year":"1893-01-01","url":"http:\/\/babel.hathitrust.org\/cgi\/pt?id=uc2.ark:\/13960\/t1mg7hb6q","placename":"Begbie","snippet":"\"Pie wasna half-wey through when up gets maister Begbie f rae Soorkirk, michty dour-lookin', an' he says, ' I'll no' sit in this presbytery an' listen to ony siccan doctrine, frae a Knox Fella* or ony ither fella' ! ' says he.    "},{"title":"Wilson's Tales of the Borders and of Scotland, Volume 05","author":"Various","year":null,"url":"http:\/\/www.gutenberg.org\/ebooks\/34145","placename":"Begbie","snippet":"\"All a sham,too, his being connected with these players. I have no doubt in my ownmind that he is either the murderer of Begbie in disguise, or aresurrectionist. Ah! perhaps he has run away from the world, and comehere for the purpose of committing suicide in a quiet way.    "},{"title":"Trainspotting","author":"Welsh, Irvine","year":null,"url":null,"placename":"Begbie","snippet":"Tae get ma attention, Begbie smashes an elbow into ma ribs with such ferocity that it would be construed as an assault, were it not between two companions. He then starts telling us about some gratuitously violent video he's been watching.    "},{"title":"Trainspotting","author":"Welsh, Irvine","year":null,"url":null,"placename":"Begbie","snippet":"Some fucking friends I have. Spud, Second Prize, Begbie, Matty, Tommy: these punters spell L-I-M-I-T-E-D. An extremely limited company. Well, ah'm fed up to ma back teeth wi losers, no-hopers, draftpaks, schemies, junkies and the likes.    "},{"title":"Reheated Cabbage","author":"Welsh, Irvine","year":null,"url":null,"placename":"Begbie","snippet":"He never saw Renton now, nobody did, nor that much ofBegbie, thank fuck, or Sick Boy or Nelly or Spud or SecondPrize. His core mates he grew up with had evaporated frombeing a tight wee crew into stars of their own psychodramas.    "},{"title":"Essays of travel and in the art of writing,","author":"Stevenson, Robert Louis","year":"1905-01-01","url":"http:\/\/babel.hathitrust.org\/cgi\/pt?id=loc.ark:\/13960\/t5t730p42","placename":"Begbie","snippet":"Here, it is the tale of Begbie the bank-porter, stricken to the heart at a blow and left in his    "},{"title":"Mysterious Legends of Edinburgh, etc","author":"Leighton, Alexander","year":"1864-01-01","url":"https:\/\/historicaltexts.jisc.ac.uk\/bl-002122202","placename":"Begbie","snippet":"\" Na,\" replied Sandy ; \" you forget the \u00a35 I paid to Begbiefor the auld frame of Luckie Corner, the woman who murderedBell Gellatly. Besides, ye 're importunate.    "},{"title":"Trainspotting","author":"Welsh, Irvine","year":null,"url":null,"placename":"Begbie","snippet":"Every person looks like a potential mugger or bag-snatcher to him. Whenever he sees a black leather jacket similar to Begbie's, his blood turns to ice. He even considers going back when he is on the bus to Liverpool Street, but he sticks his hand in the bag and feels the bundles of notes.    "},{"title":"Trainspotting","author":"Welsh, Irvine","year":null,"url":null,"placename":"Begbie","snippet":"They are typical new boys in town, attracted to that famous square mile like kids to a toy shop. Sick Boy and Begbie go to shoot what proves to be a competitive game of pool in the Sir George Robey with two Irish guys they team up with. London old stagers, they are contemptous of their friends' fascination for Soho.    "},{"title":"Trainspotting","author":"Welsh, Irvine","year":null,"url":null,"placename":"Begbie","snippet":"In the garish Trust House Forte cafeteria, Begbie grabs Sick Boy by an arm and extracts him from the queue.    "},{"title":"Trainspotting","author":"Welsh, Irvine","year":null,"url":null,"placename":"Begbie","snippet":"He sits in silent misery, lashing sweat and feeling like his bones are grinding against each other. Sick Boy turns to Begbie, seizing the opportunity to make a common cause.    "},{"title":"Trainspotting","author":"Welsh, Irvine","year":null,"url":null,"placename":"Begbie","snippet":"He notes her face is even prettier when understated without make-up. It is hard to focus on Sick Boy, but Begbie sees his mouth turned down and his eyes opened wide in contrived sincerity. Begbie gets more and more anxious until he is ready to just get up and drag Sick Boy onto the bus.    "},{"title":"Trainspotting","author":"Welsh, Irvine","year":null,"url":null,"placename":"Begbie","snippet":"As they laughed, Begbie justified his actions.    "},{"title":"Trainspotting","author":"Welsh, Irvine","year":null,"url":null,"placename":"Begbie","snippet":"\u2014 Fill breakfasts aw roond, Begbie enthusiastically looks at the others.    "},{"title":"Trainspotting","author":"Welsh, Irvine","year":null,"url":null,"placename":"Begbie","snippet":"\u2014 Vodka n tonic, she says to Begbie, who gestures to her from the bar. \u2014 Gin n lemonade for Ali.    "},{"title":"Trainspotting","author":"Welsh, Irvine","year":null,"url":null,"placename":"Begbie","snippet":"\u2014 If it's a lassie Billy, git her tae take it back, Begbie repeated, slurring this time. The bevvy wis getting to him.    "},{"title":"Trainspotting","author":"Welsh, Irvine","year":null,"url":null,"placename":"Begbie","snippet":"Renton and Begbie are arguing. Rents hud better watch what he's daein, likesay.    "},{"title":"Trainspotting","author":"Welsh, Irvine","year":null,"url":null,"placename":"Begbie","snippet":"He changed the subject, as it was bringing her down, and that was no good to him. He told her jocular stories about Spud and Begbie, sanitising them tastefully. Renton never mentioned Sick Boy, because women liked Sick Boy and he had an urge to keep the women he met as far away from Sick Boy as possible, even conversationally.    "},{"title":"Trainspotting","author":"Welsh, Irvine","year":null,"url":null,"placename":"Begbie","snippet":"Gave um a good run for his money, did Tam. Mind you, Tommy's a tidy cunt, n Begbie, it has tae be said, came oot the better ay the two.    "},{"title":"Trainspotting","author":"Welsh, Irvine","year":null,"url":null,"placename":"Begbie","snippet":"A whole Begbie mythology hud been created by oor lies tae each other n oorsels. Like us, Begbie believed that bullshit. We played a big part in making him what he was.    "},{"title":"Mysterious legends of Edinburgh.","author":"Leighton, Alexander","year":"1864-01-01","url":"http:\/\/babel.hathitrust.org\/cgi\/pt?id=uc2.ark:\/13960\/t8hd7v501","placename":"Begbie","snippet":"\" Na,\" replied Sandy ; \" you forget tlie \u00a35 I paid to Begbie for the auld frame of Luckie Corner, the woman who murdered Bell Gellatly. Besides, ye 're importunate.    "},{"title":"Edinburgh. Picturesque Notes ... With etchings by A. Brunet-Debaines from drawings by S. Bough ... and W. E. Lockhart, etc.","author":"Stevenson, Robert Louis","year":"1896-01-01","url":"https:\/\/historicaltexts.jisc.ac.uk\/bl-003501240","placename":"Begbie","snippet":"Here, it is the tale of Begbie the bankporter, stricken to the heart at a blow and left    "},{"title":"Edinburgh. Picturesque Notes ... With etchings by A. Brunet-Debaines from drawings by S. Bough ... and W. E. Lockhart, etc.","author":"Stevenson, Robert Louis","year":"1888-01-01","url":"https:\/\/historicaltexts.jisc.ac.uk\/bl-003501239","placename":"Begbie","snippet":"Here, it is the tale of Begbie the bank-porter,stricken to the heart at a blow and left in his    "},{"title":"Trainspotting","author":"Welsh, Irvine","year":null,"url":null,"placename":"Begbie","snippet":"Ah jist couldnae handle her outrage, n the hassle thit went wi it. It wis easy tae lie, as we all did wi Begbie in our circle. A whole Begbie mythology hud been created by oor lies tae each other n oorsels.    "},{"title":"Trainspotting","author":"Welsh, Irvine","year":null,"url":null,"placename":"Begbie","snippet":"\u2014 Sick Boy's cracked it, he observes, turning to Begbie.    "},{"title":"Trainspotting","author":"Welsh, Irvine","year":null,"url":null,"placename":"Begbie","snippet":"How's your wee yin, Frank? She turned to Begbie.    "}]