[{"title":"Skagboys","author":"Welsh, Irvine","year":null,"url":null,"placename":"Wester Hailes","snippet":"It makes us think thitMatty wid nivir make it in the world ay rock n roll; ah mean, even if hewis likesay better oan the guitar. Ah mean, imagine that cat in the studiowi Frank Zappa n the Mothers ay Invention, thir gittin up tae aw thairhigh jinks n he jist turns roon n goes, 'Ah've goat the keys tae this flatin Wester Hailes.' Ah mean, how ur they cats gaunny respond tae that,likesay?    "},{"title":"Trainspotting","author":"Welsh, Irvine","year":null,"url":null,"placename":"Wester Hailes","snippet":"The idea is thit the cunt's gaunnae take it tae Shirley's tae gie it tae the bairn ken? So he takes it oot tae Wester Hailes, tae gie it tae wee Lisa; a present fir her, ken?    "},{"title":"Skagboys","author":"Welsh, Irvine","year":null,"url":null,"placename":"Wester Hailes","snippet":"We git oaf at Muirhoose, cutting through the deserted shopping centrepast units that exhibit only graffiti oan thair steel shutters, n headin forthis five-storey block at the back ay the prefabricated library. Schemes likethis,Wester Hailes or Niddrie, thaire's nowt roond thum but mair scheme. Mibbe a wee patch ay crap shoaps selling tinned goods and some rotting,overpriced veg and a murderous pillboax ay a bar.    "},{"title":"The Ossians","author":"Johnstone, Doug","year":null,"url":null,"placename":"Wester Hailes","snippet":"He thought of the picturesque view from the Scott Monument back in Edinburgh and how the city attracted swarms of tourists, even in winter, so that it didn't seem to have any character of its own any more. He also thought of the shitty, schemie parts of the city \u2013 Craigmillar, Wester Hailes, Sighthill \u2013 and decided that he really had no idea whether Scotland was a beautiful place or not.    "},{"title":"Trainspotting","author":"Welsh, Irvine","year":null,"url":null,"placename":"Wester Hailes","snippet":"A few months ago, Nicola had been talking to him as they walked from a party at Sighthill to one at Wester Hailes. They had been having a good crack, becoming detached from the rest of the group.    "},{"title":"Reheated Cabbage","author":"Welsh, Irvine","year":null,"url":null,"placename":"Wester Hailes","snippet":"\u2014 Aye, that's gaunny fuck things right up back hame; theproduction ay gonzo porn fae Wester Hailes'll grind tae a halt. Surprised Alec Salmond n Gordon Broon huvnae beencompelled tae take action.    "},{"title":"Trainspotting","author":"Welsh, Irvine","year":null,"url":null,"placename":"Wester Hailes","snippet":"There was no mistaking the change in his conversational tone when he employed the phrase: 'the wee felly'. I discreetly pumped him for information about the five-year-old son he had by this woman in Wester Hailes, a 'cow' who would not let him see the child, named Kevin. Part of me loved this woman already.    "},{"title":"Skagboys","author":"Welsh, Irvine","year":null,"url":null,"placename":"Wester Hailes","snippet":"Wester Hailes is aboot as far away fae Leith as it's possible tae git nstill be in Edinburgh. A soulless, Jambo-infested scheme.    "},{"title":"Skagboys","author":"Welsh, Irvine","year":null,"url":null,"placename":"Wester Hailes","snippet":"The likesay Rents or Sick Boy or Keezbo would pure git intae discussinthis point, but Matty jist goes, \u2014 Cunt, ah'm gittin the keys tae this flatin Wester Hailes. She wants it, bit ah'm no that bothered, eh, no.    "},{"title":"Trainspotting","author":"Welsh, Irvine","year":null,"url":null,"placename":"Wester Hailes","snippet":"'Mother Superior' wis Johnny Swan; also kent as the White Swan, a dealer whae wis based in Tollcross and covered the Sighthill and Wester Hailes schemes. Ah preferred tae score fi Swanney, or his sidekick Raymie, rather than Seeker n the Muirhoose-Leith mob, if ah could.    "},{"title":"Skagboys","author":"Welsh, Irvine","year":null,"url":null,"placename":"Wester Hailes","snippet":"The blue dark sky ahead is now lit with the sinister glow of the plant. He thinks of Shirley, Lisa, and the flat at Wester Hailes. It seemed like aprison, that poky box; now he'd give anything to be there, with them.    "},{"title":"Skagboys","author":"Welsh, Irvine","year":null,"url":null,"placename":"Wester Hailes","snippet":"\u2014 As bad as Spud, but in Wester Hailes.    "},{"title":"Trainspotting","author":"Welsh, Irvine","year":null,"url":null,"placename":"Wester Hailes","snippet":"She would go there some day, and see her dad. When he had come to see her in Wester Hailes he usually wasn't well so she wasn't allowed to talk to him. It would be good to go to heaven, to play with him, like they used to when she was really wee.    "},{"title":"Trainspotting","author":"Welsh, Irvine","year":null,"url":null,"placename":"Wester Hailes","snippet":"A former chippie's collection of various sharp implements. On Saturday, I took it round to Frances's flat in Wester Hailes. I had a few odd jobs to do.    "},{"title":"Trainspotting","author":"Welsh, Irvine","year":null,"url":null,"placename":"Wester Hailes","snippet":"He'd be well again in heaven. Heaven would be different from Wester Hailes.    "},{"title":"Skagboys","author":"Welsh, Irvine","year":null,"url":null,"placename":"Wester Hailes","snippet":"\u2014 Aye, but they offered us Wester Hailes. Cunt, ah'm no gaun ootthaire.    "},{"title":"Skagboys","author":"Welsh, Irvine","year":null,"url":null,"placename":"Wester Hailes","snippet":"\u2014 Nup, Wester Hailes, eh.    "}]