[{"title":"Old Mortality, Complete","author":"Scott, Walter","year":null,"url":"http:\/\/www.gutenberg.org\/ebooks\/6941","placename":"Haud","snippet":"had bestowed them on the courtiers and nobilityby whose descendants they were at present actually possessed; beneaththis list was written, in red letters, in the hand of the deceased, HaudImmemor, F. S.    "},{"title":"Redgauntlet: A Tale Of The Eighteenth Century","author":"Scott, Walter","year":null,"url":"http:\/\/www.gutenberg.org\/ebooks\/2516","placename":"Haud","snippet":"Haud him fast, Master Constable; I charge ye wi' him, for I am mista'enif he is not at the bottom of this rinaway business.    "},{"title":"Wilson's Tales of the Borders and of Scotland, Volume 20","author":"Alexander Leighton","year":null,"url":"http:\/\/www.gutenberg.org\/ebooks\/37217","placename":"Haud","snippet":"Haud awa out an' see what they want, till I fling on a clean mutch an'an apron, an' mak mysel wiselike.\"    "},{"title":"Wilson's Tales of the Borders and of Scotland, Volume 20","author":"Alexander Leighton","year":null,"url":"http:\/\/www.gutenberg.org\/ebooks\/37217","placename":"Haud","snippet":"Haud awa out an' see what they want, till I fling on a clean mutch an'an apron, an' mak mysel wiselike.\"    "},{"title":"Stories of the Border Marches","author":"Lang, John","year":null,"url":"http:\/\/www.gutenberg.org\/ebooks\/14416","placename":"Haud","snippet":"Haud up, maister! Losh! it's the cauptain,\" hecried, as with the not very efficient aid of his friend he tried toraise the prostrate man.    "},{"title":"Stories of the Border Marches","author":"Lang, John","year":null,"url":"http:\/\/www.gutenberg.org\/ebooks\/14416","placename":"Haud","snippet":"Haud up, maister! Losh! it's the cauptain,\" hecried, as with the not very efficient aid of his friend he tried toraise the prostrate man.    "},{"title":"The Lilac Sunbonnet: A Love Story","author":"Crockett, S. R. (Samuel Rutherford)","year":null,"url":"http:\/\/www.gutenberg.org\/ebooks\/4918","placename":"Haud","snippet":"Haud up the hill, breest to the brae.\"    "},{"title":"The Black Douglas","author":"Crockett, S. R. (Samuel Rutherford)","year":null,"url":"http:\/\/www.gutenberg.org\/ebooks\/17733","placename":"Haud","snippet":"Haud off there, varlet, ken ye not thatI am a Bailie of Dumfries?    "},{"title":"The Black Douglas","author":"Crockett, S. R. (Samuel Rutherford)","year":null,"url":"http:\/\/www.gutenberg.org\/ebooks\/17733","placename":"Haud","snippet":"Haud off there, varlet, ken ye not thatI am a Bailie of Dumfries?    "},{"title":"Bog-Myrtle and Peat; Tales Chiefly of Galloway Gathered from the Years 1889 to 1895","author":"Crockett, S. R. (Samuel Rutherford)","year":null,"url":"http:\/\/www.gutenberg.org\/ebooks\/13667","placename":"Haud","snippet":"Haud aff theclean floor!\"    "},{"title":"Bog-Myrtle and Peat; Tales Chiefly of Galloway Gathered from the Years 1889 to 1895","author":"Crockett, S. R. (Samuel Rutherford)","year":null,"url":"http:\/\/www.gutenberg.org\/ebooks\/13667","placename":"Haud","snippet":"Haud aff theclean floor!\"    "},{"title":"And the Land Lay Still","author":"Robertson, James","year":null,"url":null,"placename":"Haud","snippet":"Haud on a minute, Ren\u00e9e, this is my brither, Billy.    "},{"title":"The works of Professor Wilson of the University of Edinburgh,","author":"Wilson, John","year":null,"url":"http:\/\/babel.hathitrust.org\/cgi\/pt?id=uc2.ark:\/13960\/t9k35v13q","placename":"Haud","snippet":"Haud your han', Mr North.    "},{"title":"The works of Professor Wilson of the University of Edinburgh,","author":"Wilson, John","year":null,"url":"http:\/\/babel.hathitrust.org\/cgi\/pt?id=uc2.ark:\/13960\/t9k35v13q","placename":"Haud","snippet":"Haud your tongue, Tickler.    "},{"title":"Noctes ambrosianae,","author":"Wilson, John","year":"1876-01-01","url":"http:\/\/babel.hathitrust.org\/cgi\/pt?id=uc2.ark:\/13960\/t7hq3sc5m","placename":"Haud","snippet":"Haud your arrogant tongue, Southside, and never again, immediately after I hae said that ony metapheezical subjeck s perplexing, hae the insolence and the silliness to say, &quot; The reason, undoubtedly, is.&quot; If it s no coorse, it s rude and a man had better be coorse nor rude ony day but oh, sirs, what n a pity that in the Tent there are nae dowgs !    "},{"title":"Noctes ambrosianae,","author":"Wilson, John","year":"1876-01-01","url":"http:\/\/babel.hathitrust.org\/cgi\/pt?id=uc2.ark:\/13960\/t7hq3sc5m","placename":"Haud","snippet":"Haud your blethers.    "},{"title":"Noctes ambrosianae,","author":"Wilson, John","year":"1876-01-01","url":"http:\/\/babel.hathitrust.org\/cgi\/pt?id=uc2.ark:\/13960\/t7hq3sc5m","placename":"Haud","snippet":"Haud your tongue, Tickler.    "},{"title":"Noctes ambrosianae,","author":"Wilson, John","year":"1876-01-01","url":"http:\/\/babel.hathitrust.org\/cgi\/pt?id=uc2.ark:\/13960\/t7hq3sc5m","placename":"Haud","snippet":"Haud, haud ! it s no sma yill, but strong toddy, sir.    "},{"title":"Noctes ambrosianae,","author":"Wilson, John","year":"1876-01-01","url":"http:\/\/babel.hathitrust.org\/cgi\/pt?id=uc2.ark:\/13960\/t7hq3sc5m","placename":"Haud","snippet":"Haud your tongue.    "},{"title":"Noctes ambrosianae,","author":"Wilson, John","year":"1876-01-01","url":"http:\/\/babel.hathitrust.org\/cgi\/pt?id=uc2.ark:\/13960\/t7hq3sc5m","placename":"Haud","snippet":"Haud haud what a deluge !    "},{"title":"Noctes ambrosianae,","author":"Wilson, John","year":"1876-01-01","url":"http:\/\/babel.hathitrust.org\/cgi\/pt?id=uc2.ark:\/13960\/t7hq3sc5m","placename":"Haud","snippet":"Haud your tongue nae sic thing.    "},{"title":"Noctes ambrosianae,","author":"Wilson, John","year":"1876-01-01","url":"http:\/\/babel.hathitrust.org\/cgi\/pt?id=uc2.ark:\/13960\/t7hq3sc5m","placename":"Haud","snippet":"Haud back, sir ! Look how he s tryin to streik out his richt leg as if it had gotten the cramp.    "},{"title":"Noctes ambrosianae,","author":"Wilson, John","year":"1876-01-01","url":"http:\/\/babel.hathitrust.org\/cgi\/pt?id=uc2.ark:\/13960\/t7hq3sc5m","placename":"Haud","snippet":"Haud your tongue, Mr. North for I m geyan angry the noo and I canna thole being interrupted when I m angry, sae haud your tongue, and hear me speak, and faith, gin some folk were here, they should be made to hear on the deafest side o their heads.    "},{"title":"Noctes ambrosianae,","author":"Wilson, John","year":"1876-01-01","url":"http:\/\/babel.hathitrust.org\/cgi\/pt?id=uc2.ark:\/13960\/t7hq3sc5m","placename":"Haud","snippet":"Haud your leein tongue, ye tyke, you ve quar relled wi me mony thousan times, and I ve borne at your hands mair ill-usage than I wad hae taen frae ony ither mortal man in his Majesty s dominions.    "},{"title":"Noctes ambrosianae,","author":"Wilson, John","year":"1876-01-01","url":"http:\/\/babel.hathitrust.org\/cgi\/pt?id=uc2.ark:\/13960\/t7hq3sc5m","placename":"Haud","snippet":"Haud your tongue about hangin ; it s discussed.    "},{"title":"Noctes ambrosianae,","author":"Wilson, John","year":"1876-01-01","url":"http:\/\/babel.hathitrust.org\/cgi\/pt?id=uc2.ark:\/13960\/t7hq3sc5m","placename":"Haud","snippet":"Haud your tongue.    "},{"title":"Noctes ambrosianae,","author":"Wilson, John","year":"1876-01-01","url":"http:\/\/babel.hathitrust.org\/cgi\/pt?id=uc2.ark:\/13960\/t7hq3sc5m","placename":"Haud","snippet":"Haud    "},{"title":"The works of Professor Wilson of the University of Edinburgh,","author":"Wilson, John","year":null,"url":"http:\/\/babel.hathitrust.org\/cgi\/pt?id=uc2.ark:\/13960\/t78s4s569","placename":"Haud","snippet":"Haud your arrogant tongue, Southside, and never again, immediately after I hae said that ony metapheezical subjeck's perplexing, hae the insolence and the silliness to say, \" The reason, undoubtedly, is.\"    "},{"title":"Noctes Ambrosian\u00e6.","author":"Wilson, John","year":"1884-01-01","url":"http:\/\/babel.hathitrust.org\/cgi\/pt?id=loc.ark:\/13960\/t3pv75d8d","placename":"Haud","snippet":"Haud your tongue.    "},{"title":"Noctes Ambrosian\u00e6.","author":"Wilson, John","year":"1884-01-01","url":"http:\/\/babel.hathitrust.org\/cgi\/pt?id=loc.ark:\/13960\/t3pv75d8d","placename":"Haud","snippet":"Haud, baud ! it's no sma' yill, but strong toddy, sir.    "},{"title":"Noctes Ambrosian\u00e6.","author":"Wilson, John","year":"1884-01-01","url":"http:\/\/babel.hathitrust.org\/cgi\/pt?id=loc.ark:\/13960\/t3pv75d8d","placename":"Haud","snippet":"Haud your tongue \u2014 nae sic thing.    "},{"title":"Noctes Ambrosian\u00e6.","author":"Wilson, John","year":"1884-01-01","url":"http:\/\/babel.hathitrust.org\/cgi\/pt?id=loc.ark:\/13960\/t3pv75d8d","placename":"Haud","snippet":"Haud back, sir ! Look how he's tryin to streik out liis richt leg as if it had gotten the cramp.    "},{"title":"Noctes Ambrosian\u00e6.","author":"Wilson, John","year":"1884-01-01","url":"http:\/\/babel.hathitrust.org\/cgi\/pt?id=loc.ark:\/13960\/t3pv75d8d","placename":"Haud","snippet":"Haud your tongue, Mr. North \u2014 for I'm geyan angry the noo-r-and I canna thole being interrupted when I'm angry, \u2014 sae haud your tongue, and hear me speak, \u2014 and faith, gin some folk were here, they should be made to hear on the deafest side o' their heads.    "},{"title":"Noctes Ambrosian\u00e6.","author":"Wilson, John","year":"1884-01-01","url":"http:\/\/babel.hathitrust.org\/cgi\/pt?id=loc.ark:\/13960\/t3pv75d8d","placename":"Haud","snippet":"Haud your tongue.    "},{"title":"Noctes Ambrosian\u00e6.","author":"Wilson, John","year":"1884-01-01","url":"http:\/\/babel.hathitrust.org\/cgi\/pt?id=loc.ark:\/13960\/t3pv75d8d","placename":"Haud","snippet":"Haud    "},{"title":"The works of Professor Wilson of the University of Edinburgh,","author":"Wilson, John","year":null,"url":"http:\/\/babel.hathitrust.org\/cgi\/pt?id=uc2.ark:\/13960\/t0rr1wk99","placename":"Haud","snippet":"Haud your tongue, Mr North \u2014 for I'm geyan angry the noo \u2014 and I canna thole being inten-upted when I'm angry, \u2014 sae haud yotir tongue, and hear me speak, \u2014 and faith, gin some folk were here, they should be made to hear on the deafest side o' their heads.    "},{"title":"The works of Professor Wilson of the University of Edinburgh,","author":"Wilson, John","year":null,"url":"http:\/\/babel.hathitrust.org\/cgi\/pt?id=uc2.ark:\/13960\/t0rr1wk99","placename":"Haud","snippet":"Haud your leein tongue, ye tyke, you've quaiTel- led wi' me mony thousan' times, and I've borne at your hands mair ill-usage than I wad hae taen frae ony ither mortal man in his Majesty's dominions.    "},{"title":"The works of Professor Wilson of the University of Edinburgh,","author":"Wilson, John","year":null,"url":"http:\/\/babel.hathitrust.org\/cgi\/pt?id=uc2.ark:\/13960\/t0rr1wk99","placename":"Haud","snippet":"Haud your tongue about hangin : It's discussed.    "},{"title":"The works of Professor Wilson of the University of Edinburgh,","author":"Wilson, John","year":null,"url":"http:\/\/babel.hathitrust.org\/cgi\/pt?id=uc2.ark:\/13960\/t0rr1wk99","placename":"Haud","snippet":"Haud your tongue, Mr North, you're gettin ower flowery.    "},{"title":"The works of Professor Wilson of the University of Edinburgh,","author":"Wilson, John","year":null,"url":"http:\/\/babel.hathitrust.org\/cgi\/pt?id=uc2.ark:\/13960\/t0rr1wk99","placename":"Haud","snippet":"Haud your tongue.    "},{"title":"The works of Professor Wilson of the University of Edinburgh,","author":"Wilson, John","year":null,"url":"http:\/\/babel.hathitrust.org\/cgi\/pt?id=uc2.ark:\/13960\/t0rr1wk99","placename":"Haud","snippet":"Haud your tongue, Mr Tickler.    "},{"title":"Noctes ambrosian\u00e6,","author":"Wilson, John","year":"1863-01-01","url":"http:\/\/babel.hathitrust.org\/cgi\/pt?id=uc2.ark:\/13960\/t00z73n39","placename":"Haud","snippet":"Haud your tongue.    "},{"title":"Noctes ambrosian\u00e6,","author":"Wilson, John","year":"1863-01-01","url":"http:\/\/babel.hathitrust.org\/cgi\/pt?id=uc2.ark:\/13960\/t00z73n39","placename":"Haud","snippet":"Haud your tongues, I say.    "},{"title":"Noctes ambrosian\u00e6,","author":"Wilson, John","year":"1863-01-01","url":"http:\/\/babel.hathitrust.org\/cgi\/pt?id=uc2.ark:\/13960\/t00z73n39","placename":"Haud","snippet":"Haud your tongues, haud your tongues, ye twa ; you're making me a' grew.    "},{"title":"Noctes ambrosian\u00e6,","author":"Wilson, John","year":"1863-01-01","url":"http:\/\/babel.hathitrust.org\/cgi\/pt?id=uc2.ark:\/13960\/t00z73n39","placename":"Haud","snippet":"Haud your tongue, you sumph ; it's nae sic things.    "},{"title":"Noctes ambrosian\u00e6,","author":"Wilson, John","year":"1863-01-01","url":"http:\/\/babel.hathitrust.org\/cgi\/pt?id=uc2.ark:\/13960\/t00z73n39","placename":"Haud","snippet":"Haud your haund there.    "},{"title":"Noctes ambrosian\u00e6,","author":"Wilson, John","year":"1863-01-01","url":"http:\/\/babel.hathitrust.org\/cgi\/pt?id=uc2.ark:\/13960\/t00z73n39","placename":"Haud","snippet":"Haud your tongue, Tibbie.    "},{"title":"Redgauntlet :","author":"Scott, Walter","year":"1824-01-01","url":"http:\/\/babel.hathitrust.org\/cgi\/pt?id=uc2.ark:\/13960\/t3jw88k10","placename":"Haud","snippet":"Haud him fast, Master Constable ; I charge ye wi' him, for I am mistaen if he is not at the bottom  of this rin-awa business.    "},{"title":"The heart of Midlothian;","author":"Scott, Walter","year":null,"url":"http:\/\/babel.hathitrust.org\/cgi\/pt?id=uc2.ark:\/13960\/t2x34zf8j","placename":"Haud","snippet":"HAUD, hold    "},{"title":"The black watch.","author":"Picken, Andrew","year":"1834-01-01","url":"http:\/\/babel.hathitrust.org\/cgi\/pt?id=uiuo.ark:\/13960\/t04x5wd9q","placename":"Haud","snippet":"Haud her whisht about the law, an' she'll joost say a word to the auld man wi' the tippet round her neck.\"    "},{"title":"Strong Mac,","author":"Crockett, S. R.","year":"1904-01-01","url":"http:\/\/babel.hathitrust.org\/cgi\/pt?id=uc2.ark:\/13960\/t3mw2c15b","placename":"Haud","snippet":"Haud till him, and aye keep mindin' him o' your Uncle Ebenezer.    "},{"title":"The works of Robert Burns: with an account of his life, and criticism on his writings.","author":"Burns, Robert","year":"1830-01-01","url":"http:\/\/babel.hathitrust.org\/cgi\/pt?id=loc.ark:\/13960\/t77s86n39","placename":"Haud","snippet":"Haud to the Muse, my dainty Davie: 1'he warl' may play you monie a shavie ; Liut lor the muse, she'll never leave ye,    "},{"title":"The complete poetical and prose works of Robert Burns:","author":"Burns, Robert","year":"1859-01-01","url":"http:\/\/babel.hathitrust.org\/cgi\/pt?id=loc.ark:\/13960\/t4pk0xn8h","placename":"Haud","snippet":"Haud to the Muse, my dainty Dane : The warl' may play you monie a shavie ; But for the Muse, she'll never leave ye,    "},{"title":"The complete poetical and prose works of Robert Burns:","author":"Burns, Robert","year":"1881-01-01","url":"http:\/\/babel.hathitrust.org\/cgi\/pt?id=loc.ark:\/13960\/t43r1df6g","placename":"Haud","snippet":"Haud to the Muse, my dainty Da\\-ie : The warl' may play you nionie a shavie; But fur the Muse, she'll ne\\er leave ye,    "},{"title":"The complete works of Robert Burns:","author":"Burns, Robert","year":"1854-01-01","url":"http:\/\/babel.hathitrust.org\/cgi\/pt?id=loc.ark:\/13960\/t2z32c284","placename":"Haud","snippet":"Haud up thy Iian', Deil ! ance, twice, thrice !    "},{"title":"The complete works of Robert Burns: containing his poems, songs, and correspondence.","author":"Burns, Robert","year":"1852-01-01","url":"http:\/\/babel.hathitrust.org\/cgi\/pt?id=loc.ark:\/13960\/t01z4r72g","placename":"Haud","snippet":"Haud to the Muse, my dainty Davie : The warl' may play you monie a shavie ; But for the Muse she'll never leave ye,    "},{"title":"'Broken stowage',","author":"Bone, David W.","year":null,"url":"http:\/\/babel.hathitrust.org\/cgi\/pt?id=uc2.ark:\/13960\/t6qz2497f","placename":"Haud","snippet":"Haud on till ye hear th' 'pant.'    "},{"title":"The Prose Works of Sir Walter Scott. (Supplementary volume: containing notes, historical and illustrative, by the author, glossary, etc.)","author":"Scott, Walter","year":null,"url":"https:\/\/historicaltexts.jisc.ac.uk\/bl-003316901-02","placename":"Haud","snippet":"Haud to the right, gentlemen, I implore ye\u2014there is some sma' provision making at    "},{"title":"The Prose Works of Sir Walter Scott. (Supplementary volume: containing notes, historical and illustrative, by the author, glossary, etc.)","author":"Scott, Walter","year":null,"url":"https:\/\/historicaltexts.jisc.ac.uk\/bl-003316901-02","placename":"Haud","snippet":"had bestowed themon the courtiers and nobility by whose descendants ithey were at present actually possessed; beneath 'this list was written, in red letters, in the hand of Ithe deceased, Haud Immemor, F. S.    "},{"title":"Story of Maurice Lestrange. Being an account of his travels and adventures in Scotland during the year 1765. [A tale.]","author":"Omond, George William Thomson.","year":"1896-01-01","url":"https:\/\/historicaltexts.jisc.ac.uk\/bl-002709091","placename":"Haud","snippet":"Haud back, Sir,\" he exclaimed, angrily;\" it's no' safe, I'm tellin' ye.\"    "},{"title":"Lilac Sunbonnet","author":"Crockett, Samuel Rutherford.","year":"1894-01-01","url":"https:\/\/historicaltexts.jisc.ac.uk\/bl-000821642","placename":"Haud","snippet":"Haud up the hill, breestto the brae.\"    "},{"title":"Lilac Sunbonnet","author":"Crockett, Samuel Rutherford.","year":"1894-01-01","url":"https:\/\/historicaltexts.jisc.ac.uk\/bl-000821642","placename":"Haud","snippet":"Haud up there, ye jaud ! \"    "},{"title":"Bog-Myrtle and Peat. Tales, chiefly of Galloway, gathered from the years 1889 to 1895","author":"Crockett, Samuel Rutherford.","year":"1895-01-01","url":"https:\/\/historicaltexts.jisc.ac.uk\/bl-000821611","placename":"Haud","snippet":"Haud aff the clean floor!\"    "},{"title":"Secretar. Founded on the story of the Casket Letters","author":"Beatty, W.","year":"1897-01-01","url":"https:\/\/historicaltexts.jisc.ac.uk\/bl-000240159","placename":"Haud","snippet":"Haud your whisht, lass,\" he cautioned me,\" gif she speaks, gie her scowth, and, for God's sake, when yeanswer, dinna enlarge, but tak the shortest gate.    "},{"title":"Nelly Armstrong: a story of the day. By the author of \u201cRose Douglas\u201d [i.e. S. R. Whitehead]","author":"Armstrong, Nelly.","year":"1853-01-01","url":"https:\/\/historicaltexts.jisc.ac.uk\/bl-000116525-02","placename":"Haud","snippet":"Haud her upyours*ell, I say, and I'll be back thisminute! The muckle, idle, faint-hearted    "}]