[{"title":"The World According to Bertie","author":"McCall Smith, Alexander","year":null,"url":null,"placename":"Cowie","snippet":"\"That's by James Cowie,\" he said.    "},{"title":"The World According to Bertie","author":"McCall Smith, Alexander","year":null,"url":null,"placename":"Cowie","snippet":"It was a small Cowie oil that he had acquired recently at an auction \u2013 the front of a building with a girl sitting on stone steps.    "},{"title":"The Uncommon Appeal of Clouds","author":"McCall Smith, Alexander","year":null,"url":null,"placename":"Cowie","snippet":"Cowie drew the young people whom he taught; they were delicate portraits, entirely natural, catching what the language of James VI's time referred to as 'man's innocency'.    "},{"title":"The Uncommon Appeal of Clouds","author":"McCall Smith, Alexander","year":null,"url":null,"placename":"Cowie","snippet":"of a picture of her own that she could not bear to lose \u2013 a drawing by James Cowie of a boy, one of his Hospitalfield portraits.    "},{"title":"The Unbearable Lightness of Scones","author":"McCall Smith, Alexander","year":null,"url":null,"placename":"Cowie","snippet":"Cowie in his Hospitalfield days, prob\u00adably.    "},{"title":"The Unbearable Lightness of Scones","author":"McCall Smith, Alexander","year":null,"url":null,"placename":"Cowie","snippet":"sketch by James Cowie \u2013 the style was unmistakable.    "},{"title":"The Unbearable Lightness of Scones","author":"McCall Smith, Alexander","year":null,"url":null,"placename":"Cowie","snippet":"Cowie in his Hospitalfield days, prob\u00adably.    "},{"title":"The Unbearable Lightness of Scones","author":"McCall Smith, Alexander","year":null,"url":null,"placename":"Cowie","snippet":"sketch by James Cowie \u2013 the style was unmistakable.    "},{"title":"The Sunday Philosophy Club","author":"McCall Smith, Alexander","year":null,"url":null,"placename":"Cowie","snippet":"They were standing near one of the two large front windows, next to the Cowie that was a Crosbie.    "},{"title":"The Sunday Philosophy Club","author":"McCall Smith, Alexander","year":null,"url":null,"placename":"Cowie","snippet":"'This is a Cowie, isn't it?' she asked.    "},{"title":"The Sunday Philosophy Club","author":"McCall Smith, Alexander","year":null,"url":null,"placename":"Cowie","snippet":"She had two small Cowie oils and would have been happy to purchase another, but she had been too late and she had learned her lesson.    "},{"title":"The Sunday Philosophy Club","author":"McCall Smith, Alexander","year":null,"url":null,"placename":"Cowie","snippet":"She liked Cowie, who had painted haunting pictures of people who seemed to be cocooned in old-fashioned stillness; quiet rooms in which sad-faced schoolgirls were occupied in drawing or in embroidery; Scottish country roads and paths that seemed to lead into nothing but further silence; folds of cloth in the artist's studio.    "},{"title":"The Sunday Philosophy Club","author":"McCall Smith, Alexander","year":null,"url":null,"placename":"Cowie","snippet":"She had learned to do this after arriving late for the opening of a Cowie retrospective to find that the few paintings that had been for sale had been bought within the first fifteen minutes.    "},{"title":"The Charming Quirks of Others","author":"McCall Smith, Alexander","year":null,"url":null,"placename":"Cowie","snippet":"Yes, they had talked about a Cowie retrospective that the Dean Gallery had put on.    "},{"title":"The Charming Quirks of Others","author":"McCall Smith, Alexander","year":null,"url":null,"placename":"Cowie","snippet":"He had talked to her about art, she thought; about Cowie.    "},{"title":"Bertie's Guide to Life and Mothers","author":"McCall Smith, Alexander","year":null,"url":null,"placename":"Cowie","snippet":"\"I think that's quite enough,\" said Mr Cowie.    "},{"title":"Bertie's Guide to Life and Mothers","author":"McCall Smith, Alexander","year":null,"url":null,"placename":"Cowie","snippet":"\"Well, Bertie?\" pressed Mr Cowie.    "},{"title":"Bertie's Guide to Life and Mothers","author":"McCall Smith, Alexander","year":null,"url":null,"placename":"Cowie","snippet":"\"The UN is not rubbish, Tofu,\" said Mr Cowie.    "},{"title":"Bertie's Guide to Life and Mothers","author":"McCall Smith, Alexander","year":null,"url":null,"placename":"Cowie","snippet":"\"How very nice!\" enthused Mr Cowie.    "},{"title":"Bertie's Guide to Life and Mothers","author":"McCall Smith, Alexander","year":null,"url":null,"placename":"Cowie","snippet":"\"Olive!\" snapped Mr Cowie.    "},{"title":"Bertie's Guide to Life and Mothers","author":"McCall Smith, Alexander","year":null,"url":null,"placename":"Cowie","snippet":"Mr Cowie looked at Olive with disapproval.    "},{"title":"Bertie's Guide to Life and Mothers","author":"McCall Smith, Alexander","year":null,"url":null,"placename":"Cowie","snippet":"\"Maybe?\" said Mr Cowie.    "},{"title":"Bertie's Guide to Life and Mothers","author":"McCall Smith, Alexander","year":null,"url":null,"placename":"Cowie","snippet":"\"I haven't really got much to say, Mr Cowie.    "},{"title":"Bertie's Guide to Life and Mothers","author":"McCall Smith, Alexander","year":null,"url":null,"placename":"Cowie","snippet":"\"Bertie,\" said Mr Cowie, \"perhaps you'd like to say a few words.\"    "},{"title":"Bertie's Guide to Life and Mothers","author":"McCall Smith, Alexander","year":null,"url":null,"placename":"Cowie","snippet":"\"There's some very important news today,\" announced Mr Cowie.    "},{"title":"Bertie's Guide to Life and Mothers","author":"McCall Smith, Alexander","year":null,"url":null,"placename":"Cowie","snippet":"'They're destined for lives of disappointment, Mr Cowie.    "},{"title":"Bertie's Guide to Life and Mothers","author":"McCall Smith, Alexander","year":null,"url":null,"placename":"Cowie","snippet":"Their new teacher, Mr Cowie, had intervened.    "},{"title":"Bertie Plays the Blues","author":"McCall Smith, Alexander","year":null,"url":null,"placename":"Cowie","snippet":"That would mean that the only impedimenta he would have to move down to Scotland Street would be his clothes, his shaving bag, and a selection of paintings that he thought Domenica would like too: a pencil sketch by James Cowie of a child with prominent front teeth, a Philipson nude (with cathedral background), an Alberto Morrocco study of a melon, and a snowy Scottish landscape by Anne Redpath.    "},{"title":"Forty years on the stage :","author":"Barnes, J. H.","year":"1914-01-01","url":"http:\/\/babel.hathitrust.org\/cgi\/pt?id=uc2.ark:\/13960\/t7xk8hn0q","placename":"Cowie","snippet":"A. E. George was very effective as one Brog, a revolutionary ; Basil Gill's fine voice was heard to advantage as Osric, the hero; Miss Lilian McCarthy was picturesque and forceful as the Lady Noma, and the rest of us, including Charles Maude, myself, Moss Shore, Gerald Lawrence, Misses Laura Cowie and Clara Greet, lent our best help in more or less visionary characters.    "},{"title":"Early Travellers in Scotland. Edited by P. Hume Brown. [With maps.]","author":"Brown, Peter Hume.","year":"1891-01-01","url":"https:\/\/historicaltexts.jisc.ac.uk\/bl-000495295","placename":"Cowie","snippet":"2 Cowie, the district immediately to the north of Stonehaven.    "}]