[{"title":"The Journal of Sir Walter Scott; From the Original Manuscript at Abbotsford","author":"Scott, Walter","year":null,"url":"http:\/\/www.gutenberg.org\/ebooks\/14860","placename":"Pettycur","snippet":"Pettycur, i.    "},{"title":"The Journal of Sir Walter Scott; From the Original Manuscript at Abbotsford","author":"Scott, Walter","year":null,"url":"http:\/\/www.gutenberg.org\/ebooks\/14860","placename":"Pettycur","snippet":"We reached the Pettycur about half-pastone, crossed to Edinburgh, and so ended our little excursion.    "},{"title":"The Journal of Sir Walter Scott; From the Original Manuscript at Abbotsford","author":"Scott, Walter","year":null,"url":"http:\/\/www.gutenberg.org\/ebooks\/14860","placename":"Pettycur","snippet":"Pettycur, i.    "},{"title":"The Journal of Sir Walter Scott; From the Original Manuscript at Abbotsford","author":"Scott, Walter","year":null,"url":"http:\/\/www.gutenberg.org\/ebooks\/14860","placename":"Pettycur","snippet":"We reached the Pettycur about half-pastone, crossed to Edinburgh, and so ended our little excursion.    "},{"title":"The Journal of Sir Walter Scott; From the Original Manuscript at Abbotsford","author":"Scott, Walter","year":null,"url":"http:\/\/www.gutenberg.org\/ebooks\/14860","placename":"Pettycur","snippet":"Pettycur, i.    "},{"title":"The Journal of Sir Walter Scott; From the Original Manuscript at Abbotsford","author":"Scott, Walter","year":null,"url":"http:\/\/www.gutenberg.org\/ebooks\/14860","placename":"Pettycur","snippet":"We reached the Pettycur about half-pastone, crossed to Edinburgh, and so ended our little excursion.    "},{"title":"Wilson's Tales of the Borders and of Scotland, Volume 21","author":"Alexander Leighton","year":null,"url":"http:\/\/www.gutenberg.org\/ebooks\/37336","placename":"Pettycur","snippet":"The victim, now completelyimmerged in melancholy, progressed slowly onwards to Pettycur.    "},{"title":"Wilson's Tales of the Borders and of Scotland, Volume 21","author":"Alexander Leighton","year":null,"url":"http:\/\/www.gutenberg.org\/ebooks\/37336","placename":"Pettycur","snippet":"The ostler managed for him all thedetails of his business, and he departed in the same gloomy mood forPettycur.    "},{"title":"Wilson's Tales of the Borders and of Scotland, Volume 21","author":"Alexander Leighton","year":null,"url":"http:\/\/www.gutenberg.org\/ebooks\/37336","placename":"Pettycur","snippet":"The victim, now completelyimmerged in melancholy, progressed slowly onwards to Pettycur.    "},{"title":"Wilson's Tales of the Borders and of Scotland, Volume 21","author":"Alexander Leighton","year":null,"url":"http:\/\/www.gutenberg.org\/ebooks\/37336","placename":"Pettycur","snippet":"The ostler managed for him all thedetails of his business, and he departed in the same gloomy mood forPettycur.    "},{"title":"The journal of Sir Walter Scott,","author":"Scott, Walter","year":"1891-01-01","url":"http:\/\/babel.hathitrust.org\/cgi\/pt?id=uc2.ark:\/13960\/t7jq0vz0t","placename":"Pettycur","snippet":"We reached the Pettycur about half-past one, crossed to Edinburgh, and so ended our little excur-    "},{"title":"The journal of Sir Walter Scott,","author":"Scott, Walter","year":"1891-01-01","url":"http:\/\/babel.hathitrust.org\/cgi\/pt?id=loc.ark:\/13960\/t6rz05s28","placename":"Pettycur","snippet":"We reached the Pettycur about half-past one, crossed to Edinburgh, and so ended our little excur-    "},{"title":"The journal of Sir Walter Scott,","author":"Scott, Walter","year":"1890-01-01","url":"http:\/\/babel.hathitrust.org\/cgi\/pt?id=uc2.ark:\/13960\/t2q52hk62","placename":"Pettycur","snippet":"We reached the Pettycur about half-past one, crossed to Edinburgh, and so ended our little excursion.    "},{"title":"The X jewel,","author":"Moncreiff, Fred. Chas.","year":"1896-01-01","url":"http:\/\/babel.hathitrust.org\/cgi\/pt?id=uc2.ark:\/13960\/t5bc4607f","placename":"Pettycur","snippet":"I therefore crossed by the ship Jonas of Leith to Pettycur, a small haven beside the town of Kingorn.    "},{"title":"Memoirs of the life and writings of Thomas Chalmers...","author":"Hanna, William","year":null,"url":"http:\/\/babel.hathitrust.org\/cgi\/pt?id=uc2.ark:\/13960\/t5j96339f","placename":"Pettycur","snippet":"With this letter unanswered, and amid a host of perplexities as to the future, Dr. Chalmers left Glasgow on the 7th August, staid during the 8th in Edinburgh, and early on the morning of the 9th crossed to Pettycur, where, having an interval of leisure, he thus journalized the events of the preceding day : \" The interesting occurrence of this day is a communication from Sir George Mackenzie and Dr. Brewster, backed with an earnest solicitation from Mr. Thomson that I would allow my friends in Edinburgh to make interest for my succeeding to Playfair  in the Natural Philosophy class.    "},{"title":"Scotland Picturesque and Traditional. A pilgrimage with staff and knapsack","author":"Todd, George Eyre.","year":"1895-01-01","url":"https:\/\/historicaltexts.jisc.ac.uk\/bl-003645357","placename":"Pettycur","snippet":"Other ferries across the Scottish Sea were establishedat Pettycur and at Queensferry, the latter receiving its name from thefrequent crossing there of Queen Margaret, Avife of Malcolm Canmore,betAveen Edinburgh and Dunfermline.    "}]