[{"title":"The Journal of Sir Walter Scott; From the Original Manuscript at Abbotsford","author":"Scott, Walter","year":null,"url":"http:\/\/www.gutenberg.org\/ebooks\/14860","placename":"Laing","snippet":"Plenty to do if we had alert assistance, but Gell and Laing Meason haveboth their own matters to puzzle out, and why should they mind myaffairs?    "},{"title":"The Journal of Sir Walter Scott; From the Original Manuscript at Abbotsford","author":"Scott, Walter","year":null,"url":"http:\/\/www.gutenberg.org\/ebooks\/14860","placename":"Laing","snippet":"Hailes andPinkerton, Robertson and Laing--there is nothing else for it--andPinkerton is poor work.    "},{"title":"The Journal of Sir Walter Scott; From the Original Manuscript at Abbotsford","author":"Scott, Walter","year":null,"url":"http:\/\/www.gutenberg.org\/ebooks\/14860","placename":"Laing","snippet":"Plenty to do if we had alert assistance, but Gell and Laing Meason haveboth their own matters to puzzle out, and why should they mind myaffairs?    "},{"title":"The Journal of Sir Walter Scott; From the Original Manuscript at Abbotsford","author":"Scott, Walter","year":null,"url":"http:\/\/www.gutenberg.org\/ebooks\/14860","placename":"Laing","snippet":"Hailes andPinkerton, Robertson and Laing--there is nothing else for it--andPinkerton is poor work.    "},{"title":"The Journal of Sir Walter Scott; From the Original Manuscript at Abbotsford","author":"Scott, Walter","year":null,"url":"http:\/\/www.gutenberg.org\/ebooks\/14860","placename":"Laing","snippet":"Plenty to do if we had alert assistance, but Gell and Laing Meason haveboth their own matters to puzzle out, and why should they mind myaffairs?    "},{"title":"The Journal of Sir Walter Scott; From the Original Manuscript at Abbotsford","author":"Scott, Walter","year":null,"url":"http:\/\/www.gutenberg.org\/ebooks\/14860","placename":"Laing","snippet":"Hailes andPinkerton, Robertson and Laing--there is nothing else for it--andPinkerton is poor work.    "},{"title":"The journal of Sir Walter Scott,","author":"Scott, Walter","year":"1890-01-01","url":"http:\/\/babel.hathitrust.org\/cgi\/pt?id=uc2.ark:\/13960\/t9h41n97z","placename":"Laing","snippet":"Plenty to do if we had alert assistance, but Gell and Laing Meason have both their own matters to puzzle out, and why should they mind my affairs ? The weather is very cold, and I am the reverse of the idiot boy    "},{"title":"The journal of Sir Walter Scott,","author":"Scott, Walter","year":"1890-01-01","url":"http:\/\/babel.hathitrust.org\/cgi\/pt?id=uc2.ark:\/13960\/t9h41n97z","placename":"Laing","snippet":"Hailes and Pinkerton, Robertson and Laing there is nothing else for it and Pinkerton is poor work.    "},{"title":"The journal of Sir Walter Scott,","author":"Scott, Walter","year":"1891-01-01","url":"http:\/\/babel.hathitrust.org\/cgi\/pt?id=uc2.ark:\/13960\/t7jq0vz0t","placename":"Laing","snippet":"Plenty to do if we had alert assistance, but Gell and Laing Meason have both their own matters to puzzle out, and why should they mind my affairs ? The weather is very cold, and I am the reverse of the idiot boy    "},{"title":"The journal of Sir Walter Scott,","author":"Scott, Walter","year":"1891-01-01","url":"http:\/\/babel.hathitrust.org\/cgi\/pt?id=uc2.ark:\/13960\/t7jq0vz0t","placename":"Laing","snippet":"Hailes and Pinkerton, Robertson and Laing there is nothing else for it and Pinkerton is poor work.    "},{"title":"The journal of Sir Walter Scott,","author":"Scott, Walter","year":"1891-01-01","url":"http:\/\/babel.hathitrust.org\/cgi\/pt?id=loc.ark:\/13960\/t6rz05s28","placename":"Laing","snippet":"Plenty to do if we had alert assistance, but Gell and Laing Meason have both their own matters to puzzle out, and why should they mind my affairs?    "},{"title":"The journal of Sir Walter Scott,","author":"Scott, Walter","year":"1891-01-01","url":"http:\/\/babel.hathitrust.org\/cgi\/pt?id=loc.ark:\/13960\/t6rz05s28","placename":"Laing","snippet":"Hailes and Pinkerton, Robertson and Laing \u2014 there is nothing else for it \u2014 and Pinkerton is poor work.    "},{"title":"The journal of Sir Walter Scott,","author":"Scott, Walter","year":"1890-01-01","url":"http:\/\/babel.hathitrust.org\/cgi\/pt?id=uc2.ark:\/13960\/t2q52hk62","placename":"Laing","snippet":"Laing, from which the following incurred without the certainty of    "},{"title":"Memorials of his time,","author":"Cockburn, Henry Cockburn","year":"1856-01-01","url":"http:\/\/babel.hathitrust.org\/cgi\/pt?id=uc2.ark:\/13960\/t1jh3d32m","placename":"Laing","snippet":"If Gray was the head of the Council, Laing was its hand.    "},{"title":"Letters and memorials of Jane Welsh Carlyle.","author":"Carlyle, Jane Welsh","year":"1883-01-01","url":"http:\/\/babel.hathitrust.org\/cgi\/pt?id=loc.ark:\/13960\/t0gt63t91","placename":"Laing","snippet":"I found something of old Laing in him, particularly the voice.    "},{"title":"The complete works of Robert Burns: containing his poems, songs, and correspondence.","author":"Burns, Robert","year":"1852-01-01","url":"http:\/\/babel.hathitrust.org\/cgi\/pt?id=loc.ark:\/13960\/t01z4r72g","placename":"Laing","snippet":"Laing has given an authentic version in his very curious    "}]