[{"title":"Stories of the Border Marches","author":"Lang, John","year":null,"url":"http:\/\/www.gutenberg.org\/ebooks\/14416","placename":"Burntisland","snippet":"On a dark March night of 1286, King Alexander rode along the rough cliffpath between Burntisland and Kinghorn on a horse that stumbled in thedarkness, and in the morning, on the rocks far down below, the greywaves lapped against the ashen dead face of a mighty king.    "},{"title":"Stories of the Border Marches","author":"Lang, John","year":null,"url":"http:\/\/www.gutenberg.org\/ebooks\/14416","placename":"Burntisland","snippet":"On a dark March night of 1286, King Alexander rode along the rough cliffpath between Burntisland and Kinghorn on a horse that stumbled in thedarkness, and in the morning, on the rocks far down below, the greywaves lapped against the ashen dead face of a mighty king.    "},{"title":"The Story of My Life, volumes 4-6","author":"Hare, Augustus J. C. (Augustus John Cuthbert)","year":null,"url":"http:\/\/www.gutenberg.org\/ebooks\/42770","placename":"Burntisland","snippet":"Her childhood was passed in Burntisland,whither her brother returned for his holidays, having some school-workto do whilst at home.    "},{"title":"The Story of My Life, volumes 4-6","author":"Hare, Augustus J. C. (Augustus John Cuthbert)","year":null,"url":"http:\/\/www.gutenberg.org\/ebooks\/42770","placename":"Burntisland","snippet":"Her childhood was passed in Burntisland,whither her brother returned for his holidays, having some school-workto do whilst at home.    "},{"title":"Hunted and Harried","author":"Ballantyne, R. M. (Robert Michael)","year":null,"url":"http:\/\/www.gutenberg.org\/ebooks\/21738","placename":"Burntisland","snippet":"Afterwards his head was to be cut off, and his body, dividedinto four quarters, to be sent respectively to Saint Andrews, Glasgow,Leith, and Burntisland.    "},{"title":"Hunted and Harried","author":"Ballantyne, R. M. (Robert Michael)","year":null,"url":"http:\/\/www.gutenberg.org\/ebooks\/21738","placename":"Burntisland","snippet":"Afterwards his head was to be cut off, and his body, dividedinto four quarters, to be sent respectively to Saint Andrews, Glasgow,Leith, and Burntisland.    "},{"title":"The Testament of Gideon Mack","author":"Robertson, James","year":null,"url":null,"placename":"Burntisland","snippet":"MrWinnyford, known for such works as Steam Ghosts at the EastMidlands Rail and Road Museum, See Out\uf732 Sea at various locationsaround the Humber Estuary, and The Monkfish of Burntisland, wasthe leading, possibly the only true exponent of mythohistoriograph-ical art, and he, Alan Straiton, felt proud and privileged to havecollaborated with him.    "},{"title":"The judge,","author":"West, Rebecca","year":null,"url":"http:\/\/babel.hathitrust.org\/cgi\/pt?id=uc2.ark:\/13960\/t91836s7n","placename":"Burntisland","snippet":"Sometimes they would walk along a lane by the beach to Burntisland.    "},{"title":"Black's picturesque tourist of Scotland.","author":null,"year":"1857-01-01","url":"http:\/\/babel.hathitrust.org\/cgi\/pt?id=uc2.ark:\/13960\/t9862nx30","placename":"Burntisland","snippet":"Proceeding from Burntisland, the line runs along the sea-coast by Kinghorn (lOi miles), Kirkcaldy (14 miles).    "},{"title":"Black's picturesque tourist of Scotland.","author":null,"year":"1857-01-01","url":"http:\/\/babel.hathitrust.org\/cgi\/pt?id=uc2.ark:\/13960\/t9862nx30","placename":"Burntisland","snippet":"Burntisland [Inn : Forth Hotel] is about six miles from Granton, and is reached by the steamer in good weather in about half an hour after its leaving Granton.    "},{"title":"Black's picturesque tourist of Scotland.","author":null,"year":"1857-01-01","url":"http:\/\/babel.hathitrust.org\/cgi\/pt?id=uc2.ark:\/13960\/t9862nx30","placename":"Burntisland","snippet":"(By Granton and Burntisland Terry.)    "},{"title":"Black's picturesque tourist of Scotland.","author":null,"year":"1857-01-01","url":"http:\/\/babel.hathitrust.org\/cgi\/pt?id=uc2.ark:\/13960\/t9862nx30","placename":"Burntisland","snippet":"Aberdour, a village on the Frith of Forth, four miles westwards  from Burntisland, is situated on the confines of Donibristle and Aberdour, the respective domains of the Earls of Moray and Morton.    "},{"title":"Black's picturesque tourist of Scotland.","author":null,"year":"1857-01-01","url":"http:\/\/babel.hathitrust.org\/cgi\/pt?id=uc2.ark:\/13960\/t9862nx30","placename":"Burntisland","snippet":"Burntisland (Forth Hotel), a summer resort of the inhabitants  of Edinburgh, stands on a promontory opposite Granton, and forms one of the stations of the Edinburgh, Perth, and Dundee Railway.    "},{"title":"Black's picturesque tourist of Scotland.","author":null,"year":"1857-01-01","url":"http:\/\/babel.hathitrust.org\/cgi\/pt?id=uc2.ark:\/13960\/t9862nx30","placename":"Burntisland","snippet":"Granton is also one of the stations of the Edinburgh, Perth, and Dundee Railway, and betwixt it and Burntisland, on the opposite coast of Fife, is the principal ferry on the Frith of Forth.    "},{"title":"Black's picturesque tourist of Scotland.","author":null,"year":"1857-01-01","url":"http:\/\/babel.hathitrust.org\/cgi\/pt?id=uc2.ark:\/13960\/t9862nx30","placename":"Burntisland","snippet":"The distant view to the north and north-west includes the coast of Fife, Donnibristle House (Earl of Moray's), Inchcolm, Burntisland, the Lomond, Ochil, and Highland Hills, including Damyat (near Stirling), Ben Lomond, and Benledi.    "},{"title":"Edinburgh,","author":"Stevenson, Robert Louis","year":"1912-01-01","url":"http:\/\/babel.hathitrust.org\/cgi\/pt?id=loc.ark:\/13960\/t51g17p9w","placename":"Burntisland","snippet":"Sncll^ blae^ ^^i^^y-^ and scow- thering^ are four of these significant vocables ; they are all words that carry a shiver with them ; and for my part, as I see them aligned before me on the page, I am persuaded that a big wind comes tearing over the Firth from Burntisland and the northern hills ; I think I can hear it howl in the chimney, and as I set my fice northwards, feel its smarting kisses on my cheek.    "},{"title":"Memoirs and correspondence of Francis Horner, M.P.","author":"Horner, Francis","year":"1843-01-01","url":"http:\/\/babel.hathitrust.org\/cgi\/pt?id=uc2.ark:\/13960\/t7cr5s30g","placename":"Burntisland","snippet":"Let me now say a little about myself; though I regret you are not to stay another week at Burntisland,  that you might have had the luxury, and I the profit, of your ruminating upon all these concerns    "},{"title":"Memoirs and correspondence of Francis Horner, M.P.","author":"Horner, Francis","year":"1843-01-01","url":"http:\/\/babel.hathitrust.org\/cgi\/pt?id=uc2.ark:\/13960\/t7cr5s30g","placename":"Burntisland","snippet":"I hope your retirement at Burntisland has    "},{"title":"Memoirs of the life and writings of Thomas Chalmers...","author":"Hanna, William","year":null,"url":"http:\/\/babel.hathitrust.org\/cgi\/pt?id=uc2.ark:\/13960\/t7sn0457p","placename":"Burntisland","snippet":"A steep wooded bank overhanging  the sea, commences about a mile and a half to the west of Burntisland, and terminates near the village of Abcrdour.    "},{"title":"Memoirs of the life and writings of Thomas Chalmers...","author":"Hanna, William","year":null,"url":"http:\/\/babel.hathitrust.org\/cgi\/pt?id=uc2.ark:\/13960\/t7sn0457p","placename":"Burntisland","snippet":"Came over to Burntisland.    "},{"title":"Memoirs of the life and writings of Thomas Chalmers...","author":"Hanna, William","year":null,"url":"http:\/\/babel.hathitrust.org\/cgi\/pt?id=uc2.ark:\/13960\/t5j96339f","placename":"Burntisland","snippet":"Rode smartly to Burntisland, which I reached at five.    "},{"title":"Memoirs of the life and writings of Thomas Chalmers...","author":"Hanna, William","year":null,"url":"http:\/\/babel.hathitrust.org\/cgi\/pt?id=uc2.ark:\/13960\/t5j96339f","placename":"Burntisland","snippet":"Chalmers left Glasgow on Monday the 28th August, to spend a fortnight between Burntisland and Kirkaldy, and to bring his family back with him on his return.    "},{"title":"Memoirs of the life and writings of Thomas Chalmers...","author":"Hanna, William","year":null,"url":"http:\/\/babel.hathitrust.org\/cgi\/pt?id=uc2.ark:\/13960\/t5j96339f","placename":"Burntisland","snippet":"\" I mean to leave Glasgow on Monday the 28th of August, and spend a fortnight between Kirkaldy and Burntisland at sea-bathing.    "},{"title":"Memoirs of the life and writings of Thomas Chalmers...","author":"Hanna, William","year":null,"url":"http:\/\/babel.hathitrust.org\/cgi\/pt?id=uc2.ark:\/13960\/t5j96339f","placename":"Burntisland","snippet":"First Sermon in Glasgow Appearance and Manner in the Pulpit Extract  from Peter's Letters to his Kinsfolk His Alarm as to this Visit His Account of it when over Admission and Introduction as Minister of the Tron Church Sorrowful Remembrances of Kilmnny Visit to Burntisland and Kirkaldy Address to the Inhabitants of Kilmany Effect of Mrs. Chalmers's Return with him to Glasgow Sight of Normanlaw from the Calton Hill Letters to Mr. Edie and to Mrs. Morton Description of Glasgow Annoyances, . . . 1-25    "},{"title":"Domestic details","author":"Crossrig, David Hume","year":"1843-01-01","url":"http:\/\/babel.hathitrust.org\/cgi\/pt?id=uc2.ark:\/13960\/t13n2f40g","placename":"Burntisland","snippet":"On the 27 of August, my sons, James and Francis, sailed for Holland, and Burgh of Burntisland's ship.    "},{"title":"Oliver Cromwell's letters and speeches: with elucidations.","author":"Cromwell, Oliver","year":"1845-01-01","url":"http:\/\/babel.hathitrust.org\/cgi\/pt?id=yale.39002008273931","placename":"Burntisland","snippet":"Burntisland, 29th July, 1651.    "},{"title":"Oliver Cromwell's letters and speeches: with elucidations.","author":"Cromwell, Oliver","year":"1845-01-01","url":"http:\/\/babel.hathitrust.org\/cgi\/pt?id=yale.39002008273931","placename":"Burntisland","snippet":"Blackness Sort has surrendered ; Inchgarvie Island is beset by gunboats : Colonel Monk,we perceive, who has charge of these services, is to be madeLieutenant-General of the Ordnance : and now there is to be anattack on Burntisland with gunboats, which also, one hopes, maysucceed.    "},{"title":"A selection from the correspondence of the late Thomas Chalmers \/","author":"Chalmers, Thomas","year":"1855-01-01","url":"http:\/\/babel.hathitrust.org\/cgi\/pt?id=yale.39002017552325","placename":"Burntisland","snippet":"Burntisland, 14th May, 1846.    "},{"title":"A selection from the correspondence of the late Thomas Chalmers \/","author":"Chalmers, Thomas","year":"1855-01-01","url":"http:\/\/babel.hathitrust.org\/cgi\/pt?id=yale.39002017552325","placename":"Burntisland","snippet":"Burntisland, 23d September, 1841.    "},{"title":"A selection from the correspondence of the late Thomas Chalmers \/","author":"Chalmers, Thomas","year":"1855-01-01","url":"http:\/\/babel.hathitrust.org\/cgi\/pt?id=yale.39002017552325","placename":"Burntisland","snippet":"Burntisland, 14th June, 1840.    "},{"title":"A selection from the correspondence of the late Thomas Chalmers \/","author":"Chalmers, Thomas","year":"1855-01-01","url":"http:\/\/babel.hathitrust.org\/cgi\/pt?id=yale.39002017552325","placename":"Burntisland","snippet":"CCGLXX.\u2014 To Miss Young, Burntisland.    "},{"title":"A selection from the correspondence of the late Thomas Chalmers \/","author":"Chalmers, Thomas","year":"1855-01-01","url":"http:\/\/babel.hathitrust.org\/cgi\/pt?id=yale.39002017552325","placename":"Burntisland","snippet":"Burntisland, 16th May, 1846.    "},{"title":"A selection from the correspondence of the late Thomas Chalmers \/","author":"Chalmers, Thomas","year":"1855-01-01","url":"http:\/\/babel.hathitrust.org\/cgi\/pt?id=yale.39002017552325","placename":"Burntisland","snippet":"Burntisland, 30th September, 1841.    "},{"title":"A selection from the correspondence of the late Thomas Chalmers \/","author":"Chalmers, Thomas","year":"1855-01-01","url":"http:\/\/babel.hathitrust.org\/cgi\/pt?id=yale.39002017552325","placename":"Burntisland","snippet":"Burntisland, \"SOfA September, 1841.    "},{"title":"A selection from the correspondence of the late Thomas Chalmers \/","author":"Chalmers, Thomas","year":"1855-01-01","url":"http:\/\/babel.hathitrust.org\/cgi\/pt?id=yale.39002017552325","placename":"Burntisland","snippet":"Burntisland, Isl May, 1841.    "},{"title":"A selection from the correspondence of the late Thomas Chalmers \/","author":"Chalmers, Thomas","year":"1855-01-01","url":"http:\/\/babel.hathitrust.org\/cgi\/pt?id=yale.39002017552325","placename":"Burntisland","snippet":"Burntisland, 1st September, 1841.    "},{"title":"A selection from the correspondence of the late Thomas Chalmers \/","author":"Chalmers, Thomas","year":"1855-01-01","url":"http:\/\/babel.hathitrust.org\/cgi\/pt?id=yale.39002017552325","placename":"Burntisland","snippet":"Burntisland, 16th June, 1841.    "},{"title":"A selection from the correspondence of the late Thomas Chalmers \/","author":"Chalmers, Thomas","year":"1855-01-01","url":"http:\/\/babel.hathitrust.org\/cgi\/pt?id=yale.39002017552325","placename":"Burntisland","snippet":"Burntisland, 28th April, 1841.    "},{"title":"A selection from the correspondence of the late Thomas Chalmers \/","author":"Chalmers, Thomas","year":"1855-01-01","url":"http:\/\/babel.hathitrust.org\/cgi\/pt?id=yale.39002017552325","placename":"Burntisland","snippet":"Burntisland, 13(A November, 1836.    "},{"title":"A selection from the correspondence of the late Thomas Chalmers \/","author":"Chalmers, Thomas","year":"1855-01-01","url":"http:\/\/babel.hathitrust.org\/cgi\/pt?id=yale.39002017552325","placename":"Burntisland","snippet":"Burntisland, 30th August, 1836.    "},{"title":"A selection from the correspondence of the late Thomas Chalmers \/","author":"Chalmers, Thomas","year":"1855-01-01","url":"http:\/\/babel.hathitrust.org\/cgi\/pt?id=yale.39002017552325","placename":"Burntisland","snippet":"Burntisland, 12th April, 1836.    "},{"title":"A selection from the correspondence of the late Thomas Chalmers \/","author":"Chalmers, Thomas","year":"1855-01-01","url":"http:\/\/babel.hathitrust.org\/cgi\/pt?id=yale.39002017552325","placename":"Burntisland","snippet":"Burntisland, 21st September, 1832.    "},{"title":"A selection from the correspondence of the late Thomas Chalmers \/","author":"Chalmers, Thomas","year":"1855-01-01","url":"http:\/\/babel.hathitrust.org\/cgi\/pt?id=yale.39002017552325","placename":"Burntisland","snippet":"Burntisland, Isi February, 1846.    "},{"title":"A selection from the correspondence of the late Thomas Chalmers \/","author":"Chalmers, Thomas","year":"1855-01-01","url":"http:\/\/babel.hathitrust.org\/cgi\/pt?id=yale.39002017552325","placename":"Burntisland","snippet":"Rather than surrender the Christianliberties of our Church, they would live all their days on dosesof porridge, and scud berrfit on the green of Burntisland.    "},{"title":"A selection from the correspondence of the late Thomas Chalmers \/","author":"Chalmers, Thomas","year":"1855-01-01","url":"http:\/\/babel.hathitrust.org\/cgi\/pt?id=yale.39002017552325","placename":"Burntisland","snippet":"Burntisland, 29th September, 1841.    "},{"title":"A selection from the correspondence of the late Thomas Chalmers \/","author":"Chalmers, Thomas","year":"1855-01-01","url":"http:\/\/babel.hathitrust.org\/cgi\/pt?id=yale.39002017552325","placename":"Burntisland","snippet":"Burntisland, 30th August, 1841.    "},{"title":"A selection from the correspondence of the late Thomas Chalmers \/","author":"Chalmers, Thomas","year":"1855-01-01","url":"http:\/\/babel.hathitrust.org\/cgi\/pt?id=yale.39002017552325","placename":"Burntisland","snippet":"Burntisland, 18th May, 1841.    "},{"title":"A selection from the correspondence of the late Thomas Chalmers \/","author":"Chalmers, Thomas","year":"1855-01-01","url":"http:\/\/babel.hathitrust.org\/cgi\/pt?id=yale.39002017552325","placename":"Burntisland","snippet":"Burntisland, 14sa July, 1840.    "},{"title":"A selection from the correspondence of the late Thomas Chalmers \/","author":"Chalmers, Thomas","year":"1855-01-01","url":"http:\/\/babel.hathitrust.org\/cgi\/pt?id=yale.39002017552325","placename":"Burntisland","snippet":"Burntisland, 26th June, 1840.    "},{"title":"A selection from the correspondence of the late Thomas Chalmers \/","author":"Chalmers, Thomas","year":"1855-01-01","url":"http:\/\/babel.hathitrust.org\/cgi\/pt?id=yale.39002017552325","placename":"Burntisland","snippet":"Part of my family is now at Burntisland, which I left thismorning, and am now with ray father-in-law at Kirkaldy.    "},{"title":"A selection from the correspondence of the late Thomas Chalmers \/","author":"Chalmers, Thomas","year":"1855-01-01","url":"http:\/\/babel.hathitrust.org\/cgi\/pt?id=yale.39002017552325","placename":"Burntisland","snippet":"Burntisland, 20th October, 1835.    "},{"title":"A selection from the correspondence of the late Thomas Chalmers \/","author":"Chalmers, Thomas","year":"1855-01-01","url":"http:\/\/babel.hathitrust.org\/cgi\/pt?id=yale.39002017552325","placename":"Burntisland","snippet":"Burntisland, 27(A December, 1 834.    "},{"title":"A selection from the correspondence of the late Thomas Chalmers \/","author":"Chalmers, Thomas","year":"1855-01-01","url":"http:\/\/babel.hathitrust.org\/cgi\/pt?id=yale.39002017552325","placename":"Burntisland","snippet":"Burntisland, 23d June, 1841.    "},{"title":"A selection from the correspondence of the late Thomas Chalmers \/","author":"Chalmers, Thomas","year":"1855-01-01","url":"http:\/\/babel.hathitrust.org\/cgi\/pt?id=yale.39002017552325","placename":"Burntisland","snippet":"Burntisland, 29th September, 1841.    "},{"title":"A selection from the correspondence of the late Thomas Chalmers \/","author":"Chalmers, Thomas","year":"1855-01-01","url":"http:\/\/babel.hathitrust.org\/cgi\/pt?id=yale.39002017552325","placename":"Burntisland","snippet":"Burntisland, 5th Septembet, 1837.    "},{"title":"A selection from the correspondence of the late Thomas Chalmers \/","author":"Chalmers, Thomas","year":"1855-01-01","url":"http:\/\/babel.hathitrust.org\/cgi\/pt?id=yale.39002017552325","placename":"Burntisland","snippet":"Burntisland, 14\u00abA September, 1836My dear Mrs. Parker \u2014 Nothing but circumstances prevents me from avaiUng myself of your kind invitation, thedays I spend at Fairley being always the sunniest and mostdelightful I spend any where.    "},{"title":"A selection from the correspondence of the late Thomas Chalmers \/","author":"Chalmers, Thomas","year":"1855-01-01","url":"http:\/\/babel.hathitrust.org\/cgi\/pt?id=yale.39002017552325","placename":"Burntisland","snippet":"Burntisland, 28th Septetnber, 1830.    "},{"title":"A selection from the correspondence of the late Thomas Chalmers \/","author":"Chalmers, Thomas","year":"1855-01-01","url":"http:\/\/babel.hathitrust.org\/cgi\/pt?id=yale.39002017552325","placename":"Burntisland","snippet":"Burntisland, 9th July, 1841.    "},{"title":"To arms! :","author":"Balfour, Andrew","year":"1898-01-01","url":"http:\/\/babel.hathitrust.org\/cgi\/pt?id=uc2.ark:\/13960\/t85h7dm4b","placename":"Burntisland","snippet":"We had heard the thunder of the great guns as the ships of war cannonaded the sort at Burntisland, and never shall I forget the frenzied excitement which pervaded all classes and both parties when the news came in that Brigadier Macintosh had crossed the Forth and was advancing    "},{"title":"Tales of a Grandfather ... [ser. 1-3.] With notes","author":"Scott, Walter","year":"1865-01-01","url":"https:\/\/historicaltexts.jisc.ac.uk\/bl-003318070","placename":"Burntisland","snippet":"The English ships of war in the frith, acting under theDuke's orders, had driven Mar's forces from thecastle of Burntisland, and the royal troops had established themselves throughout a great part of Fiseshire, formerly held exclusively by the rebel army.    "},{"title":"Tales of a Grandfather ... [ser. 1-3.] With notes","author":"Scott, Walter","year":"1865-01-01","url":"https:\/\/historicaltexts.jisc.ac.uk\/bl-003318070","placename":"Burntisland","snippet":"The armed ships were induced bythese appearances to slip their cables, and, standing over to Burntisland, commenced a cannonade,which was returned by the rebels from a batterywhich they had constructed on the outer port ofthe harbour, with little damage on either side.    "},{"title":"Tales of a Grandfather ... [ser. 1-3.] With notes","author":"Scott, Walter","year":"1865-01-01","url":"https:\/\/historicaltexts.jisc.ac.uk\/bl-003318070","placename":"Burntisland","snippet":"Mar threw troops into the castle of Burntisland, and seemed busy in collecting vessels inthat little port.    "},{"title":"Tales of a Grandfather ... [ser. 1-3.] With notes","author":"Scott, Walter","year":"1865-01-01","url":"https:\/\/historicaltexts.jisc.ac.uk\/bl-003318070","placename":"Burntisland","snippet":"Mar, ashad been agreed upon, protected the return of thedetachment by advancing a body of five hundredHighlanders as far as Auchtertool, halfway betweenPerth and Burntisland.    "},{"title":"Tales of a Grandfather ... [ser. 1-3.] With notes","author":"Scott, Walter","year":"1865-01-01","url":"https:\/\/historicaltexts.jisc.ac.uk\/bl-003318070","placename":"Burntisland","snippet":"The Master of Sinclair, with aboutfourscore troopers, and carrying with him a num-her of baggage-horses, left Perth aboutnightfall, and, to baffle observation, tooka circuitous road to Burntisland.    "},{"title":"Tales of a Grandfather ... [ser. 1-3.] With notes","author":"Scott, Walter","year":"1865-01-01","url":"https:\/\/historicaltexts.jisc.ac.uk\/bl-003318070","placename":"Burntisland","snippet":"The wind, however, proving contrary, themaster of the ship dropped anchor at Burntisland, on the Fife shore of the Frith of Forth, ofwhich he was a native, that he might have anopportunity to see his wife and children before hisdeparture.    "},{"title":"Tales of a Grandfather ... [ser. 1-3.] With notes","author":"Scott, Walter","year":"1865-01-01","url":"https:\/\/historicaltexts.jisc.ac.uk\/bl-003318070","placename":"Burntisland","snippet":"Twelve hundred men, three hundred of whomwere youths of the best Scottish families, embarkedon board of five frigates, purchased at Hamburghfor the service of the expedition ; for the King refused the Company even the trifling accommodationof a ship of war, which lay idle at Burntisland.    "},{"title":"Miscellaneous Prose Works of Sir Walter Scott, Bart","author":"Scott, Walter","year":"1847-01-01","url":"https:\/\/historicaltexts.jisc.ac.uk\/bl-003316905-03","placename":"Burntisland","snippet":"Mar threw troops into the castle of Burntisland, and seemed busy in collecting vessels inthat little port.    "},{"title":"Miscellaneous Prose Works of Sir Walter Scott, Bart","author":"Scott, Walter","year":"1847-01-01","url":"https:\/\/historicaltexts.jisc.ac.uk\/bl-003316905-03","placename":"Burntisland","snippet":"The wind, however, proving contrary, themaster of the ship dropped anchor at Burntisland, on the Fife shore of the Frith of Forth, ofwhich he was a native, that he might have auopportunity to see his wife and children before hisdeparture.    "},{"title":"Miscellaneous Prose Works of Sir Walter Scott, Bart","author":"Scott, Walter","year":"1847-01-01","url":"https:\/\/historicaltexts.jisc.ac.uk\/bl-003316905-03","placename":"Burntisland","snippet":"Twelve hundred men, three hundred of whomwere youths of the best Scottish families, embarkedon board of five frigates, purchased at Hamburghfor the service of the expedition ; for tbe King refused the Company even the trifling accommodationof a ship of war, which lay idle at Burntisland.    "},{"title":"Miscellaneous Prose Works of Sir Walter Scott, Bart","author":"Scott, Walter","year":"1847-01-01","url":"https:\/\/historicaltexts.jisc.ac.uk\/bl-003316905-03","placename":"Burntisland","snippet":"As he was riding in the dusk of theevening, along the sea-coast of Fife, betwixt Burntisland and Kinghorn, he approached too near thebrink of tbe precipice, and, his horse starting orstumbling, he was thrown over the rock, and killed    "},{"title":"The Prose Works of Sir Walter Scott. (Supplementary volume: containing notes, historical and illustrative, by the author, glossary, etc.)","author":"Scott, Walter","year":null,"url":"https:\/\/historicaltexts.jisc.ac.uk\/bl-003316901-07","placename":"Burntisland","snippet":"The armed ships wereinduced by these appearances to slip their cables,and, standing over to Burntisland, commenced acannonade, which was returned by the rebels from abattery which ihey had constructed on the outerport of the harbour, with little damage on eitherside.    "},{"title":"The Prose Works of Sir Walter Scott. (Supplementary volume: containing notes, historical and illustrative, by the author, glossary, etc.)","author":"Scott, Walter","year":null,"url":"https:\/\/historicaltexts.jisc.ac.uk\/bl-003316901-07","placename":"Burntisland","snippet":"Mar threw troops intothe castle of Burntisland, and seemed busy in collecting vessels in that little port.    "},{"title":"The Prose Works of Sir Walter Scott. (Supplementary volume: containing notes, historical and illustrative, by the author, glossary, etc.)","author":"Scott, Walter","year":null,"url":"https:\/\/historicaltexts.jisc.ac.uk\/bl-003316901-07","placename":"Burntisland","snippet":"Mar, as had beenagreed upon, protected the return of the detachmentby advancing a body of five hundred Highlanders asfar as Auchtertoole, half-way between Perth andBurntisland.    "},{"title":"The Prose Works of Sir Walter Scott. (Supplementary volume: containing notes, historical and illustrative, by the author, glossary, etc.)","author":"Scott, Walter","year":null,"url":"https:\/\/historicaltexts.jisc.ac.uk\/bl-003316901-07","placename":"Burntisland","snippet":"The Masler ofSincJair, with about fourscore troopers,and carrying with him a number of baggage horses,lefl Perth about night-fall, and, to baffle observation,took a circuitous road to Burntisland.    "},{"title":"The Prose Works of Sir Walter Scott. (Supplementary volume: containing notes, historical and illustrative, by the author, glossary, etc.)","author":"Scott, Walter","year":null,"url":"https:\/\/historicaltexts.jisc.ac.uk\/bl-003316901-07","placename":"Burntisland","snippet":"The wind, however, proving contrary, the master of the ship droppedanchor at Burntisland, on the Fife shore of the Frithof Forth, of which he was a native, that he might havean opportunity to see his wife and children before hisdeparture.    "},{"title":"The Prose Works of Sir Walter Scott. (Supplementary volume: containing notes, historical and illustrative, by the author, glossary, etc.)","author":"Scott, Walter","year":null,"url":"https:\/\/historicaltexts.jisc.ac.uk\/bl-003316901-07","placename":"Burntisland","snippet":"Twelve hundred men, three hundred of whom wereyoutns of the best Scottish families, embarked onboard of five frigates, purchased at Hamburgh forthe service of the expedition; for the Kin* refusedthe Company even the trifling accommodation of aship of war, which lay idle at Burntisland.    "},{"title":"The Prose Works of Sir Walter Scott. (Supplementary volume: containing notes, historical and illustrative, by the author, glossary, etc.)","author":"Scott, Walter","year":null,"url":"https:\/\/historicaltexts.jisc.ac.uk\/bl-003316901-07","placename":"Burntisland","snippet":"As he was riding in thedusk of the evening, along the sea coast of Fife, betwixt Burntisland and Kinghorn, he approached loonear the brink of the precipice, and his horse starting or stumbling, he was thrown over the rock, and    "},{"title":"Traced and Tracked; or, Memoirs of a City Detective, etc","author":"Macgovan, James.","year":"1884-01-01","url":"https:\/\/historicaltexts.jisc.ac.uk\/bl-002315203","placename":"Burntisland","snippet":"\"Edinburgh! he'll be sure to land in Edinburgh!\" hemuttered to himself, and thus he confidently tramped throughFife, reserving the little money he had to pay the ferry atBurntisland.    "},{"title":"Brought to Bay; or, Experiences of a City Detective","author":"Macgovan, James.","year":"1878-01-01","url":"https:\/\/historicaltexts.jisc.ac.uk\/bl-002315194","placename":"Burntisland","snippet":"As they neared the station at Burntisland, thetraveller fell asleep, and Bell, glad of the chance, hastily tookthe portmanteau under him and left the carriage for the ferryboat.    "},{"title":"Brought to Bay; or, Experiences of a City Detective","author":"Macgovan, James.","year":"1878-01-01","url":"https:\/\/historicaltexts.jisc.ac.uk\/bl-002315194","placename":"Burntisland","snippet":"How could I be in the Cowgateand at Burntisland as well! \" he reasoned, a little impatiently.    "},{"title":"Brought to Bay; or, Experiences of a City Detective","author":"Macgovan, James.","year":"1878-01-01","url":"https:\/\/historicaltexts.jisc.ac.uk\/bl-002315194","placename":"Burntisland","snippet":"It seemed very strange to me how M'Sweeny,whom I had seen start for Burntisland on business only threehours before, could have got back so soon, and been in thebroker's half-an-hour before me.    "},{"title":"A Voyage round Great Britain; with short views of Aberdeen, Balmoral, ... Fe\u0301camp, Havre and Paris","author":"Hargreaves, Thomas","year":"1884-01-01","url":"https:\/\/historicaltexts.jisc.ac.uk\/bl-001595457","placename":"Burntisland","snippet":"There is a regularsteamboat ferry between here and Burntisland, in Fifeshire, in connection with the railway.    "},{"title":"A Voyage round Great Britain; with short views of Aberdeen, Balmoral, ... Fe\u0301camp, Havre and Paris","author":"Hargreaves, Thomas","year":"1884-01-01","url":"https:\/\/historicaltexts.jisc.ac.uk\/bl-001595457","placename":"Burntisland","snippet":"lights of Leith on one side of the river, and those ofBurntisland shining brightly on the other, while fromthe vessels lying in the river were to be seen theanchor lights.    "},{"title":"A Voyage round Great Britain; with short views of Aberdeen, Balmoral, ... Fe\u0301camp, Havre and Paris","author":"Hargreaves, Thomas","year":"1884-01-01","url":"https:\/\/historicaltexts.jisc.ac.uk\/bl-001595457","placename":"Burntisland","snippet":"At this time we were near tothe town or village of Burntisland, and had a capitalview of it.    "},{"title":"A Voyage round Great Britain; with short views of Aberdeen, Balmoral, ... Fe\u0301camp, Havre and Paris","author":"Hargreaves, Thomas","year":"1884-01-01","url":"https:\/\/historicaltexts.jisc.ac.uk\/bl-001595457","placename":"Burntisland","snippet":"At 1 P.M. wehad a good view of a railway steamer crossing fromBurntisland to Leith, crowded to the utmost capacity    "},{"title":"A Voyage round Great Britain; with short views of Aberdeen, Balmoral, ... Fe\u0301camp, Havre and Paris","author":"Hargreaves, Thomas","year":"1884-01-01","url":"https:\/\/historicaltexts.jisc.ac.uk\/bl-001595457","placename":"Burntisland","snippet":"The coast on the north side of the Forth is closelydotted with villages and large princely mansionsfrom Fifeness up to Burntisland, among othersbeing Macduff Castle, Wemyss Castle, with thevillages of Dysart, Leven, East Wemyss, WestWemyss, Kirkcaldy, &c.    "},{"title":"House of Achendaroch. An old maid's story","author":"Cameron, Mary Emily.","year":"1878-01-01","url":"https:\/\/historicaltexts.jisc.ac.uk\/bl-000582149","placename":"Burntisland","snippet":"The third was occupied with Mr. Dalziel athis chambers ; but finding that his presence there would beneedless for the next feAV days, and only for an hour or so ata time again, and that he could not yet go home, Charlesyielded to Lady MacRae's request that he should give uphis Edinburgh lodgings and take some rooms near her ownat Burntisland.    "}]