[{"title":"Friend Mac Donald","author":"O'Rell, Max","year":null,"url":"http:\/\/www.gutenberg.org\/ebooks\/33883","placename":"Rossend Castle","snippet":"Rossend Castle is a veritable poem in stone.    "},{"title":"Friend Mac Donald","author":"O'Rell, Max","year":null,"url":"http:\/\/www.gutenberg.org\/ebooks\/33883","placename":"Rossend Castle","snippet":"The romantic troubadour secretly followed the queen fromEdinburgh to Rossend Castle, and, on the night of the 14th of February,1562, hid himself in her chamber, until she was almost undressed for thenight, when he left his hiding-place, and, seizing the queen in hisarms, so alarmed her, that she screamed for protection.    "},{"title":"Friend Mac Donald","author":"O'Rell, Max","year":null,"url":"http:\/\/www.gutenberg.org\/ebooks\/33883","placename":"Rossend Castle","snippet":"Standing on a promontory, which dominates the Firth of Forth and thehills of Edinburgh, Rossend Castle is one of the most romantic places inScotland.    "},{"title":"Friend Mac Donald","author":"O'Rell, Max","year":null,"url":"http:\/\/www.gutenberg.org\/ebooks\/33883","placename":"Rossend Castle","snippet":"There we can takethe boat which will carry us over the Firth of Forth, and set us down atBurntisland in Fifeshire; but instead of there taking the train to thenorth of Scotland, we will stop to see Rossend Castle.    "},{"title":"Friend Mac Donald","author":"O'Rell, Max","year":null,"url":"http:\/\/www.gutenberg.org\/ebooks\/33883","placename":"Rossend Castle","snippet":"--    Rossend Castle at Burntisland.    "},{"title":"Friend Mac Donald","author":"O'Rell, Max","year":null,"url":"http:\/\/www.gutenberg.org\/ebooks\/33883","placename":"Rossend Castle","snippet":"Poor Chastelard! he, too, payed with his life for the lovewhich the enchantress had inspired in him, not for this firstdeclaration, which was forgiven him, but for a graver offence, committedat Rossend Castle, of which I shall have occasion to speak presently.    "},{"title":"Friend Mac Donald","author":"O'Rell, Max","year":null,"url":"http:\/\/www.gutenberg.org\/ebooks\/33883","placename":"Rossend Castle","snippet":"--Rossend Castle at Burntisland.    "},{"title":"Friend Mac Donald","author":"O'Rell, Max","year":null,"url":"http:\/\/www.gutenberg.org\/ebooks\/33883","placename":"Rossend Castle","snippet":"Rossend Castle is a veritable poem in stone.    "},{"title":"Friend Mac Donald","author":"O'Rell, Max","year":null,"url":"http:\/\/www.gutenberg.org\/ebooks\/33883","placename":"Rossend Castle","snippet":"The romantic troubadour secretly followed the queen fromEdinburgh to Rossend Castle, and, on the night of the 14th of February,1562, hid himself in her chamber, until she was almost undressed for thenight, when he left his hiding-place, and, seizing the queen in hisarms, so alarmed her, that she screamed for protection.    "},{"title":"Friend Mac Donald","author":"O'Rell, Max","year":null,"url":"http:\/\/www.gutenberg.org\/ebooks\/33883","placename":"Rossend Castle","snippet":"Standing on a promontory, which dominates the Firth of Forth and thehills of Edinburgh, Rossend Castle is one of the most romantic places inScotland.    "},{"title":"Friend Mac Donald","author":"O'Rell, Max","year":null,"url":"http:\/\/www.gutenberg.org\/ebooks\/33883","placename":"Rossend Castle","snippet":"There we can takethe boat which will carry us over the Firth of Forth, and set us down atBurntisland in Fifeshire; but instead of there taking the train to thenorth of Scotland, we will stop to see Rossend Castle.    "},{"title":"Friend Mac Donald","author":"O'Rell, Max","year":null,"url":"http:\/\/www.gutenberg.org\/ebooks\/33883","placename":"Rossend Castle","snippet":"--    Rossend Castle at Burntisland.    "},{"title":"Friend Mac Donald","author":"O'Rell, Max","year":null,"url":"http:\/\/www.gutenberg.org\/ebooks\/33883","placename":"Rossend Castle","snippet":"Poor Chastelard! he, too, payed with his life for the lovewhich the enchantress had inspired in him, not for this firstdeclaration, which was forgiven him, but for a graver offence, committedat Rossend Castle, of which I shall have occasion to speak presently.    "},{"title":"Friend Mac Donald","author":"O'Rell, Max","year":null,"url":"http:\/\/www.gutenberg.org\/ebooks\/33883","placename":"Rossend Castle","snippet":"--Rossend Castle at Burntisland.    "}]