[{"title":"The Unbearable Lightness of Scones","author":"McCall Smith, Alexander","year":null,"url":null,"placename":"Lochgelly","snippet":"He tells me that a lot goes on in Lochgelly.    "},{"title":"The Unbearable Lightness of Scones","author":"McCall Smith, Alexander","year":null,"url":null,"placename":"Lochgelly","snippet":"You don't expect hairdressers to come from Lochgelly, for some reason, but there you are.    "},{"title":"The Unbearable Lightness of Scones","author":"McCall Smith, Alexander","year":null,"url":null,"placename":"Lochgelly","snippet":"He comes from Lochgelly, of all places.    "},{"title":"The Unbearable Lightness of Scones","author":"McCall Smith, Alexander","year":null,"url":null,"placename":"Lochgelly","snippet":"He tells me that a lot goes on in Lochgelly.    "},{"title":"The Unbearable Lightness of Scones","author":"McCall Smith, Alexander","year":null,"url":null,"placename":"Lochgelly","snippet":"You don't expect hairdressers to come from Lochgelly, for some reason, but there you are.    "},{"title":"The Unbearable Lightness of Scones","author":"McCall Smith, Alexander","year":null,"url":null,"placename":"Lochgelly","snippet":"He comes from Lochgelly, of all places.    "},{"title":"The Comfort of Saturdays","author":"McCall Smith, Alexander","year":null,"url":null,"placename":"Lochgelly","snippet":"Somewhere near Lochgelly.'    "},{"title":"Spare hours \/","author":"Brown, John","year":"1884-01-01","url":"http:\/\/babel.hathitrust.org\/cgi\/pt?id=uc2.ark:\/13960\/t04x56758","placename":"Lochgelly","snippet":"We drove up from Burntisland, and at Lochgelly he was full of memories of the saintly Seceder minister, Mr. Greig, and pointed out at Auchtertool the fatal meadow now lying in the sun, where Stuart of Dunearn shot Sir Alexander Boswell.    "}]