[{"title":"The Letters of Robert Louis Stevenson - Volume 1","author":"Stevenson, Robert Louis","year":null,"url":"http:\/\/www.gutenberg.org\/ebooks\/622","placename":"Pisgah","snippet":"Even a common Englishman may have a glimpse, as it were from Pisgah, of its extraordinary merits.    "},{"title":"The Works of Robert Louis Stevenson - Swanston Edition, Vol. 23","author":"Stevenson, Robert Louis","year":null,"url":"http:\/\/www.gutenberg.org\/ebooks\/30894","placename":"Pisgah","snippet":"Even acommon Englishman may have a glimpse, as it were from Pisgah, of itsextraordinary merits.    "},{"title":"The Works of Robert Louis Stevenson - Swanston Edition, Vol. 23","author":"Stevenson, Robert Louis","year":null,"url":"http:\/\/www.gutenberg.org\/ebooks\/30894","placename":"Pisgah","snippet":"Even acommon Englishman may have a glimpse, as it were from Pisgah, of itsextraordinary merits.    "},{"title":"The Works of Robert Louis Stevenson - Swanston Edition, Vol. 9","author":"Stevenson, Robert Louis","year":null,"url":"http:\/\/www.gutenberg.org\/ebooks\/30598","placename":"Pisgah","snippet":"Desireis a wonderful telescope, and Pisgah the best observatory.    "},{"title":"The Works of Robert Louis Stevenson - Swanston Edition, Vol. 9","author":"Stevenson, Robert Louis","year":null,"url":"http:\/\/www.gutenberg.org\/ebooks\/30598","placename":"Pisgah","snippet":"Desireis a wonderful telescope, and Pisgah the best observatory.    "},{"title":"Salute to Adventurers","author":"Buchan, John","year":null,"url":"http:\/\/www.gutenberg.org\/ebooks\/10046","placename":"Pisgah","snippet":"The Promised Land might smile as it pleased, but we were still on theflanks of Pisgah with the Midianites all about us.    "},{"title":"Salute to Adventurers","author":"Buchan, John","year":null,"url":"http:\/\/www.gutenberg.org\/ebooks\/10046","placename":"Pisgah","snippet":"Some day I would enterinto that land of Canaan which now I saw from Pisgah.    "},{"title":"Essays critical and imaginative,","author":"Wilson, John","year":null,"url":"http:\/\/babel.hathitrust.org\/cgi\/pt?id=nc01.ark:\/13960\/t6h13x17k","placename":"Pisgah","snippet":"Whereas the ingenious young gentleman had to skirt, in long descent, the top of tremendous precipices to the slack called Ash-Course, where he had no more business to be than on the top of Pisgah.    "},{"title":"Noctes Ambrosian\u00e6.","author":"Wilson, John","year":"1884-01-01","url":"http:\/\/babel.hathitrust.org\/cgi\/pt?id=loc.ark:\/13960\/t3pv75d8d","placename":"Pisgah","snippet":"Suppose me, sir, surveying the scene, like Moses frae the tap o' Pisgah the Promised Land.    "},{"title":"The works of Professor Wilson of the University of Edinburgh,","author":"Wilson, John","year":null,"url":"http:\/\/babel.hathitrust.org\/cgi\/pt?id=uc2.ark:\/13960\/t14m97m8r","placename":"Pisgah","snippet":"Whereas the ingenious young gentleman had to skirt, in long descent, the top of tremendous precipices to the slack called Ash-Course, where he had no more business to be than on the top of Pisgah.    "},{"title":"The novels and tales of Robert Louis Stevenson.","author":"Stevenson, Robert Louis","year":"1903-01-01","url":"http:\/\/babel.hathitrust.org\/cgi\/pt?id=uc2.ark:\/13960\/t9v11xp78","placename":"Pisgah","snippet":"Even a common Englishman may have a glimpse, as it were from Pisgah, of its extraordinary merits.    "},{"title":"Memories and portraits,","author":"Stevenson, Robert Louis","year":"1895-01-01","url":"http:\/\/babel.hathitrust.org\/cgi\/pt?id=uc2.ark:\/13960\/t78s4z223","placename":"Pisgah","snippet":"Desire is a wonderful telescope, and Pisgah the best observatory.    "},{"title":"Essays by Robert Louis Stevenson,","author":"Stevenson, Robert Louis","year":null,"url":"http:\/\/babel.hathitrust.org\/cgi\/pt?id=loc.ark:\/13960\/t76t18931","placename":"Pisgah","snippet":"Desire is a wonderful  telescope, and Pisgah the best observatory.    "},{"title":"The works of Robert Louis Stevenson;","author":"Stevenson, Robert Louis","year":"1906-01-01","url":"http:\/\/babel.hathitrust.org\/cgi\/pt?id=uc2.ark:\/13960\/t52f7zd97","placename":"Pisgah","snippet":"Desire is a wonderful telescope, and Pisgah the best observatory.    "},{"title":"Days of the past;","author":"Shand, Alexander Innes","year":"1905-01-01","url":"http:\/\/babel.hathitrust.org\/cgi\/pt?id=loc.ark:\/13960\/t6qz2x518","placename":"Pisgah","snippet":"Since then his rare genius has come slowly to be recognised ; after a tantalising and disheartening struggle he has scaled the heights of the literary Pisgah, and had the fortune, in the fulness of years, to descend into the Land of Promise.    "},{"title":"Art Rambles in the Highlands and Islands of Scotland ... With ... sketches, etc","author":"Reid, John T.","year":"1878-01-01","url":"https:\/\/historicaltexts.jisc.ac.uk\/bl-003065635","placename":"Pisgah","snippet":"Blest John, for Jesus' sake, in Patmos bound,His prison Bethel, Patmos, Pisgah found ;So the bless'd John, on yonder rock, confined,\u2014His body suffer'd, but no chains could bindHis heaven-aspiring soul: while day by day,As from Mount Pisgah's top he did surveyThe promised land, and view'd the crown by faithLaid up for those who faithful are to death.    "}]