[{"title":"Waverley; Or 'Tis Sixty Years Since - Complete","author":"Scott, Walter","year":null,"url":"http:\/\/www.gutenberg.org\/ebooks\/4966","placename":"Alane","snippet":"ALANE, alone.    "},{"title":"Waverley; Or, 'Tis Sixty Years Since","author":"Scott, Walter","year":null,"url":"http:\/\/www.gutenberg.org\/ebooks\/5998","placename":"Alane","snippet":"ALANE, alone.    "},{"title":"Waverley; Or, 'Tis Sixty Years Since - Volume 1","author":"Scott, Walter","year":null,"url":"http:\/\/www.gutenberg.org\/ebooks\/4964","placename":"Alane","snippet":"ALANE, alone.    "},{"title":"The works of Robert Burns: with an account of his life, and criticism on his writings.","author":"Burns, Robert","year":"1830-01-01","url":"http:\/\/babel.hathitrust.org\/cgi\/pt?id=loc.ark:\/13960\/t77s86n39","placename":"Alane","snippet":"Alane, alone.    "},{"title":"The works of Robert Burns: with an account of his life, and criticism on his writings.","author":"Burns, Robert","year":"1830-01-01","url":"http:\/\/babel.hathitrust.org\/cgi\/pt?id=loc.ark:\/13960\/t77s86n39","placename":"Alane","snippet":"Come autumn, sae peasive, in yellow and gray, And sooth me wi' tiding o' nature's decay : The dark, dreary winter, and wild-driving snaw, Alane can delight me\u2014 now Nannie's awa.    "},{"title":"The works of Robert Burns;","author":"Burns, Robert","year":"1816-01-01","url":"http:\/\/babel.hathitrust.org\/cgi\/pt?id=loc.ark:\/13960\/t76t1jw9v","placename":"Alane","snippet":"Come autumn, sae pensive, in yellow and grey, And soothe me wi' tidings o' nature's decay : The dark, dreary wintei-, and wild driving snaw, Alane can delight me\u2014 now Nanie's awa.    "},{"title":"The complete works of Robert Burns:","author":"Burns, Robert","year":"1854-01-01","url":"http:\/\/babel.hathitrust.org\/cgi\/pt?id=loc.ark:\/13960\/t2z32c284","placename":"Alane","snippet":"And soothe me with tidings o' nature's decay : The dark dreary winter, and wild driving snaw, Alane can delight me \u2014 now Nannie's awa !    "},{"title":"The complete works of Robert Burns: containing his poems, songs, and correspondence.","author":"Burns, Robert","year":"1852-01-01","url":"http:\/\/babel.hathitrust.org\/cgi\/pt?id=loc.ark:\/13960\/t01z4r72g","placename":"Alane","snippet":"Come autumn sae pensive, in yellow and gray, And soothe me with tidings o' nature's decay : The dark dreary winter, and wild driving snaw, Alane can delight me \u2014 now Nannie's awa !    "}]