[{"title":"The Journal of Sir Walter Scott; From the Original Manuscript at Abbotsford","author":"Scott, Walter","year":null,"url":"http:\/\/www.gutenberg.org\/ebooks\/14860","placename":"Macduff'S Castle","snippet":"Macduff's Castle, i.    "},{"title":"The Journal of Sir Walter Scott; From the Original Manuscript at Abbotsford","author":"Scott, Walter","year":null,"url":"http:\/\/www.gutenberg.org\/ebooks\/14860","placename":"Macduff'S Castle","snippet":"On theleft, before descending to the coast, are considerable remains of acastle, called popularly the old castle, or Macduff's Castle.    "},{"title":"The Journal of Sir Walter Scott; From the Original Manuscript at Abbotsford","author":"Scott, Walter","year":null,"url":"http:\/\/www.gutenberg.org\/ebooks\/14860","placename":"Macduff'S Castle","snippet":"Macduff's Castle, i.    "},{"title":"The Journal of Sir Walter Scott; From the Original Manuscript at Abbotsford","author":"Scott, Walter","year":null,"url":"http:\/\/www.gutenberg.org\/ebooks\/14860","placename":"Macduff'S Castle","snippet":"On theleft, before descending to the coast, are considerable remains of acastle, called popularly the old castle, or Macduff's Castle.    "},{"title":"The Journal of Sir Walter Scott; From the Original Manuscript at Abbotsford","author":"Scott, Walter","year":null,"url":"http:\/\/www.gutenberg.org\/ebooks\/14860","placename":"Macduff'S Castle","snippet":"Macduff's Castle, i.    "},{"title":"The Journal of Sir Walter Scott; From the Original Manuscript at Abbotsford","author":"Scott, Walter","year":null,"url":"http:\/\/www.gutenberg.org\/ebooks\/14860","placename":"Macduff'S Castle","snippet":"On theleft, before descending to the coast, are considerable remains of acastle, called popularly the old castle, or Macduff's Castle.    "},{"title":"The journal of Sir Walter Scott,","author":"Scott, Walter","year":"1891-01-01","url":"http:\/\/babel.hathitrust.org\/cgi\/pt?id=uc2.ark:\/13960\/t7jq0vz0t","placename":"Macduff'S Castle","snippet":"On the left, before descending to the coast, are considerable remains of a castle, called popularly the old castle, or Macduff's Castle.    "},{"title":"Notes of foreign travel.","author":"Bates, James Hale","year":"1891-01-01","url":"http:\/\/babel.hathitrust.org\/cgi\/pt?id=loc.ark:\/13960\/t1bk2243v","placename":"Macduff'S Castle","snippet":"Near Dysart are the ruins of an exceedingly  old castle known as Macduff's Castle.    "},{"title":"The Prose Works of Sir Walter Scott. (Supplementary volume: containing notes, historical and illustrative, by the author, glossary, etc.)","author":"Scott, Walter","year":null,"url":"https:\/\/historicaltexts.jisc.ac.uk\/bl-003316901-07","placename":"Macduff'S Castle","snippet":"But others say, and I believe more truly, that the King, seeing that the Castleof Kennoway was very strong, and that Macduff hadescaped from him, and was embarked for England,departed back to Dunsinane without attempting totake Macduff's Castle of Kennoway.    "}]