[{"title":"The Journal of Sir Walter Scott; From the Original Manuscript at Abbotsford","author":"Scott, Walter","year":null,"url":"http:\/\/www.gutenberg.org\/ebooks\/14860","placename":"Falkland","snippet":"factor for Falkland, ii.    "},{"title":"The Journal of Sir Walter Scott; From the Original Manuscript at Abbotsford","author":"Scott, Walter","year":null,"url":"http:\/\/www.gutenberg.org\/ebooks\/14860","placename":"Falkland","snippet":"This able manreturned to Scotland, and died in Falkland about two years before Scottvisited the place.    "},{"title":"The Journal of Sir Walter Scott; From the Original Manuscript at Abbotsford","author":"Scott, Walter","year":null,"url":"http:\/\/www.gutenberg.org\/ebooks\/14860","placename":"Falkland","snippet":"The town of Falkland is old, with very narrow streets.    "},{"title":"The Journal of Sir Walter Scott; From the Original Manuscript at Abbotsford","author":"Scott, Walter","year":null,"url":"http:\/\/www.gutenberg.org\/ebooks\/14860","placename":"Falkland","snippet":"The proprietor has a beautiful place called Nut-hill, withinten minutes' walk of Falkland, and commanding some fine views of it andof the Lomond Hill.    "},{"title":"The Journal of Sir Walter Scott; From the Original Manuscript at Abbotsford","author":"Scott, Walter","year":null,"url":"http:\/\/www.gutenberg.org\/ebooks\/14860","placename":"Falkland","snippet":"Falkland has most interesting remains.    "},{"title":"The Journal of Sir Walter Scott; From the Original Manuscript at Abbotsford","author":"Scott, Walter","year":null,"url":"http:\/\/www.gutenberg.org\/ebooks\/14860","placename":"Falkland","snippet":"Next we went to Falkland, where we found Mr. Howden, factor of Mr.Tyndall Bruce, waiting to show us the palace.    "},{"title":"The Journal of Sir Walter Scott; From the Original Manuscript at Abbotsford","author":"Scott, Walter","year":null,"url":"http:\/\/www.gutenberg.org\/ebooks\/14860","placename":"Falkland","snippet":"This functionary was sent to Falkland with the fishfor the royal table.    "},{"title":"The Journal of Sir Walter Scott; From the Original Manuscript at Abbotsford","author":"Scott, Walter","year":null,"url":"http:\/\/www.gutenberg.org\/ebooks\/14860","placename":"Falkland","snippet":"factor for Falkland, ii.    "},{"title":"The Journal of Sir Walter Scott; From the Original Manuscript at Abbotsford","author":"Scott, Walter","year":null,"url":"http:\/\/www.gutenberg.org\/ebooks\/14860","placename":"Falkland","snippet":"This able manreturned to Scotland, and died in Falkland about two years before Scottvisited the place.    "},{"title":"The Journal of Sir Walter Scott; From the Original Manuscript at Abbotsford","author":"Scott, Walter","year":null,"url":"http:\/\/www.gutenberg.org\/ebooks\/14860","placename":"Falkland","snippet":"The town of Falkland is old, with very narrow streets.    "},{"title":"The Journal of Sir Walter Scott; From the Original Manuscript at Abbotsford","author":"Scott, Walter","year":null,"url":"http:\/\/www.gutenberg.org\/ebooks\/14860","placename":"Falkland","snippet":"The proprietor has a beautiful place called Nut-hill, withinten minutes' walk of Falkland, and commanding some fine views of it andof the Lomond Hill.    "},{"title":"The Journal of Sir Walter Scott; From the Original Manuscript at Abbotsford","author":"Scott, Walter","year":null,"url":"http:\/\/www.gutenberg.org\/ebooks\/14860","placename":"Falkland","snippet":"Falkland has most interesting remains.    "},{"title":"The Journal of Sir Walter Scott; From the Original Manuscript at Abbotsford","author":"Scott, Walter","year":null,"url":"http:\/\/www.gutenberg.org\/ebooks\/14860","placename":"Falkland","snippet":"Next we went to Falkland, where we found Mr. Howden, factor of Mr.Tyndall Bruce, waiting to show us the palace.    "},{"title":"The Journal of Sir Walter Scott; From the Original Manuscript at Abbotsford","author":"Scott, Walter","year":null,"url":"http:\/\/www.gutenberg.org\/ebooks\/14860","placename":"Falkland","snippet":"This functionary was sent to Falkland with the fishfor the royal table.    "},{"title":"The Journal of Sir Walter Scott; From the Original Manuscript at Abbotsford","author":"Scott, Walter","year":null,"url":"http:\/\/www.gutenberg.org\/ebooks\/14860","placename":"Falkland","snippet":"factor for Falkland, ii.    "},{"title":"The Journal of Sir Walter Scott; From the Original Manuscript at Abbotsford","author":"Scott, Walter","year":null,"url":"http:\/\/www.gutenberg.org\/ebooks\/14860","placename":"Falkland","snippet":"This able manreturned to Scotland, and died in Falkland about two years before Scottvisited the place.    "},{"title":"The Journal of Sir Walter Scott; From the Original Manuscript at Abbotsford","author":"Scott, Walter","year":null,"url":"http:\/\/www.gutenberg.org\/ebooks\/14860","placename":"Falkland","snippet":"The town of Falkland is old, with very narrow streets.    "},{"title":"The Journal of Sir Walter Scott; From the Original Manuscript at Abbotsford","author":"Scott, Walter","year":null,"url":"http:\/\/www.gutenberg.org\/ebooks\/14860","placename":"Falkland","snippet":"The proprietor has a beautiful place called Nut-hill, withinten minutes' walk of Falkland, and commanding some fine views of it andof the Lomond Hill.    "},{"title":"The Journal of Sir Walter Scott; From the Original Manuscript at Abbotsford","author":"Scott, Walter","year":null,"url":"http:\/\/www.gutenberg.org\/ebooks\/14860","placename":"Falkland","snippet":"Falkland has most interesting remains.    "},{"title":"The Journal of Sir Walter Scott; From the Original Manuscript at Abbotsford","author":"Scott, Walter","year":null,"url":"http:\/\/www.gutenberg.org\/ebooks\/14860","placename":"Falkland","snippet":"Next we went to Falkland, where we found Mr. Howden, factor of Mr.Tyndall Bruce, waiting to show us the palace.    "},{"title":"The Journal of Sir Walter Scott; From the Original Manuscript at Abbotsford","author":"Scott, Walter","year":null,"url":"http:\/\/www.gutenberg.org\/ebooks\/14860","placename":"Falkland","snippet":"This functionary was sent to Falkland with the fishfor the royal table.    "},{"title":"The Unbearable Lightness of Scones","author":"McCall Smith, Alexander","year":null,"url":null,"placename":"Falkland","snippet":"Indeed, he had once tried to convert her to biking and had taken her as a passenger on an outing to Falkland, where they had watched real tennis being played in a court in the gardens of the palace.    "},{"title":"The Unbearable Lightness of Scones","author":"McCall Smith, Alexander","year":null,"url":null,"placename":"Falkland","snippet":"Indeed, he had once tried to convert her to biking and had taken her as a passenger on an outing to Falkland, where they had watched real tennis being played in a court in the gardens of the palace.    "},{"title":"Letters from Thomas Percy, D.D. :","author":null,"year":"1830-01-01","url":"http:\/\/babel.hathitrust.org\/cgi\/pt?id=uc2.ark:\/13960\/t0sq8wh72","placename":"Falkland","snippet":"Be so good as to add a note under the title, telling my readers that the Kirk on the Green is the Kirktoun of Leslie in Fife, near to Falkland.    "},{"title":"The journal of Sir Walter Scott,","author":"Scott, Walter","year":"1891-01-01","url":"http:\/\/babel.hathitrust.org\/cgi\/pt?id=uc2.ark:\/13960\/t7jq0vz0t","placename":"Falkland","snippet":"He wrote several man returned to Scotland, and died in Falkland elaborate and valuable reports for the Govern- about two years before Scott visited the place.    "},{"title":"The journal of Sir Walter Scott,","author":"Scott, Walter","year":"1891-01-01","url":"http:\/\/babel.hathitrust.org\/cgi\/pt?id=uc2.ark:\/13960\/t7jq0vz0t","placename":"Falkland","snippet":"The town of Falkland is old, with very narrow streets.    "},{"title":"The journal of Sir Walter Scott,","author":"Scott, Walter","year":"1891-01-01","url":"http:\/\/babel.hathitrust.org\/cgi\/pt?id=uc2.ark:\/13960\/t7jq0vz0t","placename":"Falkland","snippet":"The proprietor has a beautiful place called Nuthill, within ten minutes' walk of Falkland, and commanding some fine views of it and of the Lomond Hill.    "},{"title":"The journal of Sir Walter Scott,","author":"Scott, Walter","year":"1891-01-01","url":"http:\/\/babel.hathitrust.org\/cgi\/pt?id=uc2.ark:\/13960\/t7jq0vz0t","placename":"Falkland","snippet":"Falkland has most interesting remains.    "},{"title":"The journal of Sir Walter Scott,","author":"Scott, Walter","year":"1891-01-01","url":"http:\/\/babel.hathitrust.org\/cgi\/pt?id=uc2.ark:\/13960\/t7jq0vz0t","placename":"Falkland","snippet":"Next we went to Falkland, where we found Mr. Howden, factor of Mr. Tyndall Bruce, waiting to show us the palace.    "},{"title":"The journal of Sir Walter Scott,","author":"Scott, Walter","year":"1891-01-01","url":"http:\/\/babel.hathitrust.org\/cgi\/pt?id=uc2.ark:\/13960\/t7jq0vz0t","placename":"Falkland","snippet":"This functionary was sent to Falkland with the fish for the royal table.    "},{"title":"Song and scenery;","author":"Moffat, James C.","year":"1874-01-01","url":"http:\/\/babel.hathitrust.org\/cgi\/pt?id=loc.ark:\/13960\/t6f19hb8s","placename":"Falkland","snippet":"One hundred years later Gavin Douglas was Bishop of Dunkeld, and Inglis, Lindsay and Buchanan resided in and near St. Andrews, and King James V. died in Falkland.    "},{"title":"Memoirs of the life of Sir Walter Scott,","author":"Lockhart, J. G.","year":null,"url":"http:\/\/babel.hathitrust.org\/cgi\/pt?id=uc2.ark:\/13960\/t4qj78631","placename":"Falkland","snippet":"He visited in this way Castle Campbell, Magus Moor, Falkland, Dunfermline, St. Andrews,  and many other scenes of ancient celebrity : to one of those trips we must ascribe his dramatic sketch of Macduff's Cross \u2014 and to that of the dog-days of 1819, we owe the weightier obligation of The Abbot.    "},{"title":"Miscellaneous Prose Works of Sir Walter Scott, Bart","author":"Scott, Walter","year":"1847-01-01","url":"https:\/\/historicaltexts.jisc.ac.uk\/bl-003316905-03","placename":"Falkland","snippet":"The Earl of Rothcs, with a few dragoonsand volunteers, had garrisoned his own house ofLesly, near Falkland, aud was active in harrassingthose parties of horse which Mar sent into thecountry to proclaim James VIII., and levy the cessand public taxes.    "},{"title":"Miscellaneous Prose Works of Sir Walter Scott, Bart","author":"Scott, Walter","year":"1847-01-01","url":"https:\/\/historicaltexts.jisc.ac.uk\/bl-003316905-03","placename":"Falkland","snippet":"Tbe attendants of James bad begun to wonder athis absence, when they were suddenly informed bya servant of the Earl of Gowrie, that the King hadmounted his horse, and had set out on his returnto Falkland.    "},{"title":"Miscellaneous Prose Works of Sir Walter Scott, Bart","author":"Scott, Walter","year":"1847-01-01","url":"https:\/\/historicaltexts.jisc.ac.uk\/bl-003316905-03","placename":"Falkland","snippet":"He shut himself up in thepalace of Falkland, and refused to listen to anyconsolation.    "},{"title":"Miscellaneous Prose Works of Sir Walter Scott, Bart","author":"Scott, Walter","year":"1847-01-01","url":"https:\/\/historicaltexts.jisc.ac.uk\/bl-003316905-03","placename":"Falkland","snippet":"In the morning there was great alarm at Falkland.    "},{"title":"Miscellaneous Prose Works of Sir Walter Scott, Bart","author":"Scott, Walter","year":"1847-01-01","url":"https:\/\/historicaltexts.jisc.ac.uk\/bl-003316905-03","placename":"Falkland","snippet":"James was then residing at Falkland, a royalpalace conveniently situated for hunting and hawking, in which he seemed to take great pleasure.    "},{"title":"Miscellaneous Prose Works of Sir Walter Scott, Bart","author":"Scott, Walter","year":"1847-01-01","url":"https:\/\/historicaltexts.jisc.ac.uk\/bl-003316905-03","placename":"Falkland","snippet":"Armed with thisauthority, they seized upon him as he was journeying in Fife, without any suspicion\u2014placed himupon au ordinary work-horse, and conducted himto the strong tower, or castle, of Falkland, belonging to Albany.    "},{"title":"Over-Sea; or, England, France and Scotland as seen by a live American ... With numerous illustrations, etc","author":"Morford, Henry.","year":"1867-01-01","url":"https:\/\/historicaltexts.jisc.ac.uk\/bl-002547751","placename":"Falkland","snippet":"How I saw Newgate, and the Old Bailey, andthe famous old Inns of Court, and the statues of the greatLaw-Lords and masters of legal eloquence\u2014Selden, andHampden, and Falkland, and Clarendon, and Somers, andWalpole, and Chatham, and Mansfield, and Burke, and Fox,and Pitt, and Grattan,\u2014in that noble Hall of St. Stephen's.    "}]