[{"title":"The Antiquary - Complete","author":"Scott, Walter","year":null,"url":"http:\/\/www.gutenberg.org\/ebooks\/7005","placename":"Muckle","snippet":"\"Weel, weel, leddies,\" said the postmistress, \"we'se sit down and crackabout it.--Baby, bring ben the tea-water--Muckle obliged to ye for yourcookies, Mrs. Shortcake--and we'll steek the shop, and cry ben Baby, andtake a hand at the cartes till the gudeman comes hame--and then we'lltry your braw veal sweetbread that ye were so kind as send me, Mrs.Heukbane.\"    "},{"title":"Old Mortality, Volume 1.","author":"Scott, Walter","year":null,"url":"http:\/\/www.gutenberg.org\/ebooks\/6939","placename":"Muckle","snippet":"\"Muckle gude may it do ye, my bonny man.    "},{"title":"The Lilac Sunbonnet: A Love Story","author":"Crockett, S. R. (Samuel Rutherford)","year":null,"url":"http:\/\/www.gutenberg.org\/ebooks\/4918","placename":"Muckle","snippet":"\"Muckle ye ken aboot learned men.    "},{"title":"Rab and His Friends and Other Papers","author":"Brown, John","year":null,"url":"http:\/\/www.gutenberg.org\/ebooks\/45929","placename":"Muckle","snippet":"Being then young and keen botanists, and full of the knowledge and love of Tweedside, having been on every hilltop from Muckle Mendie to Hundles-hope and the Lee Pen, and having fished every water from Tarth to the Leithen, we discovered early in spring that young Stewart, author of an excellent book on natural history, a young man of great promise and early death, had found the _Buxbaumia aphylla_, a beautiful and odd-looking moss, west of Newbie heights, in the very month we were that moment in.    "},{"title":"Rab and His Friends and Other Papers","author":"Brown, John","year":null,"url":"http:\/\/www.gutenberg.org\/ebooks\/45929","placename":"Muckle","snippet":"Being then young and keen botanists, and full of the knowledge and love of Tweedside, having been on every hilltop from Muckle Mendie to Hundles-hope and the Lee Pen, and having fished every water from Tarth to the Leithen, we discovered early in spring that young Stewart, author of an excellent book on natural history, a young man of great promise and early death, had found the _Buxbaumia aphylla_, a beautiful and odd-looking moss, west of Newbie heights, in the very month we were that moment in.    "},{"title":"The Unbearable Lightness of Scones","author":"McCall Smith, Alexander","year":null,"url":null,"placename":"Muckle","snippet":"The fences, some of which were made of rusted barbed wire dating back to the First World War, were patched up as best as Big Lou's father, Muckle Geordie, could manage; and the byres, rickety and oddly-angled, looked as if a good puff of wind off the North Sea, or even a flaff from the hinterland of Angus, would be all that was required to bring them tumbling down.    "},{"title":"The Unbearable Lightness of Scones","author":"McCall Smith, Alexander","year":null,"url":null,"placename":"Muckle","snippet":"The fences, some of which were made of rusted barbed wire dating back to the First World War, were patched up as best as Big Lou's father, Muckle Geordie, could manage; and the byres, rickety and oddly-angled, looked as if a good puff of wind off the North Sea, or even a flaff from the hinterland of Angus, would be all that was required to bring them tumbling down.    "},{"title":"The Importance of Being Seven","author":"McCall Smith, Alexander","year":null,"url":null,"placename":"Muckle","snippet":"\"Muckle Buggie is a sheep farm over near Symington.    "},{"title":"The Importance of Being Seven","author":"McCall Smith, Alexander","year":null,"url":null,"placename":"Muckle","snippet":"They farm over at Muckle Buggie.    "},{"title":"Bertie Plays the Blues","author":"McCall Smith, Alexander","year":null,"url":null,"placename":"Muckle","snippet":"Muckle great rolls with big bits of bacon in the middle.    "},{"title":"The library of choice literature :","author":null,"year":null,"url":"http:\/\/babel.hathitrust.org\/cgi\/pt?id=uc2.ark:\/13960\/t8rb6xx2s","placename":"Muckle","snippet":"In the reign of his last brother, Ethelred, Alfred in his twentieth year was married to Elswitha, the daughter of Ethelred Muckle (or the Great), an elderman of Mercia.    "},{"title":"Men and manners in Britain;","author":"Thorburn, Grant","year":"1834-01-01","url":"http:\/\/babel.hathitrust.org\/cgi\/pt?id=loc.ark:\/13960\/t5gb2m874","placename":"Muckle","snippet":"A Muckle Man, and a We'e Head.    "},{"title":"Men and manners in Britain;","author":"Thorburn, Grant","year":"1834-01-01","url":"http:\/\/babel.hathitrust.org\/cgi\/pt?id=uc2.ark:\/13960\/t0rr1rz7m","placename":"Muckle","snippet":"A Muckle Man, and a We>e Head.    "},{"title":"Weir of Hermiston :","author":"Stevenson, Robert Louis","year":"1920-01-01","url":"http:\/\/babel.hathitrust.org\/cgi\/pt?id=uc2.ark:\/13960\/t8z895z3x","placename":"Muckle","snippet":"\" Muckle obleeged to ye,\" said his lordship, and took his usual seat.    "},{"title":"Fishers of men,","author":"Crockett, S. R.","year":"1906-01-01","url":"http:\/\/babel.hathitrust.org\/cgi\/pt?id=uc2.ark:\/13960\/t27945767","placename":"Muckle","snippet":"\" Oh,\" said Billy cheerfully, \" I will no be exactly by my lane! There's Muckle Jock Cockpen, the young smith, 25 377    "},{"title":"Fishers of men,","author":"Crockett, S. R.","year":"1906-01-01","url":"http:\/\/babel.hathitrust.org\/cgi\/pt?id=uc2.ark:\/13960\/t27945767","placename":"Muckle","snippet":"white waistcoat, a gowd chain as thick as your wrist, then the bench o' justices, and word sent on ahead to Sant Peter at the Muckle White Yett to keep a reserved seat for P. Brydson McGhie, Esq., of Balmaghie ! \"    "},{"title":"Memorials of his time,","author":"Cockburn, Henry Cockburn","year":"1856-01-01","url":"http:\/\/babel.hathitrust.org\/cgi\/pt?id=uc2.ark:\/13960\/t1jh3d32m","placename":"Muckle","snippet":"the box, Braxfield, who knew him, whispered 44 Come awa, Maister Horner, come awa, and help us to hang* ane o thae daamned scoondrels.&quot; The reporter of Gerald s case could not venture to make the prisoner say more than that u Christianity was an innovation\/ f But the full truth is, that in stating this view he added that all great men had been reformers, 44 even our Saviour himself.&quot; 44 Muckle he made o that, 7 chuckled Braxfield in an under voice, u he was hanget.&quot; Before Hume s Commentaries had made our criminal record intelli gible, the forms and precedents were a mystery understood by the initiated alone, and by nobody so much as by Mr. Joseph Norris the ancient clerk.    "},{"title":"From Irish castles to French ch\u00e2teaux,","author":"Carson, Norma Bright","year":null,"url":"http:\/\/babel.hathitrust.org\/cgi\/pt?id=loc.ark:\/13960\/t80k37129","placename":"Muckle","snippet":"He was sentenced to be hanged, but was reprieved on the condition that he marry the Murray's daughter, an ill-visaged young woman popularly designated as \" Muckle- mou'ed Meg.\"    "},{"title":"By Adverse Winds. [A novel.]","author":"Smeaton, William Henry Oliphant.","year":"1895-01-01","url":"https:\/\/historicaltexts.jisc.ac.uk\/bl-003410436","placename":"Muckle","snippet":"Even Rab mounted the hobby-horse of self-sacrifice also, anddeclared that \" Muckle as I hae yappit (longed) tae spend maeild (age) in auld Scotland, and lay ma banes i' the mools o'the auld kintry, gin the young maister an' his winsomemake (partner) are dissolved tae remain i' this dissolute kintry,auld Rab maun jist folia their example.    "},{"title":"The Heart of Mid-Lothian.","author":"Scott, Walter","year":null,"url":"https:\/\/historicaltexts.jisc.ac.uk\/bl-003317343","placename":"Muckle","snippet":"\" Muckle better\u2014muckle better\u2014God bless you\u2014God bless you.    "},{"title":"A second series of Curious storied traditions of Scottish life","author":"Leighton, Alexander","year":null,"url":"https:\/\/historicaltexts.jisc.ac.uk\/bl-002122199","placename":"Muckle","snippet":"\" Muckle mair, I doubt.\"    "},{"title":"Cleg Kelly, Arab of the City.","author":"Crockett, Samuel Rutherford.","year":null,"url":"https:\/\/historicaltexts.jisc.ac.uk\/bl-000821618","placename":"Muckle","snippet":"The old hut in the hollow was a deserted cot-house of the General's\u2014a mere but-and-ben\u2014which Muckle Alick had been accustomed to use for storing old railway sleepers in.    "},{"title":"Cleg Kelly, Arab of the City.","author":"Crockett, Samuel Rutherford.","year":null,"url":"https:\/\/historicaltexts.jisc.ac.uk\/bl-000821618","placename":"Muckle","snippet":"MirrenDouglas had put away vain regrets even as she had laidaway Muckle Alick's things\u2014and that was as neatly as ifhe was to need them next Sabbath wdien he made readyfor the kirk.    "},{"title":"Cleg Kelly, Arab of the City.","author":"Crockett, Samuel Rutherford.","year":null,"url":"https:\/\/historicaltexts.jisc.ac.uk\/bl-000821618","placename":"Muckle","snippet":"Cleg had arrived in time for Muckle Alick's funeralday.    "},{"title":"Cleg Kelly, Arab of the City.","author":"Crockett, Samuel Rutherford.","year":null,"url":"https:\/\/historicaltexts.jisc.ac.uk\/bl-000821618","placename":"Muckle","snippet":"Muckle Alick's wife, he thought.    "},{"title":"Cleg Kelly, Arab of the City.","author":"Crockett, Samuel Rutherford.","year":null,"url":"https:\/\/historicaltexts.jisc.ac.uk\/bl-000821618","placename":"Muckle","snippet":"There thetickets were taken at the little platform to which MuckleAlick had so often run, late and early, with lamp inhand.    "},{"title":"Cleg Kelly, Arab of the City.","author":"Crockett, Samuel Rutherford.","year":null,"url":"https:\/\/historicaltexts.jisc.ac.uk\/bl-000821618","placename":"Muckle","snippet":"\" The twa bairns I telled ye aboot are in MuckleAlick's hoose.    "},{"title":"Cleg Kelly, Arab of the City.","author":"Crockett, Samuel Rutherford.","year":null,"url":"https:\/\/historicaltexts.jisc.ac.uk\/bl-000821618","placename":"Muckle","snippet":"Muckle Alick at Netherby was killed hauding the pointsto let by the boat train.    "},{"title":"Cleg Kelly, Arab of the City.","author":"Crockett, Samuel Rutherford.","year":null,"url":"https:\/\/historicaltexts.jisc.ac.uk\/bl-000821618","placename":"Muckle","snippet":"And thus the soul of Muckle Alick passed out of thestation\u2014with the distant signal standing at clear.    "},{"title":"Cleg Kelly, Arab of the City.","author":"Crockett, Samuel Rutherford.","year":null,"url":"https:\/\/historicaltexts.jisc.ac.uk\/bl-000821618","placename":"Muckle","snippet":"Muckle Alick went on.    "},{"title":"Cleg Kelly, Arab of the City.","author":"Crockett, Samuel Rutherford.","year":null,"url":"https:\/\/historicaltexts.jisc.ac.uk\/bl-000821618","placename":"Muckle","snippet":"But they hadto wait for other two, hastily summoned from the nearestrailway houses, before they dared try to lift Muckle Alick.    "},{"title":"Cleg Kelly, Arab of the City.","author":"Crockett, Samuel Rutherford.","year":null,"url":"https:\/\/historicaltexts.jisc.ac.uk\/bl-000821618","placename":"Muckle","snippet":"Five minutes later Duncan Urquhart found MuckleAlick.    "},{"title":"Cleg Kelly, Arab of the City.","author":"Crockett, Samuel Rutherford.","year":null,"url":"https:\/\/historicaltexts.jisc.ac.uk\/bl-000821618","placename":"Muckle","snippet":"It was always wholesome and always cheery to walk with MuckleAlick, even when he was going home from a long spellof overtime.    "},{"title":"Cleg Kelly, Arab of the City.","author":"Crockett, Samuel Rutherford.","year":null,"url":"https:\/\/historicaltexts.jisc.ac.uk\/bl-000821618","placename":"Muckle","snippet":"It was fully a quarter of an hour later that Urquhartwent to look for Muckle Alick.    "},{"title":"Cleg Kelly, Arab of the City.","author":"Crockett, Samuel Rutherford.","year":null,"url":"https:\/\/historicaltexts.jisc.ac.uk\/bl-000821618","placename":"Muckle","snippet":"No one had seen Muckle Alick.    "},{"title":"Cleg Kelly, Arab of the City.","author":"Crockett, Samuel Rutherford.","year":null,"url":"https:\/\/historicaltexts.jisc.ac.uk\/bl-000821618","placename":"Muckle","snippet":"Butsomething, it is thought the iron framework of the catcheron the postal car, caught Muckle Alick and jerked himthirty yards from where he had been standing.    "},{"title":"Cleg Kelly, Arab of the City.","author":"Crockett, Samuel Rutherford.","year":null,"url":"https:\/\/historicaltexts.jisc.ac.uk\/bl-000821618","placename":"Muckle","snippet":"It was not till he saw the hind light of the guard'svan passing him with a swing, that Muckle Alick's heartgave a joyful leap.    "},{"title":"Cleg Kelly, Arab of the City.","author":"Crockett, Samuel Rutherford.","year":null,"url":"https:\/\/historicaltexts.jisc.ac.uk\/bl-000821618","placename":"Muckle","snippet":"But still Muckle Alick held on.    "},{"title":"Cleg Kelly, Arab of the City.","author":"Crockett, Samuel Rutherford.","year":null,"url":"https:\/\/historicaltexts.jisc.ac.uk\/bl-000821618","placename":"Muckle","snippet":"Muckle Alick found the points open.    "},{"title":"Cleg Kelly, Arab of the City.","author":"Crockett, Samuel Rutherford.","year":null,"url":"https:\/\/historicaltexts.jisc.ac.uk\/bl-000821618","placename":"Muckle","snippet":"He shouted with all hispower, but the wdnd whirled away Muckle Alick's criesas though they had been baby Gavin's.    "},{"title":"Cleg Kelly, Arab of the City.","author":"Crockett, Samuel Rutherford.","year":null,"url":"https:\/\/historicaltexts.jisc.ac.uk\/bl-000821618","placename":"Muckle","snippet":"With this ponderous tool in his hand Muckle Alickrushed along to the facing points, whence Duncan Urquhart's goods train might possibly be guided upon theproper metals ere the express rushed past.    "},{"title":"Cleg Kelly, Arab of the City.","author":"Crockett, Samuel Rutherford.","year":null,"url":"https:\/\/historicaltexts.jisc.ac.uk\/bl-000821618","placename":"Muckle","snippet":"Muckle Alick snatched up a huge bar of metal, whichwas used in forcing round the cranks when they reversedthe engines on the turn-table by the engine house, thesame which little Hugh had almost spent his life in tryingto observe more nearly.    "},{"title":"Cleg Kelly, Arab of the City.","author":"Crockett, Samuel Rutherford.","year":null,"url":"https:\/\/historicaltexts.jisc.ac.uk\/bl-000821618","placename":"Muckle","snippet":"Muckle Alick started up in instant affright.    "},{"title":"Cleg Kelly, Arab of the City.","author":"Crockett, Samuel Rutherford.","year":null,"url":"https:\/\/historicaltexts.jisc.ac.uk\/bl-000821618","placename":"Muckle","snippet":"There wasno work of Muckle Alick's doing which was not perfectlydone, and as featly and daintily as a girl twitches hercrochet needles among the cotton.    "},{"title":"Cleg Kelly, Arab of the City.","author":"Crockett, Samuel Rutherford.","year":null,"url":"https:\/\/historicaltexts.jisc.ac.uk\/bl-000821618","placename":"Muckle","snippet":"Muckle Alick was arranging the parcels\u2014which wereto go, and which to be delivered on the morrow.    "},{"title":"Cleg Kelly, Arab of the City.","author":"Crockett, Samuel Rutherford.","year":null,"url":"https:\/\/historicaltexts.jisc.ac.uk\/bl-000821618","placename":"Muckle","snippet":"Below in the left luggage office stood Muckle Alick.    "},{"title":"Cleg Kelly, Arab of the City.","author":"Crockett, Samuel Rutherford.","year":null,"url":"https:\/\/historicaltexts.jisc.ac.uk\/bl-000821618","placename":"Muckle","snippet":"He had been on a heavy job with abreak-down gang on the Muckle Fleet incline.    "},{"title":"Cleg Kelly, Arab of the City.","author":"Crockett, Samuel Rutherford.","year":null,"url":"https:\/\/historicaltexts.jisc.ac.uk\/bl-000821618","placename":"Muckle","snippet":"This might be because in the course of hisstory he had mentioned familiarly the name of DuncanUrquhart the goods guard, and the still greater one ofMuckle Alick, the head porter at Netherby.    "},{"title":"Cleg Kelly, Arab of the City.","author":"Crockett, Samuel Rutherford.","year":null,"url":"https:\/\/historicaltexts.jisc.ac.uk\/bl-000821618","placename":"Muckle","snippet":"The singer was a rough-haired, black-bearded manwith a wide chest and mighty shoulders, even though hecould not be called a giant when compared wdth MuckleAlick down at Netherby.    "},{"title":"Cleg Kelly, Arab of the City.","author":"Crockett, Samuel Rutherford.","year":null,"url":"https:\/\/historicaltexts.jisc.ac.uk\/bl-000821618","placename":"Muckle","snippet":"Besideswhich he was in still nearer connection with his friendsMuckle Alick, the porter, and Duncan Urquhart, thegoods enginedriver at Netherby Junction.    "},{"title":"Cleg Kelly, Arab of the City.","author":"Crockett, Samuel Rutherford.","year":null,"url":"https:\/\/historicaltexts.jisc.ac.uk\/bl-000821618","placename":"Muckle","snippet":"Vara went on hastily to tell Cleg about the children\u2014how well and how happy they were, how Gavin was twicethe weight he had been, how Hugh Boy ran down theroad each night to meet Muckle Alick, and how she wasnow able to keep herself, besides helping a little to support Hugh and Gavin also.    "},{"title":"Cleg Kelly, Arab of the City.","author":"Crockett, Samuel Rutherford.","year":null,"url":"https:\/\/historicaltexts.jisc.ac.uk\/bl-000821618","placename":"Muckle","snippet":"Then Muckle Alick went round and told his wdfe.    "},{"title":"Cleg Kelly, Arab of the City.","author":"Crockett, Samuel Rutherford.","year":null,"url":"https:\/\/historicaltexts.jisc.ac.uk\/bl-000821618","placename":"Muckle","snippet":"Muckle Alick watched him out of sight.    "},{"title":"Cleg Kelly, Arab of the City.","author":"Crockett, Samuel Rutherford.","year":null,"url":"https:\/\/historicaltexts.jisc.ac.uk\/bl-000821618","placename":"Muckle","snippet":"Muckle Alick stopped in the road, as much surprisedas though the town clock had spoken to him.    "},{"title":"Cleg Kelly, Arab of the City.","author":"Crockett, Samuel Rutherford.","year":null,"url":"https:\/\/historicaltexts.jisc.ac.uk\/bl-000821618","placename":"Muckle","snippet":"But Muckle Alick only laughed.    "},{"title":"Cleg Kelly, Arab of the City.","author":"Crockett, Samuel Rutherford.","year":null,"url":"https:\/\/historicaltexts.jisc.ac.uk\/bl-000821618","placename":"Muckle","snippet":"And Muckle Alick lookedat Mirren.    "},{"title":"Cleg Kelly, Arab of the City.","author":"Crockett, Samuel Rutherford.","year":null,"url":"https:\/\/historicaltexts.jisc.ac.uk\/bl-000821618","placename":"Muckle","snippet":"Mirren Douglas gave Muckle Alick a bit clap on theshoulder.    "},{"title":"Cleg Kelly, Arab of the City.","author":"Crockett, Samuel Rutherford.","year":null,"url":"https:\/\/historicaltexts.jisc.ac.uk\/bl-000821618","placename":"Muckle","snippet":"Muckle Alick was putting two and two together.    "},{"title":"Cleg Kelly, Arab of the City.","author":"Crockett, Samuel Rutherford.","year":null,"url":"https:\/\/historicaltexts.jisc.ac.uk\/bl-000821618","placename":"Muckle","snippet":"\" We are to plant cabbage here next year, MistressFraser says!\" cried Muckle Alick.    "},{"title":"Cleg Kelly, Arab of the City.","author":"Crockett, Samuel Rutherford.","year":null,"url":"https:\/\/historicaltexts.jisc.ac.uk\/bl-000821618","placename":"Muckle","snippet":"And then, immediately after, it was MuckleAlick who received the reward of iniquity.    "},{"title":"Cleg Kelly, Arab of the City.","author":"Crockett, Samuel Rutherford.","year":null,"url":"https:\/\/historicaltexts.jisc.ac.uk\/bl-000821618","placename":"Muckle","snippet":"At the time Muckle Alick had too many things tothink about, to say anything whatever.    "},{"title":"Cleg Kelly, Arab of the City.","author":"Crockett, Samuel Rutherford.","year":null,"url":"https:\/\/historicaltexts.jisc.ac.uk\/bl-000821618","placename":"Muckle","snippet":"Muckle Alick saw her fairly in at the kitchen door.    "},{"title":"Cleg Kelly, Arab of the City.","author":"Crockett, Samuel Rutherford.","year":null,"url":"https:\/\/historicaltexts.jisc.ac.uk\/bl-000821618","placename":"Muckle","snippet":"Muckle Alick gave him a warning look, which madehim catch his next unspoken sentence as a wicketkeeper holds the ball before the field has seen it leavethe bat.    "},{"title":"Cleg Kelly, Arab of the City.","author":"Crockett, Samuel Rutherford.","year":null,"url":"https:\/\/historicaltexts.jisc.ac.uk\/bl-000821618","placename":"Muckle","snippet":"For the words which at that moment Muckle Alick delicately let drop, as the chemist drops a rare essence intotwo ounces of distilled water, brought Mistress Fraser toa dead stop in the fulness of her career after the most intimate domestic reminiscences.    "},{"title":"Cleg Kelly, Arab of the City.","author":"Crockett, Samuel Rutherford.","year":null,"url":"https:\/\/historicaltexts.jisc.ac.uk\/bl-000821618","placename":"Muckle","snippet":"Mistress Fraser, whose mind ran naturally on the lines alongwhich Muckle Alick had directed it, was completelytaken in.    "},{"title":"Cleg Kelly, Arab of the City.","author":"Crockett, Samuel Rutherford.","year":null,"url":"https:\/\/historicaltexts.jisc.ac.uk\/bl-000821618","placename":"Muckle","snippet":"It was a clean-limbed,coltish lass of thirteen who gained the race and sprangfirst into the arms of Muckle Alick.    "},{"title":"Cleg Kelly, Arab of the City.","author":"Crockett, Samuel Rutherford.","year":null,"url":"https:\/\/historicaltexts.jisc.ac.uk\/bl-000821618","placename":"Muckle","snippet":"As soon as Muckle Alick hove insight, turning up off the main road, a covey of childrenbroke from the door of the house and ran tumultuouslytowards him.    "},{"title":"Cleg Kelly, Arab of the City.","author":"Crockett, Samuel Rutherford.","year":null,"url":"https:\/\/historicaltexts.jisc.ac.uk\/bl-000821618","placename":"Muckle","snippet":"Whereupon Muckle Alick betookhimself over the way to Mistress Fraser's, and he neversmiled till he got past the gate of the front garden, inwhich Mirren kept her old-fashioned flowers.    "},{"title":"Cleg Kelly, Arab of the City.","author":"Crockett, Samuel Rutherford.","year":null,"url":"https:\/\/historicaltexts.jisc.ac.uk\/bl-000821618","placename":"Muckle","snippet":"\" said Mirren Douglas, wife of Muckle Alick.    "},{"title":"Cleg Kelly, Arab of the City.","author":"Crockett, Samuel Rutherford.","year":null,"url":"https:\/\/historicaltexts.jisc.ac.uk\/bl-000821618","placename":"Muckle","snippet":"And his sweetness of expressionstruggling through the pinched look of hunger went rightto the heart of Mirren, who, having no bairns of her own\u2014\" so far,\" as Muckle Alick remarked cautiously\u2014had somuch the more love for other people's.    "},{"title":"Cleg Kelly, Arab of the City.","author":"Crockett, Samuel Rutherford.","year":null,"url":"https:\/\/historicaltexts.jisc.ac.uk\/bl-000821618","placename":"Muckle","snippet":"Little Gavin was so content in the arms of MuckleAlick that he smiled.    "},{"title":"Cleg Kelly, Arab of the City.","author":"Crockett, Samuel Rutherford.","year":null,"url":"https:\/\/historicaltexts.jisc.ac.uk\/bl-000821618","placename":"Muckle","snippet":"\" Hoot, Mirren woman!\" was all that Muckle Alicksaid, as he pushed Vara and Hugh in before him, Gavinnestling cosily in his arms the while.    "},{"title":"Cleg Kelly, Arab of the City.","author":"Crockett, Samuel Rutherford.","year":null,"url":"https:\/\/historicaltexts.jisc.ac.uk\/bl-000821618","placename":"Muckle","snippet":"And that is the way that Muckle Alick Douglas livedout at Sandyknowes.    "},{"title":"Cleg Kelly, Arab of the City.","author":"Crockett, Samuel Rutherford.","year":null,"url":"https:\/\/historicaltexts.jisc.ac.uk\/bl-000821618","placename":"Muckle","snippet":"It was for her sake and because he could not help himself,that Muckle Alick lived so far from his work.    "},{"title":"Cleg Kelly, Arab of the City.","author":"Crockett, Samuel Rutherford.","year":null,"url":"https:\/\/historicaltexts.jisc.ac.uk\/bl-000821618","placename":"Muckle","snippet":"Muckle Alick trotted the children soberly down thestreet, and at the foot he turned his long lumbering strideup a country road.    "},{"title":"Cleg Kelly, Arab of the City.","author":"Crockett, Samuel Rutherford.","year":null,"url":"https:\/\/historicaltexts.jisc.ac.uk\/bl-000821618","placename":"Muckle","snippet":"And, after Muckle Alick had carefully searched every column of the paper, the parcels were forwarded from thejunction with the usual promptitude and despatch.    "},{"title":"Cleg Kelly, Arab of the City.","author":"Crockett, Samuel Rutherford.","year":null,"url":"https:\/\/historicaltexts.jisc.ac.uk\/bl-000821618","placename":"Muckle","snippet":"It was not clear to the editor how Muckle Alick couldbring about this result.    "},{"title":"Cleg Kelly, Arab of the City.","author":"Crockett, Samuel Rutherford.","year":null,"url":"https:\/\/historicaltexts.jisc.ac.uk\/bl-000821618","placename":"Muckle","snippet":"Muckle Alick called upon the editor of the \" Chronicle.\"    "},{"title":"Cleg Kelly, Arab of the City.","author":"Crockett, Samuel Rutherford.","year":null,"url":"https:\/\/historicaltexts.jisc.ac.uk\/bl-000821618","placename":"Muckle","snippet":"Now Muckle Alick could not help the thing itself,but he could help people in Netherby getting to hearabout it.    "},{"title":"Cleg Kelly, Arab of the City.","author":"Crockett, Samuel Rutherford.","year":null,"url":"https:\/\/historicaltexts.jisc.ac.uk\/bl-000821618","placename":"Muckle","snippet":"They talked of getting up a testimonial to MuckleAlick.    "},{"title":"Cleg Kelly, Arab of the City.","author":"Crockett, Samuel Rutherford.","year":null,"url":"https:\/\/historicaltexts.jisc.ac.uk\/bl-000821618","placename":"Muckle","snippet":"As has been recorded, MuckleAlick's first exclamation (which immediately became proverbial all over the Greenock and South-Eastern) was, \" Isthere aught broke, Geordie, think ye ? \"    "},{"title":"Cleg Kelly, Arab of the City.","author":"Crockett, Samuel Rutherford.","year":null,"url":"https:\/\/historicaltexts.jisc.ac.uk\/bl-000821618","placename":"Muckle","snippet":"But whenMuckle Alick gripped the children in his great arms, andmade that spring to the side, the engine caught him soexactly in the right place that it did no more than considerably accelerate his lateral motion, and project himhalf-way up the bank.    "},{"title":"Cleg Kelly, Arab of the City.","author":"Crockett, Samuel Rutherford.","year":null,"url":"https:\/\/historicaltexts.jisc.ac.uk\/bl-000821618","placename":"Muckle","snippet":"And if Muckle Alick had not opposedthe breadth of his beam to the buffer of Geordie Grierson's engine, this tale, so far at least as two of the Kavannahs were concerned, would have ended here.    "},{"title":"Cleg Kelly, Arab of the City.","author":"Crockett, Samuel Rutherford.","year":null,"url":"https:\/\/historicaltexts.jisc.ac.uk\/bl-000821618","placename":"Muckle","snippet":"\"And I'm gaun the morn's mornin' to see MuckleAlick !\" cried Cleg.    "},{"title":"Cleg Kelly, Arab of the City.","author":"Crockett, Samuel Rutherford.","year":null,"url":"https:\/\/historicaltexts.jisc.ac.uk\/bl-000821618","placename":"Muckle","snippet":"\"' Is there ocht broken, think ye, Geordie ?' MuckleAlick cried anxiously to the engine-driver.    "},{"title":"Cleg Kelly, Arab of the City.","author":"Crockett, Samuel Rutherford.","year":null,"url":"https:\/\/historicaltexts.jisc.ac.uk\/bl-000821618","placename":"Muckle","snippet":"He was leanin' oot o' the engine cubby half his length an'lookin' back, wi' a face like chalk, at Muckle Alick andthe weans on the bank.    "},{"title":"Cleg Kelly, Arab of the City.","author":"Crockett, Samuel Rutherford.","year":null,"url":"https:\/\/historicaltexts.jisc.ac.uk\/bl-000821618","placename":"Muckle","snippet":"So Muckle Alick juist archeda back that was near as braid as the front of the engine    "},{"title":"Cleg Kelly, Arab of the City.","author":"Crockett, Samuel Rutherford.","year":null,"url":"https:\/\/historicaltexts.jisc.ac.uk\/bl-000821618","placename":"Muckle","snippet":"\"It cam' that quick our mouths were hardly shutafter crying out, and our hearts had nae time to gang onagain, before Muckle Alick, wha was standin' by the sideo' the platform, made a spang for the bairns\u2014as far aswe could see, richt under the nose o' the engine.    "},{"title":"Cleg Kelly, Arab of the City.","author":"Crockett, Samuel Rutherford.","year":null,"url":"https:\/\/historicaltexts.jisc.ac.uk\/bl-000821618","placename":"Muckle","snippet":"Muckle Alick wasna angry.    "},{"title":"Cleg Kelly, Arab of the City.","author":"Crockett, Samuel Rutherford.","year":null,"url":"https:\/\/historicaltexts.jisc.ac.uk\/bl-000821618","placename":"Muckle","snippet":"\" Then, after the hindermost was drappit featly on theriggin', oot steps Muckle Alick\u2014edgeways, of course, forthe door wasna wide aneuch for him except on the angle.    "},{"title":"Cleg Kelly, Arab of the City.","author":"Crockett, Samuel Rutherford.","year":null,"url":"https:\/\/historicaltexts.jisc.ac.uk\/bl-000821618","placename":"Muckle","snippet":"For it sohappened that nane o' them had been often at NetherbyMarket, and so no a man o' them was acquaint wi' MuckleAlick.    "},{"title":"Cleg Kelly, Arab of the City.","author":"Crockett, Samuel Rutherford.","year":null,"url":"https:\/\/historicaltexts.jisc.ac.uk\/bl-000821618","placename":"Muckle","snippet":"A' at ance somebody cries,' Here'sMuckle Alick coming up the street.'    "},{"title":"Cleg Kelly, Arab of the City.","author":"Crockett, Samuel Rutherford.","year":null,"url":"https:\/\/historicaltexts.jisc.ac.uk\/bl-000821618","placename":"Muckle","snippet":"\" But nae man ever saw Muckle Alick angry.    "},{"title":"Cleg Kelly, Arab of the City.","author":"Crockett, Samuel Rutherford.","year":null,"url":"https:\/\/historicaltexts.jisc.ac.uk\/bl-000821618","placename":"Muckle","snippet":"So Duncan went on to tellmighty things of the wrath of Muckle Alick.    "},{"title":"Cleg Kelly, Arab of the City.","author":"Crockett, Samuel Rutherford.","year":null,"url":"https:\/\/historicaltexts.jisc.ac.uk\/bl-000821618","placename":"Muckle","snippet":"\" Aye, an' when that puir trembling chicken-heartedcrowl, Tam Mac Wheeble, that drives the Port Andrewpassenger, stood still, wi' the bull's-eyes o' his wee blueengine juist looking round the corner, an' whistled andyelled for the proper signal, pretendin' that he didna seeMuckle Alick (him belongin' to anither kirk), Alick crieddoon at him off the brig, so that they could hear him halfa mile, ' Ye donnert U. P., come on wi' your auld steamroller an' your ill-faured cargo o' Irish drovers, or I'llcome doon an' harl ye a' in mysel'!'    "},{"title":"Cleg Kelly, Arab of the City.","author":"Crockett, Samuel Rutherford.","year":null,"url":"https:\/\/historicaltexts.jisc.ac.uk\/bl-000821618","placename":"Muckle","snippet":"Lord bless me, when the big storm blew doon the distantsignals last spring, I declare gin Muckle Alick didna juiststand on the railway brig that sits end on to the MarketHill, and signal in the trains wi' airms like the cross treeso' a man-o'-war!    "},{"title":"Cleg Kelly, Arab of the City.","author":"Crockett, Samuel Rutherford.","year":null,"url":"https:\/\/historicaltexts.jisc.ac.uk\/bl-000821618","placename":"Muckle","snippet":"on the braes o' the Black Isle\u2014that's Muckle Alick o'Netherby.    "},{"title":"Cleg Kelly, Arab of the City.","author":"Crockett, Samuel Rutherford.","year":null,"url":"https:\/\/historicaltexts.jisc.ac.uk\/bl-000821618","placename":"Muckle","snippet":"But ye should see MuckleAlick doon at Netherby Junction, where I pit up for thenicht.    "}]