[{"title":"The journal of Sir Walter Scott,","author":"Scott, Walter","year":"1890-01-01","url":"http:\/\/babel.hathitrust.org\/cgi\/pt?id=uc2.ark:\/13960\/t9h41n97z","placename":"Huntly Burn","snippet":"I set to work with Mr. Laidlaw, and had after that a capital ride; my pony, little used, was somewhat  frisky, but I rode on to Huntly Burn.    "},{"title":"The journal of Sir Walter Scott,","author":"Scott, Walter","year":"1890-01-01","url":"http:\/\/babel.hathitrust.org\/cgi\/pt?id=uc2.ark:\/13960\/t9h41n97z","placename":"Huntly Burn","snippet":"I have jumbled this and the preceding day strangely, when I went to Chiefswood and Huntly Burn.    "},{"title":"The journal of Sir Walter Scott,","author":"Scott, Walter","year":"1890-01-01","url":"http:\/\/babel.hathitrust.org\/cgi\/pt?id=uc2.ark:\/13960\/t9h41n97z","placename":"Huntly Burn","snippet":"Drove down to Huntly Burn.    "},{"title":"The journal of Sir Walter Scott,","author":"Scott, Walter","year":"1890-01-01","url":"http:\/\/babel.hathitrust.org\/cgi\/pt?id=uc2.ark:\/13960\/t9h41n97z","placename":"Huntly Burn","snippet":"Anne drove me over to Huntly Burn to see the family.    "},{"title":"The journal of Sir Walter Scott,","author":"Scott, Walter","year":"1890-01-01","url":"http:\/\/babel.hathitrust.org\/cgi\/pt?id=uc2.ark:\/13960\/t9h41n97z","placename":"Huntly Burn","snippet":"Afterwards went to Huntly Burn and made my compliments to the family.    "},{"title":"The journal of Sir Walter Scott,","author":"Scott, Walter","year":"1890-01-01","url":"http:\/\/babel.hathitrust.org\/cgi\/pt?id=uc2.ark:\/13960\/t9h41n97z","placename":"Huntly Burn","snippet":"I went to see the woods at Huntly Burn, and Mars Lea, etc.    "},{"title":"The journal of Sir Walter Scott,","author":"Scott, Walter","year":"1890-01-01","url":"http:\/\/babel.hathitrust.org\/cgi\/pt?id=uc2.ark:\/13960\/t9h41n97z","placename":"Huntly Burn","snippet":"T walked over to Huntly Burn, and round by Chiefswood and Janeswood, where I saw Captain Hamilton.    "},{"title":"The journal of Sir Walter Scott,","author":"Scott, Walter","year":"1890-01-01","url":"http:\/\/babel.hathitrust.org\/cgi\/pt?id=uc2.ark:\/13960\/t9h41n97z","placename":"Huntly Burn","snippet":"What a curious tale that is of Masaniello ! I went to Huntly Burn in the sociable, and returned on foot, to my great refreshment.    "},{"title":"The journal of Sir Walter Scott,","author":"Scott, Walter","year":"1890-01-01","url":"http:\/\/babel.hathitrust.org\/cgi\/pt?id=uc2.ark:\/13960\/t9h41n97z","placename":"Huntly Burn","snippet":"The ladies came from Huntly Burn, and cut off the evening.    "},{"title":"The journal of Sir Walter Scott,","author":"Scott, Walter","year":"1890-01-01","url":"http:\/\/babel.hathitrust.org\/cgi\/pt?id=uc2.ark:\/13960\/t9h41n97z","placename":"Huntly Burn","snippet":"Being Sunday, I read prayers to our guests, then went a long walk by the lake to Huntly Burn.    "},{"title":"The journal of Sir Walter Scott,","author":"Scott, Walter","year":"1890-01-01","url":"http:\/\/babel.hathitrust.org\/cgi\/pt?id=uc2.ark:\/13960\/t9h41n97z","placename":"Huntly Burn","snippet":"In this merry mood I wandered as far as Huntly Burn, where I found the Miss Fergusons well and happy ; then I sauntered back to Abbotsford, sitting on every bench by the way, and thus \" It grew to dinner in conclusion.\"    "},{"title":"The journal of Sir Walter Scott,","author":"Scott, Walter","year":"1890-01-01","url":"http:\/\/babel.hathitrust.org\/cgi\/pt?id=uc2.ark:\/13960\/t9h41n97z","placename":"Huntly Burn","snippet":"Now, my Whitehaugh at Huntly Burn yielded at last set 4 per acre.    "},{"title":"The journal of Sir Walter Scott,","author":"Scott, Walter","year":"1890-01-01","url":"http:\/\/babel.hathitrust.org\/cgi\/pt?id=uc2.ark:\/13960\/t9h41n97z","placename":"Huntly Burn","snippet":"I took a drive with my daughter, for exercise, and called at Huntly Burn.    "},{"title":"The journal of Sir Walter Scott,","author":"Scott, Walter","year":"1890-01-01","url":"http:\/\/babel.hathitrust.org\/cgi\/pt?id=uc2.ark:\/13960\/t9h41n97z","placename":"Huntly Burn","snippet":"We made our visit at Huntly Burn.    "},{"title":"The journal of Sir Walter Scott,","author":"Scott, Walter","year":"1890-01-01","url":"http:\/\/babel.hathitrust.org\/cgi\/pt?id=uc2.ark:\/13960\/t9h41n97z","placename":"Huntly Burn","snippet":"Moreover, Captain John Ferguson came over from Huntly Burn, so we spent the day jocundly.    "},{"title":"The journal of Sir Walter Scott,","author":"Scott, Walter","year":"1890-01-01","url":"http:\/\/babel.hathitrust.org\/cgi\/pt?id=uc2.ark:\/13960\/t9h41n97z","placename":"Huntly Burn","snippet":"I drove over to Huntly Burn, and saw the plantation which is to be called Janeswood, in honour of my daughter-in-law.    "},{"title":"The journal of Sir Walter Scott,","author":"Scott, Walter","year":"1890-01-01","url":"http:\/\/babel.hathitrust.org\/cgi\/pt?id=uc2.ark:\/13960\/t9h41n97z","placename":"Huntly Burn","snippet":"This morning went again to Huntly Burn    "},{"title":"The journal of Sir Walter Scott,","author":"Scott, Walter","year":"1890-01-01","url":"http:\/\/babel.hathitrust.org\/cgi\/pt?id=uc2.ark:\/13960\/t9h41n97z","placename":"Huntly Burn","snippet":"Drove over to Huntly Burn at breakfast, and walked up to the dike they are building for the new plantation.    "},{"title":"The journal of Sir Walter Scott,","author":"Scott, Walter","year":"1890-01-01","url":"http:\/\/babel.hathitrust.org\/cgi\/pt?id=uc2.ark:\/13960\/t9h41n97z","placename":"Huntly Burn","snippet":"I walked from Huntly Burn up the little Glen, which was in all the melancholy beauty of autumn, the little brook brawling and bickering in fine style over its falls and currents.    "},{"title":"The journal of Sir Walter Scott,","author":"Scott, Walter","year":"1890-01-01","url":"http:\/\/babel.hathitrust.org\/cgi\/pt?id=uc2.ark:\/13960\/t9h41n97z","placename":"Huntly Burn","snippet":"At one Anne drove me to Huntly Burn, and I examined the earthen fence intended for the new planting, and altered the line in some points.    "},{"title":"The journal of Sir Walter Scott,","author":"Scott, Walter","year":"1890-01-01","url":"http:\/\/babel.hathitrust.org\/cgi\/pt?id=uc2.ark:\/13960\/t9h41n97z","placename":"Huntly Burn","snippet":"Breakfasted at Huntly Burn with the merry knight, Sir Adam Ferguson.    "},{"title":"The journal of Sir Walter Scott,","author":"Scott, Walter","year":"1890-01-01","url":"http:\/\/babel.hathitrust.org\/cgi\/pt?id=uc2.ark:\/13960\/t9h41n97z","placename":"Huntly Burn","snippet":"Worked in the morning; then drove over to Huntly Burn, chiefly to get from the good-humoured Colonel the accurate spelling of certain Hindu words which I have been using under his instructions.    "},{"title":"The journal of Sir Walter Scott,","author":"Scott, Walter","year":"1890-01-01","url":"http:\/\/babel.hathitrust.org\/cgi\/pt?id=uc2.ark:\/13960\/t9h41n97z","placename":"Huntly Burn","snippet":"Walked from Huntly Burn, having gone in the carriage.    "},{"title":"The journal of Sir Walter Scott,","author":"Scott, Walter","year":"1890-01-01","url":"http:\/\/babel.hathitrust.org\/cgi\/pt?id=uc2.ark:\/13960\/t9h41n97z","placename":"Huntly Burn","snippet":"Went to Huntly Burn and breakfasted with Colonel Ferguson, who has promised to have some Indian memoranda ready for me.    "},{"title":"The journal of Sir Walter Scott,","author":"Scott, Walter","year":"1890-01-01","url":"http:\/\/babel.hathitrust.org\/cgi\/pt?id=uc2.ark:\/13960\/t9h41n97z","placename":"Huntly Burn","snippet":"Went over to breakfast at Huntly Burn ; the great object was to see my cascade in the Glen suitably repaired.    "},{"title":"The journal of Sir Walter Scott,","author":"Scott, Walter","year":"1890-01-01","url":"http:\/\/babel.hathitrust.org\/cgi\/pt?id=uc2.ark:\/13960\/t9h41n97z","placename":"Huntly Burn","snippet":"I finished four pages, and part of a fifth, then drove to Huntly Burn and returned through the Glen ; I certainly turn heavy-footed, not in the female sense, however.    "},{"title":"The journal of Sir Walter Scott,","author":"Scott, Walter","year":"1890-01-01","url":"http:\/\/babel.hathitrust.org\/cgi\/pt?id=uc2.ark:\/13960\/t9h41n97z","placename":"Huntly Burn","snippet":"Sent five or six pages to James Ballantyne, i.e. got them ready, and wrote till the afternoon, then I drove over to Huntly Burn, and walked through the glens till dinner-time.    "},{"title":"The journal of Sir Walter Scott,","author":"Scott, Walter","year":"1890-01-01","url":"http:\/\/babel.hathitrust.org\/cgi\/pt?id=uc2.ark:\/13960\/t9h41n97z","placename":"Huntly Burn","snippet":"much may the little gossoon Jamie Moffatt be tempted by apples of gold in an age of iron ! Anne and I walked to Huntly Burn a delicious excursion.    "},{"title":"The journal of Sir Walter Scott,","author":"Scott, Walter","year":"1890-01-01","url":"http:\/\/babel.hathitrust.org\/cgi\/pt?id=uc2.ark:\/13960\/t9h41n97z","placename":"Huntly Burn","snippet":"Went over to Huntly Burn at two o'clock, and reconnoitred the proposed plantation to be called Jane's Wood.    "},{"title":"The journal of Sir Walter Scott,","author":"Scott, Walter","year":"1891-01-01","url":"http:\/\/babel.hathitrust.org\/cgi\/pt?id=uc2.ark:\/13960\/t7jq0vz0t","placename":"Huntly Burn","snippet":"I have jumbled this and the preceding day strangely,  when I went to Chiefswood and Huntly Burn.    "},{"title":"The journal of Sir Walter Scott,","author":"Scott, Walter","year":"1891-01-01","url":"http:\/\/babel.hathitrust.org\/cgi\/pt?id=uc2.ark:\/13960\/t7jq0vz0t","placename":"Huntly Burn","snippet":"Drove down to Huntly Burn.    "},{"title":"The journal of Sir Walter Scott,","author":"Scott, Walter","year":"1891-01-01","url":"http:\/\/babel.hathitrust.org\/cgi\/pt?id=uc2.ark:\/13960\/t7jq0vz0t","placename":"Huntly Burn","snippet":"Anne drove me over to Huntly Burn to see the family.    "},{"title":"The journal of Sir Walter Scott,","author":"Scott, Walter","year":"1891-01-01","url":"http:\/\/babel.hathitrust.org\/cgi\/pt?id=uc2.ark:\/13960\/t7jq0vz0t","placename":"Huntly Burn","snippet":"Afterwards  went to Huntly Burn and made my compliments to the family.    "},{"title":"The journal of Sir Walter Scott,","author":"Scott, Walter","year":"1891-01-01","url":"http:\/\/babel.hathitrust.org\/cgi\/pt?id=uc2.ark:\/13960\/t7jq0vz0t","placename":"Huntly Burn","snippet":"T went to see the woods at Huntly Burn, and Mars Lea, etc.    "},{"title":"The journal of Sir Walter Scott,","author":"Scott, Walter","year":"1891-01-01","url":"http:\/\/babel.hathitrust.org\/cgi\/pt?id=uc2.ark:\/13960\/t7jq0vz0t","placename":"Huntly Burn","snippet":"I walked over to Huntly Burn, and round by Chiefswood and Janeswood, where I saw Captain Hamilton.    "},{"title":"The journal of Sir Walter Scott,","author":"Scott, Walter","year":"1891-01-01","url":"http:\/\/babel.hathitrust.org\/cgi\/pt?id=uc2.ark:\/13960\/t7jq0vz0t","placename":"Huntly Burn","snippet":"What a curious tale that is of Masaniello ! I went to Huntly Burn in the sociable, and returned on foot, to my great refreshment.    "},{"title":"The journal of Sir Walter Scott,","author":"Scott, Walter","year":"1891-01-01","url":"http:\/\/babel.hathitrust.org\/cgi\/pt?id=uc2.ark:\/13960\/t7jq0vz0t","placename":"Huntly Burn","snippet":"The ladies came from Huntly Burn, and cut off the evening.    "},{"title":"The journal of Sir Walter Scott,","author":"Scott, Walter","year":"1891-01-01","url":"http:\/\/babel.hathitrust.org\/cgi\/pt?id=uc2.ark:\/13960\/t7jq0vz0t","placename":"Huntly Burn","snippet":"Being Sunday, I read prayers to our guests, then went a long walk\" by the lake to Huntly Burn.    "},{"title":"The journal of Sir Walter Scott,","author":"Scott, Walter","year":"1891-01-01","url":"http:\/\/babel.hathitrust.org\/cgi\/pt?id=uc2.ark:\/13960\/t7jq0vz0t","placename":"Huntly Burn","snippet":"In this merry mood I wandered as far as Huntly Burn, where I found the    "},{"title":"The journal of Sir Walter Scott,","author":"Scott, Walter","year":"1891-01-01","url":"http:\/\/babel.hathitrust.org\/cgi\/pt?id=uc2.ark:\/13960\/t7jq0vz0t","placename":"Huntly Burn","snippet":"Now, my Whitehaugh at Huntly Burn yielded at last set 4 per acre.    "},{"title":"The journal of Sir Walter Scott,","author":"Scott, Walter","year":"1891-01-01","url":"http:\/\/babel.hathitrust.org\/cgi\/pt?id=uc2.ark:\/13960\/t7jq0vz0t","placename":"Huntly Burn","snippet":"I took a drive with my daughter, for exercise, and called at Huntly Burn.    "},{"title":"The journal of Sir Walter Scott,","author":"Scott, Walter","year":"1891-01-01","url":"http:\/\/babel.hathitrust.org\/cgi\/pt?id=uc2.ark:\/13960\/t7jq0vz0t","placename":"Huntly Burn","snippet":"We made our visit at Huntly Burn.    "},{"title":"The journal of Sir Walter Scott,","author":"Scott, Walter","year":"1891-01-01","url":"http:\/\/babel.hathitrust.org\/cgi\/pt?id=uc2.ark:\/13960\/t7jq0vz0t","placename":"Huntly Burn","snippet":"1 I walked with the Lord Chief- Commissioner through our grounds at Huntly Burn, and by taking the carriage now and then I succeeded in giving my excellent old friend enough of exercise without any fatigue.    "},{"title":"The journal of Sir Walter Scott,","author":"Scott, Walter","year":"1891-01-01","url":"http:\/\/babel.hathitrust.org\/cgi\/pt?id=uc2.ark:\/13960\/t7jq0vz0t","placename":"Huntly Burn","snippet":"Moreover, Captain John Ferguson came over from Huntly Burn, so we spent the day jocundly.    "},{"title":"The journal of Sir Walter Scott,","author":"Scott, Walter","year":"1891-01-01","url":"http:\/\/babel.hathitrust.org\/cgi\/pt?id=uc2.ark:\/13960\/t7jq0vz0t","placename":"Huntly Burn","snippet":"I drove over to Huntly Burn, and saw the plantation  which is to be called Janeswood, in honour of my daughter-in- law.    "},{"title":"The journal of Sir Walter Scott,","author":"Scott, Walter","year":"1891-01-01","url":"http:\/\/babel.hathitrust.org\/cgi\/pt?id=uc2.ark:\/13960\/t7jq0vz0t","placename":"Huntly Burn","snippet":"This morning went again to Huntly Burn to breakfast.    "},{"title":"The journal of Sir Walter Scott,","author":"Scott, Walter","year":"1891-01-01","url":"http:\/\/babel.hathitrust.org\/cgi\/pt?id=uc2.ark:\/13960\/t7jq0vz0t","placename":"Huntly Burn","snippet":"I walked from Huntly Burn up the little Glen, which was in all the melancholy beauty of autumn, the little brook brawling and bickering  in fine style over its falls and currents.    "},{"title":"The journal of Sir Walter Scott,","author":"Scott, Walter","year":"1891-01-01","url":"http:\/\/babel.hathitrust.org\/cgi\/pt?id=uc2.ark:\/13960\/t7jq0vz0t","placename":"Huntly Burn","snippet":"At one Anne drove me to Huntly Burn, and I examined the earthen fence intended for the new planting, and altered the line in some points.    "},{"title":"The journal of Sir Walter Scott,","author":"Scott, Walter","year":"1891-01-01","url":"http:\/\/babel.hathitrust.org\/cgi\/pt?id=uc2.ark:\/13960\/t7jq0vz0t","placename":"Huntly Burn","snippet":"Breakfasted at Huntly Burn with the merry knight, Sir Adam Ferguson.    "},{"title":"The journal of Sir Walter Scott,","author":"Scott, Walter","year":"1891-01-01","url":"http:\/\/babel.hathitrust.org\/cgi\/pt?id=uc2.ark:\/13960\/t7jq0vz0t","placename":"Huntly Burn","snippet":"Worked in the morning ; then drove over to Huntly Burn, chiefly to get from the good-humoured Colonel the accurate  spelling of certain Hindu words which I have been using under  his instructions.    "},{"title":"The journal of Sir Walter Scott,","author":"Scott, Walter","year":"1891-01-01","url":"http:\/\/babel.hathitrust.org\/cgi\/pt?id=uc2.ark:\/13960\/t7jq0vz0t","placename":"Huntly Burn","snippet":"Walked from Huntly Burn, having gone in the carriage.    "},{"title":"The journal of Sir Walter Scott,","author":"Scott, Walter","year":"1891-01-01","url":"http:\/\/babel.hathitrust.org\/cgi\/pt?id=uc2.ark:\/13960\/t7jq0vz0t","placename":"Huntly Burn","snippet":"Went to Huntly Burn and breakfasted with Colonel  Ferguson, who has promised to have some Indian memoranda ready for me.    "},{"title":"The journal of Sir Walter Scott,","author":"Scott, Walter","year":"1891-01-01","url":"http:\/\/babel.hathitrust.org\/cgi\/pt?id=uc2.ark:\/13960\/t7jq0vz0t","placename":"Huntly Burn","snippet":"I finished four pages, and part of a fifth, then drove to Huntly Burn and returned through the Glen ; I certainly turn heavy-footed, not in the female sense, however.    "},{"title":"The journal of Sir Walter Scott,","author":"Scott, Walter","year":"1891-01-01","url":"http:\/\/babel.hathitrust.org\/cgi\/pt?id=uc2.ark:\/13960\/t7jq0vz0t","placename":"Huntly Burn","snippet":"Sent five or six pages to James Ballantyne, i.e. got them ready, and wrote till the afternoon, then I drove over to Huntly Burn, and walked through the glens till dinner-time.    "},{"title":"The journal of Sir Walter Scott,","author":"Scott, Walter","year":"1891-01-01","url":"http:\/\/babel.hathitrust.org\/cgi\/pt?id=uc2.ark:\/13960\/t7jq0vz0t","placename":"Huntly Burn","snippet":"Went over to Huntly Burn at two o'clock, and recon- \" noitred the proposed plantation to be called Jane's Wood.    "},{"title":"The journal of Sir Walter Scott,","author":"Scott, Walter","year":"1891-01-01","url":"http:\/\/babel.hathitrust.org\/cgi\/pt?id=uc2.ark:\/13960\/t7jq0vz0t","placename":"Huntly Burn","snippet":"We went to breakfast at Huntly Burn, and I wandered all the morning in the woods to avoid an English party who came to see the house.    "},{"title":"The journal of Sir Walter Scott,","author":"Scott, Walter","year":"1891-01-01","url":"http:\/\/babel.hathitrust.org\/cgi\/pt?id=uc2.ark:\/13960\/t7jq0vz0t","placename":"Huntly Burn","snippet":"Wrote till twelve o'clock, then sallied forth, and walked to Huntly Burn with Tom ; and so, look you, sir, I drove    "},{"title":"The journal of Sir Walter Scott,","author":"Scott, Walter","year":"1891-01-01","url":"http:\/\/babel.hathitrust.org\/cgi\/pt?id=uc2.ark:\/13960\/t7jq0vz0t","placename":"Huntly Burn","snippet":"I showed him the plantations, going first round the terrace, then to the lake, then came down by the Rhymer' s Glen, and took carriage at Huntly Burn, almost the grand tour, only we did not walk from Huntly Burn.    "},{"title":"The journal of Sir Walter Scott,","author":"Scott, Walter","year":"1891-01-01","url":"http:\/\/babel.hathitrust.org\/cgi\/pt?id=uc2.ark:\/13960\/t7jq0vz0t","placename":"Huntly Burn","snippet":"I showed him the plantations, going first round the terrace, then to the lake, then came down by the Rhymer' s Glen, and took carriage at Huntly Burn, almost the grand tour, only we did not walk from Huntly Burn.    "},{"title":"The journal of Sir Walter Scott,","author":"Scott, Walter","year":"1891-01-01","url":"http:\/\/babel.hathitrust.org\/cgi\/pt?id=uc2.ark:\/13960\/t7jq0vz0t","placename":"Huntly Burn","snippet":"Hard work still, but went to Huntly Burn on foot, and returned in the carriage.    "},{"title":"The journal of Sir Walter Scott,","author":"Scott, Walter","year":"1891-01-01","url":"http:\/\/babel.hathitrust.org\/cgi\/pt?id=uc2.ark:\/13960\/t7jq0vz0t","placename":"Huntly Burn","snippet":"I went with all our family to-day to dine as usual at the kind house of Huntly Burn ; but the same cloud which hung over us on Saturday still had its influence.    "},{"title":"The journal of Sir Walter Scott,","author":"Scott, Walter","year":"1891-01-01","url":"http:\/\/babel.hathitrust.org\/cgi\/pt?id=uc2.ark:\/13960\/t7jq0vz0t","placename":"Huntly Burn","snippet":"Dined at Chiefswood with Captain and Mrs. Hamilton, Lady Lucy Whitmore, their guest, and neighbours from Gattonside and Huntly Burn.    "},{"title":"The journal of Sir Walter Scott,","author":"Scott, Walter","year":"1891-01-01","url":"http:\/\/babel.hathitrust.org\/cgi\/pt?id=uc2.ark:\/13960\/t7jq0vz0t","placename":"Huntly Burn","snippet":"We dined at Huntly Burn.    "},{"title":"The journal of Sir Walter Scott,","author":"Scott, Walter","year":"1891-01-01","url":"http:\/\/babel.hathitrust.org\/cgi\/pt?id=uc2.ark:\/13960\/t7jq0vz0t","placename":"Huntly Burn","snippet":"Went down to Huntly Burn, and dawdled about while waiting for the carriage to bring me back.    "},{"title":"The journal of Sir Walter Scott,","author":"Scott, Walter","year":"1891-01-01","url":"http:\/\/babel.hathitrust.org\/cgi\/pt?id=uc2.ark:\/13960\/t7jq0vz0t","placename":"Huntly Burn","snippet":"Walked to Huntly Burn, where I found a certain lady on a visit so youthy, so beautiful, so strong in voice with sense and learning above all, so fond of good conversation, that, in compassion to my eyes, ears, and understanding, I bolted in the middle of a tremendous shower of rain, and rather chose to be wet to the skin than to be bethumped with words at that rate.    "},{"title":"The journal of Sir Walter Scott,","author":"Scott, Walter","year":"1891-01-01","url":"http:\/\/babel.hathitrust.org\/cgi\/pt?id=uc2.ark:\/13960\/t7jq0vz0t","placename":"Huntly Burn","snippet":"In the evening we drove to Huntly Burn, and took tea there.    "},{"title":"The journal of Sir Walter Scott,","author":"Scott, Walter","year":"1891-01-01","url":"http:\/\/babel.hathitrust.org\/cgi\/pt?id=uc2.ark:\/13960\/t7jq0vz0t","placename":"Huntly Burn","snippet":"Then drove to Huntly Burn and called at Chiefswood.    "},{"title":"The journal of Sir Walter Scott,","author":"Scott, Walter","year":"1891-01-01","url":"http:\/\/babel.hathitrust.org\/cgi\/pt?id=uc2.ark:\/13960\/t7jq0vz0t","placename":"Huntly Burn","snippet":"4 Went to Huntly Burn to-day and looked at the Colonel's projected approach.    "},{"title":"The journal of Sir Walter Scott,","author":"Scott, Walter","year":"1891-01-01","url":"http:\/\/babel.hathitrust.org\/cgi\/pt?id=uc2.ark:\/13960\/t7jq0vz0t","placename":"Huntly Burn","snippet":"Went at one to Huntly Burn, where I had the great pleasure to hear, through a letter from Sir Adam, that Sophia was in health, and Johnnie gaining strength.    "},{"title":"The journal of Sir Walter Scott,","author":"Scott, Walter","year":"1891-01-01","url":"http:\/\/babel.hathitrust.org\/cgi\/pt?id=uc2.ark:\/13960\/t7jq0vz0t","placename":"Huntly Burn","snippet":"At that hour to-day I drove to Huntly Burn, and walked home by one of the hundred and one pleasing paths which I have made through the woods I have planted now chatting with Tom Purdie, who carries my plaid, and speaks when he pleases, telling  long stories of hits and misses in shooting twenty years back sometimes chewing the cud of sweet and bitter fancy and sometimes attending to the humours of two curious little terriers of the Dandie Dinmont breed, together with a noble wolf-hound puppy which Glengarry  has given me to replace Maida.    "},{"title":"The journal of Sir Walter Scott,","author":"Scott, Walter","year":"1891-01-01","url":"http:\/\/babel.hathitrust.org\/cgi\/pt?id=uc2.ark:\/13960\/t7jq0vz0t","placename":"Huntly Burn","snippet":"I wrote in the morning at Woodstock ; walked from one till four ; was down at Huntly Burn and paid my respects to the ladies.    "},{"title":"The journal of Sir Walter Scott,","author":"Scott, Walter","year":"1891-01-01","url":"http:\/\/babel.hathitrust.org\/cgi\/pt?id=uc2.ark:\/13960\/t7jq0vz0t","placename":"Huntly Burn","snippet":"Called at Huntly Burn, and shook hands with Sir Adam and his Lady just going off.    "},{"title":"The journal of Sir Walter Scott,","author":"Scott, Walter","year":"1891-01-01","url":"http:\/\/babel.hathitrust.org\/cgi\/pt?id=loc.ark:\/13960\/t6rz05s28","placename":"Huntly Burn","snippet":"\u2014 I set to work with Mr. Laidlaw, and had after that a capital ride ; my pony, little used, was somewhat frisky, but I rode on to Huntly Burn.    "},{"title":"The journal of Sir Walter Scott,","author":"Scott, Walter","year":"1891-01-01","url":"http:\/\/babel.hathitrust.org\/cgi\/pt?id=loc.ark:\/13960\/t6rz05s28","placename":"Huntly Burn","snippet":"I think the peep, real or imaginary, at the gates of death has given me firmness not to mind little afflictions, I have jumbled this and the preceding day strangely,  when I went to Chiefswood and Huntly Burn.    "},{"title":"The journal of Sir Walter Scott,","author":"Scott, Walter","year":"1891-01-01","url":"http:\/\/babel.hathitrust.org\/cgi\/pt?id=loc.ark:\/13960\/t6rz05s28","placename":"Huntly Burn","snippet":"\u2014 Drove down to Huntly Burn.    "},{"title":"The journal of Sir Walter Scott,","author":"Scott, Walter","year":"1891-01-01","url":"http:\/\/babel.hathitrust.org\/cgi\/pt?id=loc.ark:\/13960\/t6rz05s28","placename":"Huntly Burn","snippet":"Anne drove me over to Huntly Burn to see the family.    "},{"title":"The journal of Sir Walter Scott,","author":"Scott, Walter","year":"1891-01-01","url":"http:\/\/babel.hathitrust.org\/cgi\/pt?id=loc.ark:\/13960\/t6rz05s28","placename":"Huntly Burn","snippet":"Afterwards  went to Huntly Burn and made my compliments to the family.    "},{"title":"The journal of Sir Walter Scott,","author":"Scott, Walter","year":"1891-01-01","url":"http:\/\/babel.hathitrust.org\/cgi\/pt?id=loc.ark:\/13960\/t6rz05s28","placename":"Huntly Burn","snippet":"T went to see the woods at Huntly Burn, and Mars Lea, etc.    "},{"title":"The journal of Sir Walter Scott,","author":"Scott, Walter","year":"1891-01-01","url":"http:\/\/babel.hathitrust.org\/cgi\/pt?id=loc.ark:\/13960\/t6rz05s28","placename":"Huntly Burn","snippet":"I walked over to Huntly Burn, and round by Chiefswood and Janeswood, where I saw Captain Hamilton.    "},{"title":"The journal of Sir Walter Scott,","author":"Scott, Walter","year":"1891-01-01","url":"http:\/\/babel.hathitrust.org\/cgi\/pt?id=loc.ark:\/13960\/t6rz05s28","placename":"Huntly Burn","snippet":"What a curious tale that is of Masaniello ! I went to Huntly Burn in the sociable, and returned on foot, to my great refreshment.    "},{"title":"The journal of Sir Walter Scott,","author":"Scott, Walter","year":"1891-01-01","url":"http:\/\/babel.hathitrust.org\/cgi\/pt?id=loc.ark:\/13960\/t6rz05s28","placename":"Huntly Burn","snippet":"The ladies came from Huntly Burn, and cut off the evening.'    "},{"title":"The journal of Sir Walter Scott,","author":"Scott, Walter","year":"1891-01-01","url":"http:\/\/babel.hathitrust.org\/cgi\/pt?id=loc.ark:\/13960\/t6rz05s28","placename":"Huntly Burn","snippet":"\u2014 Being Sunday, I read prayers to our guests, then went a long walk by the lake to Huntly Burn.    "},{"title":"The journal of Sir Walter Scott,","author":"Scott, Walter","year":"1891-01-01","url":"http:\/\/babel.hathitrust.org\/cgi\/pt?id=loc.ark:\/13960\/t6rz05s28","placename":"Huntly Burn","snippet":"In this merry mood I wandered as far as Huntly Burn, where I found the    "},{"title":"The journal of Sir Walter Scott,","author":"Scott, Walter","year":"1891-01-01","url":"http:\/\/babel.hathitrust.org\/cgi\/pt?id=loc.ark:\/13960\/t6rz05s28","placename":"Huntly Burn","snippet":"Now, my Whitehaugh at Huntly Burn yielded at last set \u00a34 per acre.    "},{"title":"The journal of Sir Walter Scott,","author":"Scott, Walter","year":"1891-01-01","url":"http:\/\/babel.hathitrust.org\/cgi\/pt?id=loc.ark:\/13960\/t6rz05s28","placename":"Huntly Burn","snippet":"I took a drive with my daughter, for exercise, and called at Huntly Burn.    "},{"title":"The journal of Sir Walter Scott,","author":"Scott, Walter","year":"1891-01-01","url":"http:\/\/babel.hathitrust.org\/cgi\/pt?id=loc.ark:\/13960\/t6rz05s28","placename":"Huntly Burn","snippet":"We made our visit at Huntly Burn.    "},{"title":"The journal of Sir Walter Scott,","author":"Scott, Walter","year":"1891-01-01","url":"http:\/\/babel.hathitrust.org\/cgi\/pt?id=loc.ark:\/13960\/t6rz05s28","placename":"Huntly Burn","snippet":"I walked with the Lord Chief- Commissioner through our grounds at Huntly Burn, and by taking the carriage now and then I succeeded in giving my excellent old friend enough of exercise without any fatigue.    "},{"title":"The journal of Sir Walter Scott,","author":"Scott, Walter","year":"1891-01-01","url":"http:\/\/babel.hathitrust.org\/cgi\/pt?id=loc.ark:\/13960\/t6rz05s28","placename":"Huntly Burn","snippet":"Moreover, Captain John Ferguson came over from Huntly Burn, so we spent the day jocundly.    "},{"title":"The journal of Sir Walter Scott,","author":"Scott, Walter","year":"1891-01-01","url":"http:\/\/babel.hathitrust.org\/cgi\/pt?id=loc.ark:\/13960\/t6rz05s28","placename":"Huntly Burn","snippet":"\u2014 I drove over to Huntly Burn, and saw the plantation  which is to be called Janeswood, in honour of my daughter-in- law.    "},{"title":"The journal of Sir Walter Scott,","author":"Scott, Walter","year":"1891-01-01","url":"http:\/\/babel.hathitrust.org\/cgi\/pt?id=loc.ark:\/13960\/t6rz05s28","placename":"Huntly Burn","snippet":"\u2014 This morning went again to Huntly Burn to breakfast.    "},{"title":"The journal of Sir Walter Scott,","author":"Scott, Walter","year":"1891-01-01","url":"http:\/\/babel.hathitrust.org\/cgi\/pt?id=loc.ark:\/13960\/t6rz05s28","placename":"Huntly Burn","snippet":"I walked from Huntly Burn up the little Glen, which was in all the melancholy beauty of autumn, the little brook brawling and bickering  in fine style over its falls and currents.    "},{"title":"The journal of Sir Walter Scott,","author":"Scott, Walter","year":"1891-01-01","url":"http:\/\/babel.hathitrust.org\/cgi\/pt?id=loc.ark:\/13960\/t6rz05s28","placename":"Huntly Burn","snippet":"At one Anne drove me to Huntly Burn, and I examined the earthen fence intended for the new planting, and altered the line in some points.    "},{"title":"The journal of Sir Walter Scott,","author":"Scott, Walter","year":"1891-01-01","url":"http:\/\/babel.hathitrust.org\/cgi\/pt?id=loc.ark:\/13960\/t6rz05s28","placename":"Huntly Burn","snippet":"\u2014 Breakfasted at Huntly Burn with the merry knight, Sir Adam Ferguson.    "},{"title":"The journal of Sir Walter Scott,","author":"Scott, Walter","year":"1891-01-01","url":"http:\/\/babel.hathitrust.org\/cgi\/pt?id=loc.ark:\/13960\/t6rz05s28","placename":"Huntly Burn","snippet":"\u2014 Worked in the morning; then drove over to Huntly Burn, chiefly to get from the good-humoured Colonel the accurate  spelling of certain Hindu words which I have been using under  his instructions.    "},{"title":"The journal of Sir Walter Scott,","author":"Scott, Walter","year":"1891-01-01","url":"http:\/\/babel.hathitrust.org\/cgi\/pt?id=loc.ark:\/13960\/t6rz05s28","placename":"Huntly Burn","snippet":"Walked from Huntly Burn, having gone in the carriage.    "},{"title":"The journal of Sir Walter Scott,","author":"Scott, Walter","year":"1891-01-01","url":"http:\/\/babel.hathitrust.org\/cgi\/pt?id=loc.ark:\/13960\/t6rz05s28","placename":"Huntly Burn","snippet":"\u2014 Went to Huntly Burn and breakfasted with Colonel  Ferguson, who has promised to have some Indian memoranda ready for me.    "},{"title":"The journal of Sir Walter Scott,","author":"Scott, Walter","year":"1891-01-01","url":"http:\/\/babel.hathitrust.org\/cgi\/pt?id=loc.ark:\/13960\/t6rz05s28","placename":"Huntly Burn","snippet":"I finished four pages, and part of a fifth, then drove to Huntly Burn and returned through the Glen ; I certainly turn heavy-footed^ not in the female sense, however.    "},{"title":"The journal of Sir Walter Scott,","author":"Scott, Walter","year":"1891-01-01","url":"http:\/\/babel.hathitrust.org\/cgi\/pt?id=loc.ark:\/13960\/t6rz05s28","placename":"Huntly Burn","snippet":"Sent five or six pages to James Ballantyne, i.e. got them ready, and wrote till the afternoon, then I drove over to Huntly Burn, and walked through the glens till dinner-time.    "},{"title":"The journal of Sir Walter Scott,","author":"Scott, Walter","year":"1891-01-01","url":"http:\/\/babel.hathitrust.org\/cgi\/pt?id=loc.ark:\/13960\/t6rz05s28","placename":"Huntly Burn","snippet":"Went over to Huntly Burn at two o'clock, and reconnoitred  the proposed plantation to be called Jane's Wood.    "},{"title":"The journal of Sir Walter Scott,","author":"Scott, Walter","year":"1891-01-01","url":"http:\/\/babel.hathitrust.org\/cgi\/pt?id=loc.ark:\/13960\/t6rz05s28","placename":"Huntly Burn","snippet":"\u2014 We went to breakfast at Huntly Burn, and I wandered all the morning in the woods to avoid an English party who came to see the house.    "},{"title":"The journal of Sir Walter Scott,","author":"Scott, Walter","year":"1891-01-01","url":"http:\/\/babel.hathitrust.org\/cgi\/pt?id=loc.ark:\/13960\/t6rz05s28","placename":"Huntly Burn","snippet":"\u2014 Wrote till twelve o'clock, then sallied forth, and walked to Huntly Burn with Tom ; and so, look you, sir, I drove    "},{"title":"The journal of Sir Walter Scott,","author":"Scott, Walter","year":"1891-01-01","url":"http:\/\/babel.hathitrust.org\/cgi\/pt?id=loc.ark:\/13960\/t6rz05s28","placename":"Huntly Burn","snippet":"I showed him the plantations, going first round the terrace, then to the lake, then came down by the Rhymer' s Glen, and took carriage at Huntly Burn, almost the grand tour, only we did not walk from Huntly Burn.    "},{"title":"The journal of Sir Walter Scott,","author":"Scott, Walter","year":"1891-01-01","url":"http:\/\/babel.hathitrust.org\/cgi\/pt?id=loc.ark:\/13960\/t6rz05s28","placename":"Huntly Burn","snippet":"I showed him the plantations, going first round the terrace, then to the lake, then came down by the Rhymer' s Glen, and took carriage at Huntly Burn, almost the grand tour, only we did not walk from Huntly Burn.    "},{"title":"The journal of Sir Walter Scott,","author":"Scott, Walter","year":"1891-01-01","url":"http:\/\/babel.hathitrust.org\/cgi\/pt?id=loc.ark:\/13960\/t6rz05s28","placename":"Huntly Burn","snippet":"\u2014 Hard work still, but went to Huntly Burn on foot, and returned in the carriage.    "},{"title":"The journal of Sir Walter Scott,","author":"Scott, Walter","year":"1891-01-01","url":"http:\/\/babel.hathitrust.org\/cgi\/pt?id=loc.ark:\/13960\/t6rz05s28","placename":"Huntly Burn","snippet":"I went with all our family to-day to dine as usual at the kind house of Huntly Burn ; but the same cloud which hung over us on Saturday still had its influence.    "},{"title":"The journal of Sir Walter Scott,","author":"Scott, Walter","year":"1891-01-01","url":"http:\/\/babel.hathitrust.org\/cgi\/pt?id=loc.ark:\/13960\/t6rz05s28","placename":"Huntly Burn","snippet":"Dined at Chiefswood with Captain and Mrs. Hamilton, Lady Lucy Whitmore, their guest, and neighbours from Gattonside and Huntly Burn.    "},{"title":"The journal of Sir Walter Scott,","author":"Scott, Walter","year":"1891-01-01","url":"http:\/\/babel.hathitrust.org\/cgi\/pt?id=loc.ark:\/13960\/t6rz05s28","placename":"Huntly Burn","snippet":"We dined at Huntly Burn.    "},{"title":"The journal of Sir Walter Scott,","author":"Scott, Walter","year":"1891-01-01","url":"http:\/\/babel.hathitrust.org\/cgi\/pt?id=loc.ark:\/13960\/t6rz05s28","placename":"Huntly Burn","snippet":"Went doAvn to Huntly Burn, and dawdled about while waiting for the carriage to bring me back.    "},{"title":"The journal of Sir Walter Scott,","author":"Scott, Walter","year":"1891-01-01","url":"http:\/\/babel.hathitrust.org\/cgi\/pt?id=loc.ark:\/13960\/t6rz05s28","placename":"Huntly Burn","snippet":"Walked to\u00bb Huntly Burn, where I found a certain lady on a visit \u2014 so youthy, so' beautiful, so strong in voice \u2014 with sense and learning \u2014 above all, so fond of good conversation, that, in compassion to my eyes, ears, and understanding, I bolted in the middle of a tremendous shower of rain, and rather chose to be wet to the skin than to be bethumped with words at that rate.    "},{"title":"The journal of Sir Walter Scott,","author":"Scott, Walter","year":"1891-01-01","url":"http:\/\/babel.hathitrust.org\/cgi\/pt?id=loc.ark:\/13960\/t6rz05s28","placename":"Huntly Burn","snippet":"In the evening we drove to Huntly Burn, and took tea there.    "},{"title":"The journal of Sir Walter Scott,","author":"Scott, Walter","year":"1891-01-01","url":"http:\/\/babel.hathitrust.org\/cgi\/pt?id=loc.ark:\/13960\/t6rz05s28","placename":"Huntly Burn","snippet":"Then drove to Huntly Burn and called at Chiefswood.    "},{"title":"The journal of Sir Walter Scott,","author":"Scott, Walter","year":"1891-01-01","url":"http:\/\/babel.hathitrust.org\/cgi\/pt?id=loc.ark:\/13960\/t6rz05s28","placename":"Huntly Burn","snippet":"I never learned grammar ; and not only Sir Hugh Evans but even Mrs. Quickly might puzzle me about Giney's case and horum harum horum.^ I believe the Bailiff in The Good- natured Man is not far wrong when he says, \" One man has one way of expressing himself, and another another, and that is all the difference between them.\"^ Went to Huntly Burn to-day and looked at the Colonel's projected approach.    "},{"title":"The journal of Sir Walter Scott,","author":"Scott, Walter","year":"1891-01-01","url":"http:\/\/babel.hathitrust.org\/cgi\/pt?id=loc.ark:\/13960\/t6rz05s28","placename":"Huntly Burn","snippet":"Went at one to Huntly Burn, where I had the great pleasure to hear, through a letter from Sir Adam, that Sophia was in' health, and Johnnie gaining strength.    "},{"title":"The journal of Sir Walter Scott,","author":"Scott, Walter","year":"1891-01-01","url":"http:\/\/babel.hathitrust.org\/cgi\/pt?id=loc.ark:\/13960\/t6rz05s28","placename":"Huntly Burn","snippet":"At that hour to-day I drove to Huntly Burn, and walked home by one of the hundred and one pleasing paths which I have made through the woods I have planted \u2014 now chatting with Tom Purdie, who carries my plaid, and speaks when he pleases, telling  long stories of hits and misses in shooting twenty years back \u2014 sometimes chewing the cud of sweet and bitter fancy \u2014 and sometimes attending to the humours of two curious little terriers of the Dandie Dinmont breed, together with a noble wolf-hound puppy which Glengarry  has given me to replace Maida.    "},{"title":"The journal of Sir Walter Scott,","author":"Scott, Walter","year":"1891-01-01","url":"http:\/\/babel.hathitrust.org\/cgi\/pt?id=loc.ark:\/13960\/t6rz05s28","placename":"Huntly Burn","snippet":"(on which Scott at the ladies' request bestowed p. 322. the name of Huntly Burn) from the spring of    "},{"title":"The journal of Sir Walter Scott,","author":"Scott, Walter","year":"1891-01-01","url":"http:\/\/babel.hathitrust.org\/cgi\/pt?id=loc.ark:\/13960\/t6rz05s28","placename":"Huntly Burn","snippet":"I wrote in the morning at Woodstock ; walked from one till four ; was down at Huntly Burn and paid my respects to the ladies.    "},{"title":"The journal of Sir Walter Scott,","author":"Scott, Walter","year":"1891-01-01","url":"http:\/\/babel.hathitrust.org\/cgi\/pt?id=loc.ark:\/13960\/t6rz05s28","placename":"Huntly Burn","snippet":"Called at Huntly Burn, and shook hands with Sir Adam and his Lady just going off.    "},{"title":"The journal of Sir Walter Scott,","author":"Scott, Walter","year":"1890-01-01","url":"http:\/\/babel.hathitrust.org\/cgi\/pt?id=uc2.ark:\/13960\/t2q52hk62","placename":"Huntly Burn","snippet":"We went to breakfast at Huntly Burn, and I wandered all the morning in the woods to avoid an English party who came to see the house.    "},{"title":"The journal of Sir Walter Scott,","author":"Scott, Walter","year":"1890-01-01","url":"http:\/\/babel.hathitrust.org\/cgi\/pt?id=uc2.ark:\/13960\/t2q52hk62","placename":"Huntly Burn","snippet":"Wrote till twelve o'clock, then sallied forth, and walked to Huntly Burn with Tom ; and so, look you, sir, I drove home in the carriage.    "},{"title":"The journal of Sir Walter Scott,","author":"Scott, Walter","year":"1890-01-01","url":"http:\/\/babel.hathitrust.org\/cgi\/pt?id=uc2.ark:\/13960\/t2q52hk62","placename":"Huntly Burn","snippet":"We came back by Huntly Burn, where the carriage broke down, and gave us a pretty long walk home.    "},{"title":"The journal of Sir Walter Scott,","author":"Scott, Walter","year":"1890-01-01","url":"http:\/\/babel.hathitrust.org\/cgi\/pt?id=uc2.ark:\/13960\/t2q52hk62","placename":"Huntly Burn","snippet":"I showed him the plantations, going first round the terrace, then to the lake, then came down by the Rhymer's Glen, and took carriage at Huntly Burn, almost the grand tour, only we did not walk from Huntly Burn.    "},{"title":"The journal of Sir Walter Scott,","author":"Scott, Walter","year":"1890-01-01","url":"http:\/\/babel.hathitrust.org\/cgi\/pt?id=uc2.ark:\/13960\/t2q52hk62","placename":"Huntly Burn","snippet":"I showed him the plantations, going first round the terrace, then to the lake, then came down by the Rhymer's Glen, and took carriage at Huntly Burn, almost the grand tour, only we did not walk from Huntly Burn.    "},{"title":"The journal of Sir Walter Scott,","author":"Scott, Walter","year":"1890-01-01","url":"http:\/\/babel.hathitrust.org\/cgi\/pt?id=uc2.ark:\/13960\/t2q52hk62","placename":"Huntly Burn","snippet":"Hard work still, but went to Huntly Burn on foot, and returned in the carriage.    "},{"title":"The journal of Sir Walter Scott,","author":"Scott, Walter","year":"1890-01-01","url":"http:\/\/babel.hathitrust.org\/cgi\/pt?id=uc2.ark:\/13960\/t2q52hk62","placename":"Huntly Burn","snippet":"I drove over to Huntly Burn with Anne, then walked through the plantations, with Tom's help to pull me through the snow-wreaths.    "},{"title":"The journal of Sir Walter Scott,","author":"Scott, Walter","year":"1890-01-01","url":"http:\/\/babel.hathitrust.org\/cgi\/pt?id=uc2.ark:\/13960\/t2q52hk62","placename":"Huntly Burn","snippet":"I went with all our family to-day to dine as usual at the kind house of Huntly Burn ; but the same cloud which hung over us on Saturday still had its influence.    "},{"title":"The journal of Sir Walter Scott,","author":"Scott, Walter","year":"1890-01-01","url":"http:\/\/babel.hathitrust.org\/cgi\/pt?id=uc2.ark:\/13960\/t2q52hk62","placename":"Huntly Burn","snippet":"Dined at Chiefswood with Captain and Mrs. Hamilton, Lady Lucy Whitmore, their guest, and neighbours from Gattonside and Huntly Burn.    "},{"title":"The journal of Sir Walter Scott,","author":"Scott, Walter","year":"1890-01-01","url":"http:\/\/babel.hathitrust.org\/cgi\/pt?id=uc2.ark:\/13960\/t2q52hk62","placename":"Huntly Burn","snippet":"We dined at Huntly Burn.    "},{"title":"The journal of Sir Walter Scott,","author":"Scott, Walter","year":"1890-01-01","url":"http:\/\/babel.hathitrust.org\/cgi\/pt?id=uc2.ark:\/13960\/t2q52hk62","placename":"Huntly Burn","snippet":"Went down to Huntly Burn, and dawdled about while waiting for the carriage to bring me back.    "},{"title":"The journal of Sir Walter Scott,","author":"Scott, Walter","year":"1890-01-01","url":"http:\/\/babel.hathitrust.org\/cgi\/pt?id=uc2.ark:\/13960\/t2q52hk62","placename":"Huntly Burn","snippet":"Walked to Huntly Burn, where I found a certain lady on a visit so youthy, so beautiful, so strong in voice with sense and learning above all, so fond of good conversation, that, in compassion to my eyes, ears, and understanding, I bolted in the middle of a tremendous shower of rain, and rather chose to be wet to the skin than to be bethumped with words at that rate.    "},{"title":"The journal of Sir Walter Scott,","author":"Scott, Walter","year":"1890-01-01","url":"http:\/\/babel.hathitrust.org\/cgi\/pt?id=uc2.ark:\/13960\/t2q52hk62","placename":"Huntly Burn","snippet":"In the evening we drove to Huntly Burn, and took tea there.    "},{"title":"The journal of Sir Walter Scott,","author":"Scott, Walter","year":"1890-01-01","url":"http:\/\/babel.hathitrust.org\/cgi\/pt?id=uc2.ark:\/13960\/t2q52hk62","placename":"Huntly Burn","snippet":"Then drove to Huntly Burn and called at Chiefswood.    "},{"title":"The journal of Sir Walter Scott,","author":"Scott, Walter","year":"1890-01-01","url":"http:\/\/babel.hathitrust.org\/cgi\/pt?id=uc2.ark:\/13960\/t2q52hk62","placename":"Huntly Burn","snippet":"2 Went to Huntly Burn to-day and looked at the Colonel's projected approach.    "},{"title":"The journal of Sir Walter Scott,","author":"Scott, Walter","year":"1890-01-01","url":"http:\/\/babel.hathitrust.org\/cgi\/pt?id=uc2.ark:\/13960\/t2q52hk62","placename":"Huntly Burn","snippet":"Went at one to Huntly Burn, where I had the great pleasure to hear, through a letter from Sir Adam, that Sophia was in health, and Johnnie gaining strength.    "},{"title":"The journal of Sir Walter Scott,","author":"Scott, Walter","year":"1890-01-01","url":"http:\/\/babel.hathitrust.org\/cgi\/pt?id=uc2.ark:\/13960\/t2q52hk62","placename":"Huntly Burn","snippet":"At that hour to-day I drove to Huntly Burn, and walked home by one of the hundred and one pleasing paths which I have made through the woods I have planted now chatting with Tom Purdie, who carries my plaid, and speaks when he pleases, telling long stories of hits and misses in shooting twenty years back sometimes chewing the cud of sweet and bitter fancy and sometimes attending to the humours of two curious little terriers of the Dandie Dinmont breed, together with a noble wolf-hound puppy which Glengarry has given me to replace Maida.    "},{"title":"The journal of Sir Walter Scott,","author":"Scott, Walter","year":"1890-01-01","url":"http:\/\/babel.hathitrust.org\/cgi\/pt?id=uc2.ark:\/13960\/t2q52hk62","placename":"Huntly Burn","snippet":"of Huntly Burn) from the spring Hour of all Men, Quevedo's Works,    "},{"title":"The journal of Sir Walter Scott,","author":"Scott, Walter","year":"1890-01-01","url":"http:\/\/babel.hathitrust.org\/cgi\/pt?id=uc2.ark:\/13960\/t2q52hk62","placename":"Huntly Burn","snippet":"I wrote in the morning at Woodstock  ; walked from one till four ; was down at Huntly Burn and paid my respects to the ladies.    "},{"title":"The journal of Sir Walter Scott,","author":"Scott, Walter","year":"1890-01-01","url":"http:\/\/babel.hathitrust.org\/cgi\/pt?id=uc2.ark:\/13960\/t2q52hk62","placename":"Huntly Burn","snippet":"Called at Huntly Burn, and shook hands with Sir Adam and his Lady just going off.    "},{"title":"The journal of Sir Walter Scott,","author":"Scott, Walter","year":"1890-01-01","url":"http:\/\/babel.hathitrust.org\/cgi\/pt?id=uc2.ark:\/13960\/t2q52hk62","placename":"Huntly Burn","snippet":"Dined at Huntly Burn with the Fergusons en niasse.    "},{"title":"The Prose Works of Sir Walter Scott. (Supplementary volume: containing notes, historical and illustrative, by the author, glossary, etc.)","author":"Scott, Walter","year":null,"url":"https:\/\/historicaltexts.jisc.ac.uk\/bl-003316901-07","placename":"Huntly Burn","snippet":"one morning atbreakfast, by his worthy friend Mr. Train, of CastleDouglas, in Galloway, whose kind assistance he hasso often had occasion to acknowledge iu the courseof these prefaces ; and that the military friend whois alluded to, as having furnished him with some information as to Eastern matters, was Colonel JamesFerguson of Huntly Burn, one of the sons of thevenerable historian and philosopher of that name\u2014which name he took the liberty of concealing underits Gaelic form of MaoErries.    "}]