[{"title":"The Journal of Sir Walter Scott; From the Original Manuscript at Abbotsford","author":"Scott, Walter","year":null,"url":"http:\/\/www.gutenberg.org\/ebooks\/14860","placename":"Bauchland","snippet":"Bauchland, ii.    "},{"title":"The Journal of Sir Walter Scott; From the Original Manuscript at Abbotsford","author":"Scott, Walter","year":null,"url":"http:\/\/www.gutenberg.org\/ebooks\/14860","placename":"Bauchland","snippet":"Walked over to the head of the Roman road, coming round byBauchland and the Abbot's Walk.    "},{"title":"The Journal of Sir Walter Scott; From the Original Manuscript at Abbotsford","author":"Scott, Walter","year":null,"url":"http:\/\/www.gutenberg.org\/ebooks\/14860","placename":"Bauchland","snippet":"Bauchland, ii.    "},{"title":"The Journal of Sir Walter Scott; From the Original Manuscript at Abbotsford","author":"Scott, Walter","year":null,"url":"http:\/\/www.gutenberg.org\/ebooks\/14860","placename":"Bauchland","snippet":"Walked over to the head of the Roman road, coming round byBauchland and the Abbot's Walk.    "},{"title":"The Journal of Sir Walter Scott; From the Original Manuscript at Abbotsford","author":"Scott, Walter","year":null,"url":"http:\/\/www.gutenberg.org\/ebooks\/14860","placename":"Bauchland","snippet":"Bauchland, ii.    "},{"title":"The Journal of Sir Walter Scott; From the Original Manuscript at Abbotsford","author":"Scott, Walter","year":null,"url":"http:\/\/www.gutenberg.org\/ebooks\/14860","placename":"Bauchland","snippet":"Walked over to the head of the Roman road, coming round byBauchland and the Abbot's Walk.    "},{"title":"The journal of Sir Walter Scott,","author":"Scott, Walter","year":"1890-01-01","url":"http:\/\/babel.hathitrust.org\/cgi\/pt?id=uc2.ark:\/13960\/t9h41n97z","placename":"Bauchland","snippet":"\"Walked over to the head of the Koman road, coming round by Bauchland  and the Abbot's Walk.    "},{"title":"The journal of Sir Walter Scott,","author":"Scott, Walter","year":"1891-01-01","url":"http:\/\/babel.hathitrust.org\/cgi\/pt?id=uc2.ark:\/13960\/t7jq0vz0t","placename":"Bauchland","snippet":"ing round by Bauchland and the Abbot's Walk.    "}]