[{"title":"The Journal of Sir Walter Scott; From the Original Manuscript at Abbotsford","author":"Scott, Walter","year":null,"url":"http:\/\/www.gutenberg.org\/ebooks\/14860","placename":"Murthly","snippet":"Sir J., of Murthly, ii.    "},{"title":"The Journal of Sir Walter Scott; From the Original Manuscript at Abbotsford","author":"Scott, Walter","year":null,"url":"http:\/\/www.gutenberg.org\/ebooks\/14860","placename":"Murthly","snippet":"Sir J., of Murthly, ii.    "},{"title":"The Journal of Sir Walter Scott; From the Original Manuscript at Abbotsford","author":"Scott, Walter","year":null,"url":"http:\/\/www.gutenberg.org\/ebooks\/14860","placename":"Murthly","snippet":"Sir J., of Murthly, ii.    "},{"title":"Leaves from the journal of our life in the Highlands, from 1848 to 1861 :","author":"Victoria","year":"1868-01-01","url":"http:\/\/babel.hathitrust.org\/cgi\/pt?id=yale.39002001723692","placename":"Murthly","snippet":"Murthly, to the right, which belongs to Sir W.st_  _  $    "},{"title":"Black's picturesque tourist of Scotland.","author":null,"year":"1857-01-01","url":"http:\/\/babel.hathitrust.org\/cgi\/pt?id=uc2.ark:\/13960\/t9862nx30","placename":"Murthly","snippet":"The beautiful grounds of Murthly, on the south side of the river Tay, about six miles east of Little Dunkeld, are open to all comers, and Sir William Stewart, the proprietor, is doing so much for their improvement and amenity, that it is not improbable the old rhyme may yet be verified, and    "},{"title":"Black's picturesque tourist of Scotland.","author":null,"year":"1857-01-01","url":"http:\/\/babel.hathitrust.org\/cgi\/pt?id=uc2.ark:\/13960\/t9862nx30","placename":"Murthly","snippet":"of Murthly ; Summits of Birnam ; Craigvinean ; Newtyle ; Craig-y-Barns ;    "},{"title":"Sheila \/","author":"Swan, Annie S.","year":null,"url":"http:\/\/babel.hathitrust.org\/cgi\/pt?id=uc2.ark:\/13960\/t28913f68","placename":"Murthly","snippet":"He will be sent to Murthly, and will be very kindly and carefully dealt with there, I assure you.    "},{"title":"Sheila \/","author":"Swan, Annie S.","year":null,"url":"http:\/\/babel.hathitrust.org\/cgi\/pt?id=uc2.ark:\/13960\/t28913f68","placename":"Murthly","snippet":"The trial would be a mere form, for nothing could be proved; and it was probable that, after the examination, he would be removed to the asylum at Murthly.    "},{"title":"Sheila \/","author":"Swan, Annie S.","year":null,"url":"http:\/\/babel.hathitrust.org\/cgi\/pt?id=uc2.ark:\/13960\/t28913f68","placename":"Murthly","snippet":"I fear he'll need to go to Murthly at the end.    "},{"title":"Sheila \/","author":"Swan, Annie S.","year":null,"url":"http:\/\/babel.hathitrust.org\/cgi\/pt?id=uc2.ark:\/13960\/t28913f68","placename":"Murthly","snippet":"The impulse was on Angus M'Bean to speak slightingly of Malcolm, and to say that Murthly was the place for him, but he would not hurt Katie if he could help it, so he held his peace.    "},{"title":"Sheila \/","author":"Swan, Annie S.","year":null,"url":"http:\/\/babel.hathitrust.org\/cgi\/pt?id=uc2.ark:\/13960\/t28913f68","placename":"Murthly","snippet":"' You'd find yourself in Perth Penitentiary, or maybe in Murthly Asylum, if you tried anything of the kind ; but maybe there are worse places than Murthly for the like of you,' said Angus, with a cruel, sneering smile.    "},{"title":"Sheila \/","author":"Swan, Annie S.","year":null,"url":"http:\/\/babel.hathitrust.org\/cgi\/pt?id=uc2.ark:\/13960\/t28913f68","placename":"Murthly","snippet":"He should be down at Murthly.    "},{"title":"Lady Jean's Son. A novel","author":"Tytler, Sarah","year":"1897-01-01","url":"https:\/\/historicaltexts.jisc.ac.uk\/bl-003700282","placename":"Murthly","snippet":"As for John Douglas's elder brother, Charles,who would succeed to Murthly, he had beenbrought up by his mother's kindred.    "},{"title":"Lady Jean's Son. A novel","author":"Tytler, Sarah","year":"1897-01-01","url":"https:\/\/historicaltexts.jisc.ac.uk\/bl-003700282","placename":"Murthly","snippet":"First it was to Euphie Montgomerie's,then to Douglas Castle, then to Lady Schaw's, andthen to Murthly, when Sir John came into hisbrother's estate, and so was able to claim his boy.    "},{"title":"Lady Jean's Son. A novel","author":"Tytler, Sarah","year":"1897-01-01","url":"https:\/\/historicaltexts.jisc.ac.uk\/bl-003700282","placename":"Murthly","snippet":"\" How can youand your sister Jenny lend an ear to them ? Mr.John Douglas is the son of Sir John Drummondof Murthly, and of Lady Jean his wife, amongthe first quality in the kingdom.    "},{"title":"Lady Jean's Son. A novel","author":"Tytler, Sarah","year":"1897-01-01","url":"https:\/\/historicaltexts.jisc.ac.uk\/bl-003700282","placename":"Murthly","snippet":"As itwas, the debtor's prison ceased to hold Sir Johnwhen he succeeded to his brother's baronetcy andestates of Murthly.    "},{"title":"Lady Jean's Son. A novel","author":"Tytler, Sarah","year":"1897-01-01","url":"https:\/\/historicaltexts.jisc.ac.uk\/bl-003700282","placename":"Murthly","snippet":"He whom he called father has succeeded to hisbrother's place of Murthly, and so has been savedfrom dying a dyvour's death.    "}]