[{"title":"Tombstoning","author":"Johnstone, Doug","year":null,"url":null,"placename":"Auchmithie","snippet":"The nearest people were in Auchmithie, and that was at least fifteen minutes of running across muddy fields.    "},{"title":"Tombstoning","author":"Johnstone, Doug","year":null,"url":null,"placename":"Auchmithie","snippet":"There, she'd borrowed her folks' beaten-up old Volvo estate, the car she was currently negotiating along the road to Auchmithie, to try and find out what the hell had happened to him.    "},{"title":"Tombstoning","author":"Johnstone, Doug","year":null,"url":null,"placename":"Auchmithie","snippet":"This was completely hidden from Auchmithie, and he didn't remember seeing it from the sea when they'd been on the boat trip, but he must've done because it was completely exposed to the sea.    "},{"title":"Tombstoning","author":"Johnstone, Doug","year":null,"url":null,"placename":"Auchmithie","snippet":"He looked in the opposite direction from Auchmithie and thought he could just about make out another bay, cutting its crescent shape into the land beyond Meg's Craig.    "},{"title":"Tombstoning","author":"Johnstone, Doug","year":null,"url":null,"placename":"Auchmithie","snippet":"'If Edith doesn't know him, then he's not from Auchmithie, that's for sure,' said the old man at the bar.    "},{"title":"Tombstoning","author":"Johnstone, Doug","year":null,"url":null,"placename":"Auchmithie","snippet":"If there was no hotel and no bar in Auchmithie any more, this was going to have to be where David started asking around.    "},{"title":"Tombstoning","author":"Johnstone, Doug","year":null,"url":null,"placename":"Auchmithie","snippet":"It was seven o'clock as David turned off the Arbroath back road for the last couple of miles to Auchmithie.    "},{"title":"Tombstoning","author":"Johnstone, Doug","year":null,"url":null,"placename":"Auchmithie","snippet":"Auchmithie    "},{"title":"Tombstoning","author":"Johnstone, Doug","year":null,"url":null,"placename":"Auchmithie","snippet":"I'll stay in the Fairport, but I'll probably go straight to Auchmithie in the early evening, see what I can find out, and then go back on Saturday.'    "},{"title":"Tombstoning","author":"Johnstone, Doug","year":null,"url":null,"placename":"Auchmithie","snippet":"Anyway, you have fun in Auchmithie.    "},{"title":"Tombstoning","author":"Johnstone, Doug","year":null,"url":null,"placename":"Auchmithie","snippet":"'Now that we've got the awkward serious relationship stuff out the way, how about we joke some more about your daft idea of going to Auchmithie?'    "},{"title":"Tombstoning","author":"Johnstone, Doug","year":null,"url":null,"placename":"Auchmithie","snippet":"'And yet he was seen two years ago in Auchmithie.'    "},{"title":"Tombstoning","author":"Johnstone, Doug","year":null,"url":null,"placename":"Auchmithie","snippet":"I'm going to Auchmithie.'    "},{"title":"Tombstoning","author":"Johnstone, Doug","year":null,"url":null,"placename":"Auchmithie","snippet":"Neil had last been spotted in Auchmithie two years ago, so he would go there and ask.    "},{"title":"Tombstoning","author":"Johnstone, Doug","year":null,"url":null,"placename":"Auchmithie","snippet":"Except Nicola's dad said he had turned up in Auchmithie only a couple of years ago.    "},{"title":"Tombstoning","author":"Johnstone, Doug","year":null,"url":null,"placename":"Auchmithie","snippet":"He tried the free ones first, directory inquiries and the like, but there were no Cargills listed for Auchmithie.    "},{"title":"Tombstoning","author":"Johnstone, Doug","year":null,"url":null,"placename":"Auchmithie","snippet":"Was Neil still in Auchmithie?    "},{"title":"Tombstoning","author":"Johnstone, Doug","year":null,"url":null,"placename":"Auchmithie","snippet":"We were talking about how hard it must've been for him to lose his parents, after what had happened to his brother and all, and I was telling Nicola that he just turned up one day in Auchmithie, started fishing for lobsters.'    "},{"title":"Tombstoning","author":"Johnstone, Doug","year":null,"url":null,"placename":"Auchmithie","snippet":"He thought of Neil again, and how someone had said that perhaps he lived out in Auchmithie.    "},{"title":"Tombstoning","author":"Johnstone, Doug","year":null,"url":null,"placename":"Auchmithie","snippet":"'Although Arbroath is thought of as the home of the smokie, in fact the world-famous delicacy originated here in Auchmithie.    "},{"title":"Tombstoning","author":"Johnstone, Doug","year":null,"url":null,"placename":"Auchmithie","snippet":"'And here we have the fishing village of Auchmithie,' the captain was saying.    "},{"title":"Tombstoning","author":"Johnstone, Doug","year":null,"url":null,"placename":"Auchmithie","snippet":"They had been press-ganged into doing a sponsored walk once at school, and had walked the few miles out to Auchmithie and back, but they hadn't used the cliff path \u2013 presumably because the kids couldn't be trusted not to fall in the sea \u2013 instead tramping along the inland road from town.    "},{"title":"Tombstoning","author":"Johnstone, Doug","year":null,"url":null,"placename":"Auchmithie","snippet":"Behind them a thin road snaked up between cliffs to the village of Auchmithie, little more than a cottage-lined street running along the headland and petering out in an overgrown field.    "},{"title":"Tombstoning","author":"Johnstone, Doug","year":null,"url":null,"placename":"Auchmithie","snippet":"Round the headland and they were confronted with the harbour of Auchmithie, little more than a ramshackle stone wall covered with seaweed and algae and crumbling into the sea, with a huddle of small boats lurking behind it.    "}]