[{"title":"The Heather-Moon","author":"Williamson, C. N. (Charles Norris)","year":null,"url":"http:\/\/www.gutenberg.org\/ebooks\/19742","placename":"Arbroath","snippet":"But just think, Arbroath is Sir Walter Scott's     'Fairport,' and I must read \"The Antiquarian\" again, all about the     caves and the secret treasure found in them.    "},{"title":"The Heather-Moon","author":"Williamson, C. N. (Charles Norris)","year":null,"url":"http:\/\/www.gutenberg.org\/ebooks\/19742","placename":"Arbroath","snippet":"We stopped at Arbroath, which Doctor Johnson admired, to see the     great shell of an Abbey, red as dried blood; and all the old town     is built out of it, so no wonder there isn't much left but an     immense nave.    "},{"title":"The Heather-Moon","author":"Williamson, C. N. (Charles Norris)","year":null,"url":"http:\/\/www.gutenberg.org\/ebooks\/19742","placename":"Arbroath","snippet":"But just think, Arbroath is Sir Walter Scott's     'Fairport,' and I must read \"The Antiquarian\" again, all about the     caves and the secret treasure found in them.    "},{"title":"The Heather-Moon","author":"Williamson, C. N. (Charles Norris)","year":null,"url":"http:\/\/www.gutenberg.org\/ebooks\/19742","placename":"Arbroath","snippet":"We stopped at Arbroath, which Doctor Johnson admired, to see the     great shell of an Abbey, red as dried blood; and all the old town     is built out of it, so no wonder there isn't much left but an     immense nave.    "},{"title":"Heads and Tales : or, Anecdotes and Stories of Quadrupeds and Other Beasts, Chiefly Connected with Incidents in the Histories of More or Less Distinguished Men.","author":"Various","year":null,"url":"http:\/\/www.gutenberg.org\/ebooks\/25918","placename":"Arbroath","snippet":"Mr Jervise[216] recordsthat \"one horse, the property of James Craw, a labourer in Arbroath, isbelieved to have drawn the entire materials of the building.    "},{"title":"Heads and Tales : or, Anecdotes and Stories of Quadrupeds and Other Beasts, Chiefly Connected with Incidents in the Histories of More or Less Distinguished Men.","author":"Various","year":null,"url":"http:\/\/www.gutenberg.org\/ebooks\/25918","placename":"Arbroath","snippet":"The Bell-Rock Lighthouse, built on a dangerous range of rocks twelvemiles south by east from Arbroath, was begun by Robert Stevenson on the17th August 1807, and finished in October 1810.    "},{"title":"Heads and Tales : or, Anecdotes and Stories of Quadrupeds and Other Beasts, Chiefly Connected with Incidents in the Histories of More or Less Distinguished Men.","author":"Various","year":null,"url":"http:\/\/www.gutenberg.org\/ebooks\/25918","placename":"Arbroath","snippet":"Mr Jervise[216] recordsthat \"one horse, the property of James Craw, a labourer in Arbroath, isbelieved to have drawn the entire materials of the building.    "},{"title":"Heads and Tales : or, Anecdotes and Stories of Quadrupeds and Other Beasts, Chiefly Connected with Incidents in the Histories of More or Less Distinguished Men.","author":"Various","year":null,"url":"http:\/\/www.gutenberg.org\/ebooks\/25918","placename":"Arbroath","snippet":"The Bell-Rock Lighthouse, built on a dangerous range of rocks twelvemiles south by east from Arbroath, was begun by Robert Stevenson on the17th August 1807, and finished in October 1810.    "},{"title":"The Works of Robert Louis Stevenson - Swanston Edition, Vol. 25","author":"Stevenson, Robert Louis","year":null,"url":"http:\/\/www.gutenberg.org\/ebooks\/30714","placename":"Arbroath","snippet":"Arbroath, Abbot of, xxiii.    "},{"title":"The Works of Robert Louis Stevenson - Swanston Edition, Vol. 25","author":"Stevenson, Robert Louis","year":null,"url":"http:\/\/www.gutenberg.org\/ebooks\/30714","placename":"Arbroath","snippet":"Arbroath, Abbot of, xxiii.    "},{"title":"The Antiquary - Complete","author":"Scott, Walter","year":null,"url":"http:\/\/www.gutenberg.org\/ebooks\/7005","placename":"Arbroath","snippet":"* [Supposed to have been suggested by the old Abbey of Arbroath in *Forfarshire.]    "},{"title":"The Antiquary - Complete","author":"Scott, Walter","year":null,"url":"http:\/\/www.gutenberg.org\/ebooks\/7005","placename":"Arbroath","snippet":"The skilful contrasts are perhaps most remarkable when we compareElspeth of the Burnfoot with the gossiping old women in the post-officeat Fairport,--a town studied perhaps from Arbroath.    "},{"title":"The Abbot","author":"Scott, Walter","year":null,"url":"http:\/\/www.gutenberg.org\/ebooks\/6407","placename":"Arbroath","snippet":"The Queen had remained fixed to the spot, as if disabled by fear, yetmechanically smiling, bowing, and waving her hand, as banners werelowered and spears depressed before her, while, emulating the strifebetwixt Seyton and Arbroath, band on band pressed forward their marchtowards the enemy.    "},{"title":"The Abbot","author":"Scott, Walter","year":null,"url":"http:\/\/www.gutenberg.org\/ebooks\/6407","placename":"Arbroath","snippet":"The Queen had remained fixed to the spot, as if disabled by fear, yetmechanically smiling, bowing, and waving her hand, as banners werelowered and spears depressed before her, while, emulating the strifebetwixt Seyton and Arbroath, band on band pressed forward their marchtowards the enemy.    "},{"title":"From John O'Groats to Land's End; Or, 1372 miles on foot; A book of days and chronicle of adventures by two pedestrians on tour","author":"Naylor, John Anderton","year":null,"url":"http:\/\/www.gutenberg.org\/ebooks\/14415","placename":"Arbroath","snippet":"The site on which ourhotel had been built was that of the hostelage belonging to the Abbey ofArbroath in 1317, the monks granting the hostelage to William Maceon, aburgess of Peebles, on condition that he would give to them, and theirattorneys, honest lodging whenever business brought them to that town.    "},{"title":"Wilson's Tales of the Borders and of Scotland, Volume 21","author":"Alexander Leighton","year":null,"url":"http:\/\/www.gutenberg.org\/ebooks\/37336","placename":"Arbroath","snippet":"Theletters were directed to agents in Arbroath, Forfar, Kirriemuir, andMontrose, and immediately committed to a clerk to be taken to thepost-office, with a good-natured laugh on the lips of the writer--and,within the teeth, the little monologue--\"The wrinkled skin easilyconceals a scar.\"    "},{"title":"Wilson's Tales of the Borders and of Scotland, Volume 21","author":"Alexander Leighton","year":null,"url":"http:\/\/www.gutenberg.org\/ebooks\/37336","placename":"Arbroath","snippet":"\"None whatever, except that I think I saw her take to the east, in theway to Arbroath.    "},{"title":"Wilson's Tales of the Borders and of Scotland, Volume 21","author":"Alexander Leighton","year":null,"url":"http:\/\/www.gutenberg.org\/ebooks\/37336","placename":"Arbroath","snippet":"Theletters were directed to agents in Arbroath, Forfar, Kirriemuir, andMontrose, and immediately committed to a clerk to be taken to thepost-office, with a good-natured laugh on the lips of the writer--and,within the teeth, the little monologue--\"The wrinkled skin easilyconceals a scar.\"    "},{"title":"Wilson's Tales of the Borders and of Scotland, Volume 21","author":"Alexander Leighton","year":null,"url":"http:\/\/www.gutenberg.org\/ebooks\/37336","placename":"Arbroath","snippet":"\"None whatever, except that I think I saw her take to the east, in theway to Arbroath.    "},{"title":"Ringan Gilhaize, or, The Covenanters","author":"Galt, John","year":null,"url":"http:\/\/www.gutenberg.org\/ebooks\/30749","placename":"Arbroath","snippet":"Among the exiled Covenanters who returned with Argyle, and with whom Ibecame acquainted while with him, was Thomas Ardmillan, when, after myescape at the time when the Earl was taken, I fell in again with atKirkintilloch, as I was making the best of my way into the East Country,and we went together to Arbroath, where he embarked for Holland.    "},{"title":"Ringan Gilhaize, or, The Covenanters","author":"Galt, John","year":null,"url":"http:\/\/www.gutenberg.org\/ebooks\/30749","placename":"Arbroath","snippet":"Among the exiled Covenanters who returned with Argyle, and with whom Ibecame acquainted while with him, was Thomas Ardmillan, when, after myescape at the time when the Earl was taken, I fell in again with atKirkintilloch, as I was making the best of my way into the East Country,and we went together to Arbroath, where he embarked for Holland.    "},{"title":"Spare Hours","author":"Brown, John","year":null,"url":"http:\/\/www.gutenberg.org\/ebooks\/27153","placename":"Arbroath","snippet":"\"It was in the time of James the First,\" said she, \"that monarch    cam to pay a visit to the monks of Arbroath, and they brought    him to Ferryden to eat a fish dinner at the house o' ane o' my    forefathers.    "},{"title":"Spare Hours","author":"Brown, John","year":null,"url":"http:\/\/www.gutenberg.org\/ebooks\/27153","placename":"Arbroath","snippet":"\"It was in the time of James the First,\" said she, \"that monarch    cam to pay a visit to the monks of Arbroath, and they brought    him to Ferryden to eat a fish dinner at the house o' ane o' my    forefathers.    "},{"title":"The Unbearable Lightness of Scones","author":"McCall Smith, Alexander","year":null,"url":null,"placename":"Arbroath","snippet":"It's just that . . . well, those scones might go down well in Arbroath, but here in Edinburgh . . . people prefer, perhaps, a slightly lighter scone.\"    "},{"title":"The Unbearable Lightness of Scones","author":"McCall Smith, Alexander","year":null,"url":null,"placename":"Arbroath","snippet":"It's just that . . . well, those scones might go down well in Arbroath, but here in Edinburgh . . . people prefer, perhaps, a slightly lighter scone.\"    "},{"title":"The Unbearable Lightness of Scones","author":"McCall Smith, Alexander","year":null,"url":null,"placename":"Arbroath","snippet":"That, she felt, was all she was entitled to ask, and she was realistic too: there were not enough men to go round, not in Arbroath and certainly not in Edinburgh, and she knew that she was in no position to be picky.    "},{"title":"The Unbearable Lightness of Scones","author":"McCall Smith, Alexander","year":null,"url":null,"placename":"Arbroath","snippet":"That, she felt, was all she was entitled to ask, and she was realistic too: there were not enough men to go round, not in Arbroath and certainly not in Edinburgh, and she knew that she was in no position to be picky.    "},{"title":"The Unbearable Lightness of Scones","author":"McCall Smith, Alexander","year":null,"url":null,"placename":"Arbroath","snippet":"From Arbroath with Love    "},{"title":"The Unbearable Lightness of Scones","author":"McCall Smith, Alexander","year":null,"url":null,"placename":"Arbroath","snippet":"Big Lou had been brought up in Arbroath, a town noted for those typically Scottish virtues of caution, hard work and modesty.    "},{"title":"The Unbearable Lightness of Scones","author":"McCall Smith, Alexander","year":null,"url":null,"placename":"Arbroath","snippet":"From Arbroath with Love    "},{"title":"The Unbearable Lightness of Scones","author":"McCall Smith, Alexander","year":null,"url":null,"placename":"Arbroath","snippet":"Big Lou had been brought up in Arbroath, a town noted for those typically Scottish virtues of caution, hard work and modesty.    "},{"title":"The Importance of Being Seven","author":"McCall Smith, Alexander","year":null,"url":null,"placename":"Arbroath","snippet":"\"We used to say in Arbroath,\" she pronounced, \"that you can't have two women in the same kitchen.\"    "},{"title":"The Importance of Being Seven","author":"McCall Smith, Alexander","year":null,"url":null,"placename":"Arbroath","snippet":"For fifty thousand you could get a really good place in Arbroath.\"    "},{"title":"The Importance of Being Seven","author":"McCall Smith, Alexander","year":null,"url":null,"placename":"Arbroath","snippet":"She was remembering a woman in Arbroath.    "},{"title":"The Importance of Being Seven","author":"McCall Smith, Alexander","year":null,"url":null,"placename":"Arbroath","snippet":"He had not dared do with this Big Lou, of course, who was thirty-eight, or thereabout \u2013 nobody quite knew, and it was well known that people from Arbroath often looked younger than they really were.    "},{"title":"The Importance of Being Seven","author":"McCall Smith, Alexander","year":null,"url":null,"placename":"Arbroath","snippet":"The articles and photographs in these stale papers, posted down to Lou from Arbroath,    "},{"title":"The Importance of Being Seven","author":"McCall Smith, Alexander","year":null,"url":null,"placename":"Arbroath","snippet":"The News from ArbroathIn a quite different coffee bar, on the other side of town, Big Lou was preparing to receive her morning regulars \u2013 Matthew, Angus Lordie, and Angus Lordie's dog, Cyril.    "},{"title":"The Importance of Being Seven","author":"McCall Smith, Alexander","year":null,"url":null,"placename":"Arbroath","snippet":"came from Arbroath, a part of Scotland noted for its handsome people).    "},{"title":"Sunshine on Scotland Street","author":"McCall Smith, Alexander","year":null,"url":null,"placename":"Arbroath","snippet":"thousands, even millions, of people throughout the world; just as a brave and confident songstress could appeal across the globe because of her lack of cynical guile; so too could a direct-speaking woman from a farm outside Arbroath speak to receptive multitudes.    "},{"title":"Sunshine on Scotland Street","author":"McCall Smith, Alexander","year":null,"url":null,"placename":"Arbroath","snippet":"\"Born and grew up on a farm near Arbroath.    "},{"title":"Sunshine on Scotland Street","author":"McCall Smith, Alexander","year":null,"url":null,"placename":"Arbroath","snippet":"Arbroath.    "},{"title":"Sunshine on Scotland Street","author":"McCall Smith, Alexander","year":null,"url":null,"placename":"Arbroath","snippet":"\"She comes from Arbroath,\" said Matthew.    "},{"title":"Sunshine on Scotland Street","author":"McCall Smith, Alexander","year":null,"url":null,"placename":"Arbroath","snippet":"That invitation came from Alex Macphail, who farmed a farm called Mains of Mochle, just outside Arbroath, and who had now obtained a stall at the Edinburgh Farmers' Market.    "},{"title":"The Ossians","author":"Johnstone, Doug","year":null,"url":null,"placename":"Arbroath","snippet":"A lot of the boys Connor was at school with in Arbroath had ended up joining the forces, that's what happened if you had a marine base just outside town.    "},{"title":"The Ossians","author":"Johnstone, Doug","year":null,"url":null,"placename":"Arbroath","snippet":"Arbroath?    "},{"title":"The Ossians","author":"Johnstone, Doug","year":null,"url":null,"placename":"Arbroath","snippet":"I saw you having a snowball fight in Arbroath.    "},{"title":"The Ossians","author":"Johnstone, Doug","year":null,"url":null,"placename":"Arbroath","snippet":"He could recall sitting down for a meal in Arbroath, but hadn't eaten any of it.    "},{"title":"The Ossians","author":"Johnstone, Doug","year":null,"url":null,"placename":"Arbroath","snippet":"Kate wasn't happy being back in Arbroath but, unlike Connor, who seemed to rage against the whole town for whatever reasons, Kate's gripe was specifically with her mother, who always knew exactly which buttons to press.    "},{"title":"The Ossians","author":"Johnstone, Doug","year":null,"url":null,"placename":"Arbroath","snippet":"They'd met them a few times in Edinburgh, and Hannah had been up to Arbroath a couple of times.    "},{"title":"The Ossians","author":"Johnstone, Doug","year":null,"url":null,"placename":"Arbroath","snippet":"She didn't look too comfortable back in Arbroath either.    "},{"title":"The Ossians","author":"Johnstone, Doug","year":null,"url":null,"placename":"Arbroath","snippet":"The road into Arbroath was flanked by a golf course then football pitches on the right, factories and a caravan park on the left.    "},{"title":"The Ossians","author":"Johnstone, Doug","year":null,"url":null,"placename":"Arbroath","snippet":"The Ossians, 'Declaration Of Arbroath'    "},{"title":"The Ossians","author":"Johnstone, Doug","year":null,"url":null,"placename":"Arbroath","snippet":"Arbroath    "},{"title":"The Ossians","author":"Johnstone, Doug","year":null,"url":null,"placename":"Arbroath","snippet":"For Kate, after a childhood fumbling around in Arbroath with underfed boys, the affluence and self-confidence of Keith was utterly alien, as was his thoroughly toned, muscular body.    "},{"title":"The Ossians","author":"Johnstone, Doug","year":null,"url":null,"placename":"Arbroath","snippet":"They ended with 'Declaration Of Arbroath', Connor turning his overdrive way up and letting his guitar crunch and feed back the whole way through the song before throwing it against his amp in disgust.    "},{"title":"The Ossians","author":"Johnstone, Doug","year":null,"url":null,"placename":"Arbroath","snippet":"Starting with the myth of Ossian, he rattled through the life of St Andrew, the role of pi in the building of the pyramids, the music of Wilco and Sufjan Stevens, the idiocy of Kurt Cobain, the state of the Scottish football team, the Declaration of Arbroath and anything else that sprang to mind.    "},{"title":"The Ossians","author":"Johnstone, Doug","year":null,"url":null,"placename":"Arbroath","snippet":"\"Declaration Of Arbroath\" is pure punk noise, whereas \"The Sleepwalker\" is a lo-fi, psychedelic thing.    "},{"title":"The Ossians","author":"Johnstone, Doug","year":null,"url":null,"placename":"Arbroath","snippet":"He'd only ever lived in the dead-end fishing town of Arbroath and here in the capital.    "},{"title":"Bertie's Guide to Life and Mothers","author":"McCall Smith, Alexander","year":null,"url":null,"placename":"Arbroath","snippet":"A coffee bar run by a widely read but down-to-earth autodidact from Arbroath?    "},{"title":"Bertie's Guide to Life and Mothers","author":"McCall Smith, Alexander","year":null,"url":null,"placename":"Arbroath","snippet":"And she remembered how, when she was a girl back in Arbroath, a boy from a neighbouring farm, a boy called Alastair who had a thick thatch of jet black hair and whose nose always seemed to be running, had taken a splinter out of her father's collie's paw, and she had watched and noticed that the fingers that performed the deft operation had nails under which thick dirt was encrusted.    "},{"title":"Bertie's Guide to Life and Mothers","author":"McCall Smith, Alexander","year":null,"url":null,"placename":"Arbroath","snippet":"Well, there was nothing inherently dangerous in opening and closing drawers \u2013 people did that all the time in their waking hours, to no apparent detriment to themselves \u2013 and as for the Declaration of Arbroath, he failed to see what was wrong with muttering about that.    "},{"title":"Bertie's Guide to Life and Mothers","author":"McCall Smith, Alexander","year":null,"url":null,"placename":"Arbroath","snippet":"So far, Domenica had merely reported that he had opened and closed drawers, while apparently asleep, and muttered something about the Declaration of Arbroath.    "},{"title":"Bertie's Guide to Life and Mothers","author":"McCall Smith, Alexander","year":null,"url":null,"placename":"Arbroath","snippet":"\"Yes, Arbroath.    "},{"title":"Bertie's Guide to Life and Mothers","author":"McCall Smith, Alexander","year":null,"url":null,"placename":"Arbroath","snippet":"That's just outside Arbroath.\"    "},{"title":"Bertie's Guide to Life and Mothers","author":"McCall Smith, Alexander","year":null,"url":null,"placename":"Arbroath","snippet":"This strong, resourceful woman from Arbroath; this representative of a whole Scotland that people who lived in places like Edinburgh sometimes never saw; this woman whom they all rather took for granted, was suffering.    "},{"title":"Bertie's Guide to Life and Mothers","author":"McCall Smith, Alexander","year":null,"url":null,"placename":"Arbroath","snippet":"So at the end of each school term Lou was duly placed in the train in Arbroath, entrusted to the care of the train's guard, carrying her battered leather suitcase to which she had tied a home-made label reading Passenger from Arbroath to    "},{"title":"Bertie's Guide to Life and Mothers","author":"McCall Smith, Alexander","year":null,"url":null,"placename":"Arbroath","snippet":"So at the end of each school term Lou was duly placed in the train in Arbroath, entrusted to the care of the train's guard, carrying her battered leather suitcase to which she had tied a home-made label reading Passenger from Arbroath to    "},{"title":"Bertie's Guide to Life and Mothers","author":"McCall Smith, Alexander","year":null,"url":null,"placename":"Arbroath","snippet":"The beginning of the day in Scotland is staggered: breakfast in Edinburgh may be at eight, but in the East Neuk of Fife it is at seven-thirty, at seven in Arbroath, at six-thirty in Aberdeen, while in the rolling hinterland of the granite city it is at five-thirty, or even five.    "},{"title":"Bertie's Guide to Life and Mothers","author":"McCall Smith, Alexander","year":null,"url":null,"placename":"Arbroath","snippet":"You said that I just opened and closed them \u2013 as if I were looking for the Declaration of Arbroath.\"    "},{"title":"Bertie's Guide to Life and Mothers","author":"McCall Smith, Alexander","year":null,"url":null,"placename":"Arbroath","snippet":"Why on earth would I go on about the Declaration of Arbroath while opening the kitchen drawers?    "},{"title":"Bertie's Guide to Life and Mothers","author":"McCall Smith, Alexander","year":null,"url":null,"placename":"Arbroath","snippet":"\"It was as if you \u2026 well, it was as if you were looking for the Declaration of Arbroath in one of the kitchen drawers.\"    "},{"title":"Bertie's Guide to Life and Mothers","author":"McCall Smith, Alexander","year":null,"url":null,"placename":"Arbroath","snippet":"\"It was something about the Declaration of Arbroath.\"    "},{"title":"Bertie's Guide to Life and Mothers","author":"McCall Smith, Alexander","year":null,"url":null,"placename":"Arbroath","snippet":"That was nothing too embarrassing \u2013 there must be plenty of people muttering about the Declaration of Arbroath in their sleep.    "},{"title":"Bertie's Guide to Life and Mothers","author":"McCall Smith, Alexander","year":null,"url":null,"placename":"Arbroath","snippet":"And then there was something about the Declaration of Arbroath.    "},{"title":"Bertie Plays the Blues","author":"McCall Smith, Alexander","year":null,"url":null,"placename":"Arbroath","snippet":"There were reminiscences of well-known Arbroath    "},{"title":"Bertie Plays the Blues","author":"McCall Smith, Alexander","year":null,"url":null,"placename":"Arbroath","snippet":"\"There was a fellow in Arbroath,\" she said.    "},{"title":"Bertie Plays the Blues","author":"McCall Smith, Alexander","year":null,"url":null,"placename":"Arbroath","snippet":"I think back to the days when I was in Arbroath, or even in Aberdeen, and there were folk about.\"    "},{"title":"Bertie Plays the Blues","author":"McCall Smith, Alexander","year":null,"url":null,"placename":"Arbroath","snippet":"Measuring UpWhile Big Lou and Pat were contemplating the Declaration of Arbroath, Domenica Macdonald was standing with her fianc\u00e9, Angus Lordie, and her lawyer, Lesley Kerr, outside the door of Antonia Collie's Scotland Street flat, key in hand.    "},{"title":"Bertie Plays the Blues","author":"McCall Smith, Alexander","year":null,"url":null,"placename":"Arbroath","snippet":"\"I don't suppose he received many letters from Arbroath . . .\"    "},{"title":"Bertie Plays the Blues","author":"McCall Smith, Alexander","year":null,"url":null,"placename":"Arbroath","snippet":"Was she trying to remember exactly what the Declaration of Arbroath was?    "},{"title":"Bertie Plays the Blues","author":"McCall Smith, Alexander","year":null,"url":null,"placename":"Arbroath","snippet":"\"The Declaration of Arbroath,\" said Lou.    "},{"title":"Bertie Plays the Blues","author":"McCall Smith, Alexander","year":null,"url":null,"placename":"Arbroath","snippet":"A Letter from ArbroathPat felt distinctly uncomfortable when she returned to the gallery after coffee at Big Lou's.    "},{"title":"Bertie Plays the Blues","author":"McCall Smith, Alexander","year":null,"url":null,"placename":"Arbroath","snippet":"They're strong in Arbroath.\"    "},{"title":"Bertie Plays the Blues","author":"McCall Smith, Alexander","year":null,"url":null,"placename":"Arbroath","snippet":"Arbroath.    "},{"title":"Bertie Plays the Blues","author":"McCall Smith, Alexander","year":null,"url":null,"placename":"Arbroath","snippet":"Big Lou came from Arbroath, and people who came from Arbroath were fine people in so many ways, but could be unexpectedly touchy-touchy, not touchy-feely.    "},{"title":"Bertie Plays the Blues","author":"McCall Smith, Alexander","year":null,"url":null,"placename":"Arbroath","snippet":"Big Lou came from Arbroath, and people who came from Arbroath were fine people in so many ways, but could be unexpectedly touchy-touchy, not touchy-feely.    "},{"title":"And the Land Lay Still","author":"Robertson, James","year":null,"url":null,"placename":"Arbroath","snippet":"Declaration of  Arbroath, Peter said.    "},{"title":"And the Land Lay Still","author":"Robertson, James","year":null,"url":null,"placename":"Arbroath","snippet":"Och well, anyway, the boatman had had enough, and so had I, so we turned back to Arbroath and got in just before the rain came down.    "},{"title":"And the Land Lay Still","author":"Robertson, James","year":null,"url":null,"placename":"Arbroath","snippet":"We drifted in and out of  those places for a day and then the next day we went to Arbroath.    "},{"title":"And the Land Lay Still","author":"Robertson, James","year":null,"url":null,"placename":"Arbroath","snippet":"And this particular time we had two days on the east coast between Montrose and Arbroath.    "},{"title":"And the Land Lay Still","author":"Robertson, James","year":null,"url":null,"placename":"Arbroath","snippet":"And then, before she can move on, 'What about that time in Arbroath, Jean?    "},{"title":"And the Land Lay Still","author":"Robertson, James","year":null,"url":null,"placename":"Arbroath","snippet":"And one of  the Arbroath cooncillors phones the local paper and tells them to get up to the abbey fast and up comes this young reporter with a camera and gets the biggest scoop in the paper's    "},{"title":"And the Land Lay Still","author":"Robertson, James","year":null,"url":null,"placename":"Arbroath","snippet":"And then the three men shake hands with the two Arbroath cooncillors, and with the keeper, and they go back to their car and drive away.    "},{"title":"And the Land Lay Still","author":"Robertson, James","year":null,"url":null,"placename":"Arbroath","snippet":"It's a great, heavy thing, this stone, a quarter of  a ton it weighs, and one of  the Arbroath men    "},{"title":"And the Land Lay Still","author":"Robertson, James","year":null,"url":null,"placename":"Arbroath","snippet":"Because the abbey is associated with the Declaration of  Arbroath, a letter sent by the Scottish nobility to the Pope in 1320, asserting not only Scottish independence from England but also the right of  the people to overthrow any monarch who tries to surrender that independence.    "},{"title":"And the Land Lay Still","author":"Robertson, James","year":null,"url":null,"placename":"Arbroath","snippet":"'Why have they come to Arbroath?    "},{"title":"Black's picturesque tourist of Scotland.","author":null,"year":"1857-01-01","url":"http:\/\/babel.hathitrust.org\/cgi\/pt?id=uc2.ark:\/13960\/t6251qt9z","placename":"Arbroath","snippet":"There are also branch lines to Arbroath, Montrose, Brechin, and Dundee.    "},{"title":"Black's picturesque tourist of Scotland.","author":null,"year":"1857-01-01","url":"http:\/\/babel.hathitrust.org\/cgi\/pt?id=uc2.ark:\/13960\/t6251qt9z","placename":"Arbroath","snippet":"The rest of the places, as seen from the steamer between Arbroath and Aberdeen, are the same as described in the former route (pp. 303 to 309).    "},{"title":"Black's picturesque tourist of Scotland.","author":null,"year":"1857-01-01","url":"http:\/\/babel.hathitrust.org\/cgi\/pt?id=uc2.ark:\/13960\/t6251qt9z","placename":"Arbroath","snippet":"Arbroath is a royal burgli, and unites with Forfar, Inverbervie, Montrose, and Brechin, in sending a member to the British I'arliament.*    "},{"title":"Black's picturesque tourist of Scotland.","author":null,"year":"1857-01-01","url":"http:\/\/babel.hathitrust.org\/cgi\/pt?id=uc2.ark:\/13960\/t6251qt9z","placename":"Arbroath","snippet":"The Arbroath line proceeds southward, and the Aberdeen northward.    "},{"title":"Black's picturesque tourist of Scotland.","author":null,"year":"1857-01-01","url":"http:\/\/babel.hathitrust.org\/cgi\/pt?id=uc2.ark:\/13960\/t6251qt9z","placename":"Arbroath","snippet":"Leaving Forfar by the Arbroath and Forfar line, and proceeding eastward,  on the left are seen in the distance the hills of Carse, and in the vicinity of the line the village of Lunanhead, deriving its name from a spring which rises here, and wending its way eastward, flows into the sea at Lunan Bay.    "},{"title":"Heads and tales, or, Anecdotes and stories of quadrupeds and other beasts chiefly connected with incidents in the histories of more or less distinguished men \/","author":null,"year":"1870-01-01","url":"http:\/\/babel.hathitrust.org\/cgi\/pt?id=uc2.ark:\/13960\/t52f7mc66","placename":"Arbroath","snippet":"Mr Jervise* records that \"one horse, the property of James Craw, a labourer in Arbroath, is believed to have drawn the entire materials of the building.    "},{"title":"Heads and tales, or, Anecdotes and stories of quadrupeds and other beasts chiefly connected with incidents in the histories of more or less distinguished men \/","author":null,"year":"1870-01-01","url":"http:\/\/babel.hathitrust.org\/cgi\/pt?id=uc2.ark:\/13960\/t52f7mc66","placename":"Arbroath","snippet":"The Bell-Rock Lighthouse, built on a dangerous range of rocks twelve miles soutli by east from Arbroath, was begun by Robert Stevenson on the 17th August 1807, and finished in October 1810.    "},{"title":"The Edinburgh gazetteer, or geographical dictionary ...","author":null,"year":"1822-01-01","url":"http:\/\/babel.hathitrust.org\/cgi\/pt?id=yale.39002088370268","placename":"Arbroath","snippet":"12 miles N.of Arbroath, and 37 S. of Aberdeen.    "},{"title":"The novels and tales of Robert Louis Stevenson.","author":"Stevenson, Robert Louis","year":"1903-01-01","url":"http:\/\/babel.hathitrust.org\/cgi\/pt?id=uc2.ark:\/13960\/t05x2nn94","placename":"Arbroath","snippet":"I boast of my engineering, and Bough compares me to the Abbott of Arbroath who originated  the Inchcape Bell.    "},{"title":"The abbot \/","author":"Scott, Walter","year":"1820-01-01","url":"http:\/\/babel.hathitrust.org\/cgi\/pt?id=uiuo.ark:\/13960\/t71v67v7d","placename":"Arbroath","snippet":"as banners were lowered and spears depressed  before her, while, emulating the strife betwixt Seyton and Arbroath, band on band pressed forward their march towards the enemy.    "},{"title":"Stories from Scottish history \/","author":"Scott, Walter","year":"1906-01-01","url":"http:\/\/babel.hathitrust.org\/cgi\/pt?id=loc.ark:\/13960\/t4rj50m1p","placename":"Arbroath","snippet":"George Douglas, called the postulate of Arbroath,  a natural brother of the Earl of Morton, set the example, by snatching Darnley's dagger from his belt, and striking Rizzio with it.    "},{"title":"Shandygaff :","author":"Morley, Christopher","year":"1918-01-01","url":"http:\/\/babel.hathitrust.org\/cgi\/pt?id=loc.ark:\/13960\/t5q826h0d","placename":"Arbroath","snippet":"It was characteristic  of him, when in a pet, to wish he had been born other-where than by the pebbles of Arbroath.    "},{"title":"Memoirs of the life of Sir Walter Scott,","author":"Lockhart, J. G.","year":null,"url":"http:\/\/babel.hathitrust.org\/cgi\/pt?id=uc2.ark:\/13960\/t4qj78631","placename":"Arbroath","snippet":"Dined at Arbroath, and came on board at night, where I made    "},{"title":"Memoirs of the life of Sir Walter Scott,","author":"Lockhart, J. G.","year":null,"url":"http:\/\/babel.hathitrust.org\/cgi\/pt?id=uc2.ark:\/13960\/t4qj78631","placename":"Arbroath","snippet":"God grant this occur seldom ! Landed and dined at Arbroath, where we were to take up Adam Duff.    "},{"title":"Memoirs of the life of Sir Walter Scott,","author":"Lockhart, J. G.","year":null,"url":"http:\/\/babel.hathitrust.org\/cgi\/pt?id=uc2.ark:\/13960\/t4qj78631","placename":"Arbroath","snippet":"Breakfasted in the parlour.* On board again at nine, and run down, through a rough sea, to Aberbrothock, vulgarly called Arbroath.    "},{"title":"Memoirs of the life of Sir Walter Scott,","author":"Lockhart, J. G.","year":null,"url":"http:\/\/babel.hathitrust.org\/cgi\/pt?id=uc2.ark:\/13960\/t4qj78631","placename":"Arbroath","snippet":"\u2014 Waked at six by the steward : summoned to visit the Bell-Rock, where the beacon is well worthy attention Its dimensions are well known; but no description can give the idea of this slight, solitary, round tower, trembling amid the billows, and fifteen miles from Arbroath, the nearest shore.    "},{"title":"Memoirs of the life and writings of Thomas Chalmers...","author":"Hanna, William","year":null,"url":"http:\/\/babel.hathitrust.org\/cgi\/pt?id=uc2.ark:\/13960\/t7sn0457p","placename":"Arbroath","snippet":"Aberdeen, Arbroath, Dundee, and St. Andrews.    "},{"title":"Memoirs of the life and writings of Thomas Chalmers...","author":"Hanna, William","year":null,"url":"http:\/\/babel.hathitrust.org\/cgi\/pt?id=uc2.ark:\/13960\/t7sn0457p","placename":"Arbroath","snippet":"The General Assembly was scarcely dissolved when he resumed his tour, addressing influential audiences at Brechin, Montrose,  Arbroath, and making his way to Aberdeen, where a peculiarly brilliant reception was given to him.* His progress was interrupted by a summons which called him instantly to London ; but the busy and anxious negotiations, in which he there for a time took part, directed though they were to a new and most embarrassing subject, did not divert him from his summer project, for again, and after only a few days of rest in Edinburgh on his return from the metropolis, we find him setting out on what he called his great northern tour.    "},{"title":"Letters of Thomas Gray.","author":"Gray, Thomas","year":"1820-01-01","url":"http:\/\/babel.hathitrust.org\/cgi\/pt?id=loc.ark:\/13960\/t3708nt89","placename":"Arbroath","snippet":"A LITTLE journey I have been niaking to Arbroath has been the cause that I did not answer your very obliging letter so soon as I ought to have done.    "},{"title":"Letters of Thomas Gray.","author":"Gray, Thomas","year":"1820-01-01","url":"http:\/\/babel.hathitrust.org\/cgi\/pt?id=loc.ark:\/13960\/t3708nt89","placename":"Arbroath","snippet":"must tell me, though, about Melross, Roslin Chiipel, and Arbroath.    "},{"title":"The captain of the guard.","author":"Grant, James","year":"1862-01-01","url":"http:\/\/babel.hathitrust.org\/cgi\/pt?id=uc2.ark:\/13960\/t81j9bq4q","placename":"Arbroath","snippet":"The Lindesays and Ogilvies fought the disastrous  feudal battle of Arbroath to decide whose chief should be bailie of that regality ; and there fell on that    "},{"title":"The captain of the guard.","author":"Grant, James","year":"1862-01-01","url":"http:\/\/babel.hathitrust.org\/cgi\/pt?id=uc2.ark:\/13960\/t81j9bq4q","placename":"Arbroath","snippet":"Tlm3 the descendants of Sir Hugh became lords of Avbuthnot and Fordoun ; the sword with which he defended the queeu was long preserved by the viscounts of his family, and his helmet was hung in the church of Garvoch, which, in 1282, he bestowed upon the monks of Arbroath for the safety of his soul, and in memory of his victoiy,    "},{"title":"Autobiography of the Rev. Dr Alexander Carlyle ;","author":"Carlyle, Alexander","year":"1861-01-01","url":"http:\/\/babel.hathitrust.org\/cgi\/pt?id=uc2.ark:\/13960\/t3rv0fk21","placename":"Arbroath","snippet":"We went on horseback by Queensferry, Perth, Dundee, Arbroath, &c. We stayed four days and nights at Aberdeen on account of Dr Wight's horse having been lamed in crossing the ferry at Montrose ; but we passed our time very agreeably between the houses of our friends Drs Campbell and Gerard.    "},{"title":"Spare hours...","author":"Brown, John","year":"1862-01-01","url":"http:\/\/babel.hathitrust.org\/cgi\/pt?id=loc.ark:\/13960\/t4sj2ch2j","placename":"Arbroath","snippet":"\" It was in the time of James the First,\" said she, \" that monarch cam to pay a visit to the monks of Arbroath,  and they brought him to Ferryden to eat a fish dinner at the house o' ane o' my forefathers.    "},{"title":"Journal of a tour through the Highlands of Scotland during the summer of MDCCCXXIX.","author":"Botfield, Beriah","year":"1830-01-01","url":"http:\/\/babel.hathitrust.org\/cgi\/pt?id=yale.39002007555320","placename":"Arbroath","snippet":"In the evening we attempted to di-ive along theshore, but finding that impracticable, retraced oursteps, and crossed some fields studded with ruraldwellings, to the Ferry of Port-on-Craig, whence wesaw on the opposite shore of the Tay, the ruins ofBroughty Castle, jutting into the sea, and with ourglass discerned the town of Arbroath, crowned bythe huge red ruin of the Abbey of Aberbrothick ;while seaward rose the Inch Cape, or BeU Rock,    "},{"title":"Tales of a Grandfather ... [ser. 1-3.] With notes.","author":"Scott, Walter","year":null,"url":"https:\/\/historicaltexts.jisc.ac.uk\/bl-003318072","placename":"Arbroath","snippet":"George Douglas, calledthe Postulate of Arbroath, a natural brother of the Earl of Morton, set the example, by snatching Darnley's dagger from his belt, and striking Rizzio with it.    "},{"title":"Miscellaneous Prose Works of Sir Walter Scott, Bart","author":"Scott, Walter","year":"1847-01-01","url":"https:\/\/historicaltexts.jisc.ac.uk\/bl-003316905-03","placename":"Arbroath","snippet":"GeorgeDouglas, called the postulate of Arbroath, a natural brother of the Earl of Morton, set the example,by snatching Dan-ley's dagger from his belt, andstriking Rizzio with it.    "},{"title":"Recollections of a Visit to Glasgow with the British Arch\u00e6ological Associations, August 27th to September 5th, 1888. With notes","author":"Lambert, George","year":"1891-01-01","url":"https:\/\/historicaltexts.jisc.ac.uk\/bl-002059679","placename":"Arbroath","snippet":"While it was true thatthe plain flat soffits of the porches of Laon Cathedrals werefound also at Arbroath, yet, speaking generally, while therewere certain resemblances, there were many features inFrench work that never appeared in Scotland, and manyScottish features not to be found in France.    "},{"title":"Recollections of a Visit to Glasgow with the British Arch\u00e6ological Associations, August 27th to September 5th, 1888. With notes","author":"Lambert, George","year":"1891-01-01","url":"https:\/\/historicaltexts.jisc.ac.uk\/bl-002059679","placename":"Arbroath","snippet":"Arbroath and Kilwinning Abbeys, St. Andrew's and ElginCathedrals, and Holyrood Chapel, afforded perfect specimensof purity of design and beauty of execution that had neverbeen surpassed in any other country, even in structures oflarger size.    "},{"title":"Travels in Scotland: translated from the German. With notes by the translator [John Kesson]","author":"Kohl, Johann Georg.","year":"1844-01-01","url":"https:\/\/historicaltexts.jisc.ac.uk\/bl-001999307","placename":"Arbroath","snippet":"Thus Aberbrothwick is called Arbroath ; Linlithgow, Lithgow, &c.    "},{"title":"A Voyage round Great Britain; with short views of Aberdeen, Balmoral, ... Fe\u0301camp, Havre and Paris","author":"Hargreaves, Thomas","year":"1884-01-01","url":"https:\/\/historicaltexts.jisc.ac.uk\/bl-001595457","placename":"Arbroath","snippet":"On the mainland, on our starboard, could be clearlyseen the town of Arbroath, or as in olden times itwas called Aberbrothoc, celebrated in the poem the' Inchcape Rock.'    "},{"title":"Here and there in the Home Land. England, Scotland and Ireland as seen by a Canadian. ... Profusely illustrated","author":"Haight, Canniff.","year":"1895-01-01","url":"https:\/\/historicaltexts.jisc.ac.uk\/bl-001564114","placename":"Arbroath","snippet":"I was sorry not to get a sight of Montrose, which followsafter Arbroath.    "}]