[{"title":"Black's picturesque tourist of Scotland.","author":null,"year":"1857-01-01","url":"http:\/\/babel.hathitrust.org\/cgi\/pt?id=uc2.ark:\/13960\/t9862nx30","placename":"Meigle","snippet":"; Belmont Castle (Meigle) Lord Wharncliffe ; Blair-Drummoud (Stirling) H. Home Drummond ; Craighail (Blairgowrie) Rattray ; Dunira (Comrie) Dundas, Bart.    "},{"title":"The Edinburgh gazetteer, or geographical dictionary ...","author":null,"year":"1822-01-01","url":"http:\/\/babel.hathitrust.org\/cgi\/pt?id=yale.39002088370268","placename":"Meigle","snippet":"Meigle, a town in the above parish,pleasantly Situated on a small rivulet of thesame name.    "},{"title":"The Edinburgh gazetteer, or geographical dictionary ...","author":null,"year":"1822-01-01","url":"http:\/\/babel.hathitrust.org\/cgi\/pt?id=yale.39002088370268","placename":"Meigle","snippet":"Meigle, a parish of Scotland, in Perthshire, about 4| miles long, and from 1 to 2broad.    "},{"title":"The journal of Sir Walter Scott,","author":"Scott, Walter","year":"1891-01-01","url":"http:\/\/babel.hathitrust.org\/cgi\/pt?id=uc2.ark:\/13960\/t7jq0vz0t","placename":"Meigle","snippet":"in 1793 to Meigle, pp.    "},{"title":"The journal of Sir Walter Scott,","author":"Scott, Walter","year":"1891-01-01","url":"http:\/\/babel.hathitrust.org\/cgi\/pt?id=loc.ark:\/13960\/t6rz05s28","placename":"Meigle","snippet":"in 1793 to Meigle, pp.    "},{"title":"The journal of Sir Walter Scott,","author":"Scott, Walter","year":"1890-01-01","url":"http:\/\/babel.hathitrust.org\/cgi\/pt?id=uc2.ark:\/13960\/t2q52hk62","placename":"Meigle","snippet":"visit in 1793 to Meigle, pp.    "},{"title":"Journal of a tour through the Highlands of Scotland during the summer of MDCCCXXIX.","author":"Botfield, Beriah","year":"1830-01-01","url":"http:\/\/babel.hathitrust.org\/cgi\/pt?id=yale.39002007555320","placename":"Meigle","snippet":"Our route lay through fertUe fields, orchards, and gardens, to the little vUlage of Meigle, on the skirts of the woods of Belmont Castle.    "},{"title":"Miscellaneous Prose Works of Sir Walter Scott, Bart","author":"Scott, Walter","year":"1847-01-01","url":"https:\/\/historicaltexts.jisc.ac.uk\/bl-003316905-01","placename":"Meigle","snippet":"It occurs in the churchyard of Meigle, in a neighbourhood famous for possessing the earliest sculptural monuments respecting the events of antiquity.    "}]