[{"title":"And the Land Lay Still","author":"Robertson, James","year":null,"url":null,"placename":"Aberfeldy","snippet":"He and his wife lived in Aberfeldy with their three sons, who attended the local school.    "},{"title":"And the Land Lay Still","author":"Robertson, James","year":null,"url":null,"placename":"Aberfeldy","snippet":"On the journey back to Aberfeldy, Angus asked Michael if  he was happy at Bellcroft House.    "},{"title":"And the Land Lay Still","author":"Robertson, James","year":null,"url":null,"placename":"Aberfeldy","snippet":"So that afternoon they drove the forty miles to the school near Aberfeldy, an establishment called Bellcroft House, where it turned out an appointment had been made to see the headmaster before they'd even gone on holiday.    "},{"title":"And the Land Lay Still","author":"Robertson, James","year":null,"url":null,"placename":"Aberfeldy","snippet":"And if  it's at Aberfeldy would I have to stay there?    "},{"title":"And the Land Lay Still","author":"Robertson, James","year":null,"url":null,"placename":"Aberfeldy","snippet":"No, it's not far up the road, near Aberfeldy.    "},{"title":"Leaves from the journal of our life in the Highlands, from 1848 to 1861.","author":"Victoria","year":"1868-01-01","url":"http:\/\/babel.hathitrust.org\/cgi\/pt?id=yale.39002032015217","placename":"Aberfeldy","snippet":"Albert had been near Aberfeldy, and had toshoot and walk the whole way back, Lord Breadalbane himself beating, and 300 Highlanders outWe went out at five, with Lady Breadalbane andthe Duchess of Sutherland ; we saw part of LochTay, and drove along the banks of the Tay underfine trees, and saw Lord Breadalbane's Americanbuffaloes.    "},{"title":"Sheila \/","author":"Swan, Annie S.","year":null,"url":"http:\/\/babel.hathitrust.org\/cgi\/pt?id=uc2.ark:\/13960\/t28913f68","placename":"Aberfeldy","snippet":"They say he's awa 1 ower the hills to Aberfeldy, clean stark mad.'    "},{"title":"Sheila \/","author":"Swan, Annie S.","year":null,"url":"http:\/\/babel.hathitrust.org\/cgi\/pt?id=uc2.ark:\/13960\/t28913f68","placename":"Aberfeldy","snippet":"Their pockets are lined with gold, they have bank accounts in Crieff and Aberfeldy bigger than mine, but they have a pauper's soul, every man among them.'    "},{"title":"The works of Robert Burns;","author":"Burns, Robert","year":"1816-01-01","url":"http:\/\/babel.hathitrust.org\/cgi\/pt?id=loc.ark:\/13960\/t76t1jw9v","placename":"Aberfeldy","snippet":"birks of Aberfeldy    "},{"title":"The works of Robert Burns;","author":"Burns, Robert","year":"1816-01-01","url":"http:\/\/babel.hathitrust.org\/cgi\/pt?id=loc.ark:\/13960\/t76t1jw9v","placename":"Aberfeldy","snippet":"I composed these stanzas standing under the falls of Aberfeldy, at, or near, Moness.    "},{"title":"The works of Robert Burns;","author":"Burns, Robert","year":"1816-01-01","url":"http:\/\/babel.hathitrust.org\/cgi\/pt?id=loc.ark:\/13960\/t76t1jw9v","placename":"Aberfeldy","snippet":"The Birks of Aberfeldy.    "},{"title":"The works of Robert Burns;","author":"Burns, Robert","year":"1816-01-01","url":"http:\/\/babel.hathitrust.org\/cgi\/pt?id=loc.ark:\/13960\/t76t1jw9v","placename":"Aberfeldy","snippet":"They ne'er shall draw a wish fiae rae, Supremely blest wi' love and thee In the birks of Aberfeldy.    "},{"title":"The works of Robert Burns;","author":"Burns, Robert","year":"1816-01-01","url":"http:\/\/babel.hathitrust.org\/cgi\/pt?id=loc.ark:\/13960\/t76t1jw9v","placename":"Aberfeldy","snippet":"The lioary cliffs are crown'd wi' flowers, White o'er the linns the bumie pours, And rising weets wi' misty showers The birks of Aberfeldy.    "},{"title":"The works of Robert Burns;","author":"Burns, Robert","year":"1816-01-01","url":"http:\/\/babel.hathitrust.org\/cgi\/pt?id=loc.ark:\/13960\/t76t1jw9v","placename":"Aberfeldy","snippet":"The braes ascend like lofty wa's, The foaming sti-eam deep-roaring sa's, O'er-hung wi' fragrant spreading shaws, The birks of Aberfeldy.    "},{"title":"The works of Robert Burns;","author":"Burns, Robert","year":"1816-01-01","url":"http:\/\/babel.hathitrust.org\/cgi\/pt?id=loc.ark:\/13960\/t76t1jw9v","placename":"Aberfeldy","snippet":"While o'er their heads the hazels hing, The little birdies blythtly sing, Or lightly slit on wanton wing In the birks of Aberfeldy.    "},{"title":"The works of Robert Burns;","author":"Burns, Robert","year":"1816-01-01","url":"http:\/\/babel.hathitrust.org\/cgi\/pt?id=loc.ark:\/13960\/t76t1jw9v","placename":"Aberfeldy","snippet":"Now simmer blinks on flowery braes, And o'er the crystal streamlet plays, Come let us spend the lightsome days, In the birks of Aberfeldy.    "},{"title":"The complete poetical and prose works of Robert Burns:","author":"Burns, Robert","year":"1859-01-01","url":"http:\/\/babel.hathitrust.org\/cgi\/pt?id=loc.ark:\/13960\/t4pk0xn8h","placename":"Aberfeldy","snippet":"In the birks of Aberfeldy.    "},{"title":"The complete poetical and prose works of Robert Burns:","author":"Burns, Robert","year":"1859-01-01","url":"http:\/\/babel.hathitrust.org\/cgi\/pt?id=loc.ark:\/13960\/t4pk0xn8h","placename":"Aberfeldy","snippet":"The bilks of Aberfeldy.    "},{"title":"The complete poetical and prose works of Robert Burns:","author":"Burns, Robert","year":"1859-01-01","url":"http:\/\/babel.hathitrust.org\/cgi\/pt?id=loc.ark:\/13960\/t4pk0xn8h","placename":"Aberfeldy","snippet":"The birks of Aberfeldy.    "},{"title":"The complete poetical and prose works of Robert Burns:","author":"Burns, Robert","year":"1859-01-01","url":"http:\/\/babel.hathitrust.org\/cgi\/pt?id=loc.ark:\/13960\/t4pk0xn8h","placename":"Aberfeldy","snippet":"In the birks of Aberfeldy.    "},{"title":"The complete poetical and prose works of Robert Burns:","author":"Burns, Robert","year":"1859-01-01","url":"http:\/\/babel.hathitrust.org\/cgi\/pt?id=loc.ark:\/13960\/t4pk0xn8h","placename":"Aberfeldy","snippet":"And o'er the crystal streamlet plays ; Come, let us spend the lightsome days In the birks of Aberfeldy.    "},{"title":"The complete poetical and prose works of Robert Burns:","author":"Burns, Robert","year":"1859-01-01","url":"http:\/\/babel.hathitrust.org\/cgi\/pt?id=loc.ark:\/13960\/t4pk0xn8h","placename":"Aberfeldy","snippet":"To the birks of Aberfeldy?    "},{"title":"The complete poetical and prose works of Robert Burns:","author":"Burns, Robert","year":"1881-01-01","url":"http:\/\/babel.hathitrust.org\/cgi\/pt?id=loc.ark:\/13960\/t43r1df6g","placename":"Aberfeldy","snippet":"\u2014 \"I composed these stanzas standing under the falls of Aberfeldy, at or near Moness, in Peithshire.\" \u2014 Burns.    "},{"title":"The complete poetical and prose works of Robert Burns:","author":"Burns, Robert","year":"1881-01-01","url":"http:\/\/babel.hathitrust.org\/cgi\/pt?id=loc.ark:\/13960\/t43r1df6g","placename":"Aberfeldy","snippet":"III the bilks of Aberfeldy.    "},{"title":"The complete poetical and prose works of Robert Burns:","author":"Burns, Robert","year":"1881-01-01","url":"http:\/\/babel.hathitrust.org\/cgi\/pt?id=loc.ark:\/13960\/t43r1df6g","placename":"Aberfeldy","snippet":"The bilks of Aberfeldy.    "},{"title":"The complete poetical and prose works of Robert Burns:","author":"Burns, Robert","year":"1881-01-01","url":"http:\/\/babel.hathitrust.org\/cgi\/pt?id=loc.ark:\/13960\/t43r1df6g","placename":"Aberfeldy","snippet":"The bilks of Aberfeldy.    "},{"title":"The complete poetical and prose works of Robert Burns:","author":"Burns, Robert","year":"1881-01-01","url":"http:\/\/babel.hathitrust.org\/cgi\/pt?id=loc.ark:\/13960\/t43r1df6g","placename":"Aberfeldy","snippet":"And o'er the crystal streamlet plays ; Come, let us spend the lightsome days In the birks of Aberfeldy.    "},{"title":"The complete poetical and prose works of Robert Burns:","author":"Burns, Robert","year":"1881-01-01","url":"http:\/\/babel.hathitrust.org\/cgi\/pt?id=loc.ark:\/13960\/t43r1df6g","placename":"Aberfeldy","snippet":"To the birks of Aberfeldy?    "},{"title":"The complete works of Robert Burns: containing his poems, songs, and correspondence.","author":"Burns, Robert","year":"1852-01-01","url":"http:\/\/babel.hathitrust.org\/cgi\/pt?id=loc.ark:\/13960\/t01z4r72g","placename":"Aberfeldy","snippet":"\u2014 Come down Tay to Dunkeld \u2014 Glenlyon House \u2014 Lyon River \u2014 Druid's Temple \u2014 three circles of stones \u2014 the outer-most sunk \u2014 the second has thirteen stones remaining \u2014 the innermost has eight \u2014 two large detached ones like a gate, to the south-east \u2014 Say prayers in it \u2014 Pass Taybridge \u2014 Aberfeldy \u2014 described in rhyme \u2014 Castle Menzies \u2014 Inver \u2014 Dr. Stewart \u2014 sup.    "},{"title":"The complete works of Robert Burns: containing his poems, songs, and correspondence.","author":"Burns, Robert","year":"1852-01-01","url":"http:\/\/babel.hathitrust.org\/cgi\/pt?id=loc.ark:\/13960\/t01z4r72g","placename":"Aberfeldy","snippet":"I COMPOSED these stanzas standing under the falls of Aberfeldy, at or near Moness.    "},{"title":"The complete works of Robert Burns: containing his poems, songs, and correspondence.","author":"Burns, Robert","year":"1852-01-01","url":"http:\/\/babel.hathitrust.org\/cgi\/pt?id=loc.ark:\/13960\/t01z4r72g","placename":"Aberfeldy","snippet":"To the birks of Aberfeldy?    "},{"title":"The complete works of Robert Burns: containing his poems, songs, and correspondence.","author":"Burns, Robert","year":"1852-01-01","url":"http:\/\/babel.hathitrust.org\/cgi\/pt?id=loc.ark:\/13960\/t01z4r72g","placename":"Aberfeldy","snippet":"In the birks of Aberfeldy.    "},{"title":"The complete works of Robert Burns: containing his poems, songs, and correspondence.","author":"Burns, Robert","year":"1852-01-01","url":"http:\/\/babel.hathitrust.org\/cgi\/pt?id=loc.ark:\/13960\/t01z4r72g","placename":"Aberfeldy","snippet":"And rising, weets wi' misty showers The birks of Aberfeldy.    "},{"title":"The complete works of Robert Burns: containing his poems, songs, and correspondence.","author":"Burns, Robert","year":"1852-01-01","url":"http:\/\/babel.hathitrust.org\/cgi\/pt?id=loc.ark:\/13960\/t01z4r72g","placename":"Aberfeldy","snippet":"O'erhung -wi' fragrant spreading shaws, The birks of Aberfeldy.    "},{"title":"The complete works of Robert Burns: containing his poems, songs, and correspondence.","author":"Burns, Robert","year":"1852-01-01","url":"http:\/\/babel.hathitrust.org\/cgi\/pt?id=loc.ark:\/13960\/t01z4r72g","placename":"Aberfeldy","snippet":"In the birks of Aberfeldy.    "},{"title":"The complete works of Robert Burns: containing his poems, songs, and correspondence.","author":"Burns, Robert","year":"1852-01-01","url":"http:\/\/babel.hathitrust.org\/cgi\/pt?id=loc.ark:\/13960\/t01z4r72g","placename":"Aberfeldy","snippet":"In the birks of Aberfeldy.    "},{"title":"The complete works of Robert Burns: containing his poems, songs, and correspondence.","author":"Burns, Robert","year":"1852-01-01","url":"http:\/\/babel.hathitrust.org\/cgi\/pt?id=loc.ark:\/13960\/t01z4r72g","placename":"Aberfeldy","snippet":"Will ye go, will ye go ; Bonnie lassie, will ye go To the birks of Aberfeldy ?    "},{"title":"The complete works of Robert Burns: containing his poems, songs, and correspondence.","author":"Burns, Robert","year":"1852-01-01","url":"http:\/\/babel.hathitrust.org\/cgi\/pt?id=loc.ark:\/13960\/t01z4r72g","placename":"Aberfeldy","snippet":"[An old strain, called \"TheBirksof Abergeldie,\" was the forerunner of this sweet song : it was written, the poet says, standing under the Falls of Aberfeldy, near Moness, in Perthshire, during one of the tours whicn he made to the north, in the year 1787.]    "},{"title":"The complete works of Robert Burns: containing his poems, songs, and correspondence.","author":"Burns, Robert","year":"1852-01-01","url":"http:\/\/babel.hathitrust.org\/cgi\/pt?id=loc.ark:\/13960\/t01z4r72g","placename":"Aberfeldy","snippet":"Tune \u2014 \" The birks of Aberfeldy.\"    "},{"title":"Story of Maurice Lestrange. Being an account of his travels and adventures in Scotland during the year 1765. [A tale.]","author":"Omond, George William Thomson.","year":"1896-01-01","url":"https:\/\/historicaltexts.jisc.ac.uk\/bl-002709091","placename":"Aberfeldy","snippet":"The man I sent was going to Aberfeldy;and I told him to go to Westermains on his way, andsee that no one but Mrs Arbuthnot got the letter.    "}]