[{"title":"Leaves from the journal of our life in the Highlands, from 1848 to 1861.","author":"Victoria","year":"1868-01-01","url":"http:\/\/babel.hathitrust.org\/cgi\/pt?id=uc2.ark:\/13960\/t4kk9bn60","placename":"Strathtay","snippet":"To the right we saw the Stormont and Strathtay.    "},{"title":"Leaves from the journal of our life in the Highlands, from 1848 to 1861.","author":"Victoria","year":"1868-01-01","url":"http:\/\/babel.hathitrust.org\/cgi\/pt?id=yale.39002032015217","placename":"Strathtay","snippet":"To the right wesaw the Stormont and Strathtay.    "},{"title":"Leaves from the journal of our life in the Highlands, from 1848 to 1861 :","author":"Victoria","year":"1868-01-01","url":"http:\/\/babel.hathitrust.org\/cgi\/pt?id=yale.39002001723692","placename":"Strathtay","snippet":"To the right wesaw the Stormont and Strathtay.    "},{"title":"Days of the past;","author":"Shand, Alexander Innes","year":"1905-01-01","url":"http:\/\/babel.hathitrust.org\/cgi\/pt?id=loc.ark:\/13960\/t6qz2x518","placename":"Strathtay","snippet":"Old Peter of Strathtay comes in somewhere between Craigie and M'Intyre.    "},{"title":"The black watch.","author":"Picken, Andrew","year":"1834-01-01","url":"http:\/\/babel.hathitrust.org\/cgi\/pt?id=uiuo.ark:\/13960\/t9d517f38","placename":"Strathtay","snippet":"The sober twilight of tranquil summer had already thrown her grey mantle over hill and valley, obscuring the many pleasing objects in the rich carse of Strathtay, as the party wound through the irregular park of Waridow house, and drew near to the gaunt old mansion.    "},{"title":"The black watch.","author":"Picken, Andrew","year":"1834-01-01","url":"http:\/\/babel.hathitrust.org\/cgi\/pt?id=uiuo.ark:\/13960\/t9d517f38","placename":"Strathtay","snippet":"No, Sir, I never, thank God ! was farther north than this carse of Strathtay.\"    "},{"title":"St. Andrews and elsewhere;","author":"Boyd, Andrew Kennedy Hutchison","year":"1894-01-01","url":"http:\/\/babel.hathitrust.org\/cgi\/pt?id=uc2.ark:\/13960\/t11n8b459","placename":"Strathtay","snippet":"Yes : it is a fine thing, if the heart be right, that you be what the tramp said in Strathtay.    "},{"title":"Scotland Picturesque and Traditional. A pilgrimage with staff and knapsack","author":"Todd, George Eyre.","year":"1895-01-01","url":"https:\/\/historicaltexts.jisc.ac.uk\/bl-003645357","placename":"Strathtay","snippet":"Town, as the ancient name runs,stands on the right bank of theriver, at the foot of storiedStrathtay and the head of the    "}]