[{"title":"Reheated Cabbage","author":"Welsh, Irvine","year":null,"url":null,"placename":"Cally","snippet":"\u2014That's a poor excuse, Cally ma man.    "},{"title":"Reheated Cabbage","author":"Welsh, Irvine","year":null,"url":null,"placename":"Cally","snippet":"\u2014 We'll git thecunts eftir, eh, Cally?    "},{"title":"Reheated Cabbage","author":"Welsh, Irvine","year":null,"url":null,"placename":"Cally","snippet":"\u2014 Stey cool, Cally, dinnae strop oot oan ays.    "},{"title":"Reheated Cabbage","author":"Welsh, Irvine","year":null,"url":null,"placename":"Cally","snippet":"\u2014 Wi'llleave Boab here wi you, Cally, n wi'll go ower n get somedoners, Crooky suggested.    "},{"title":"Reheated Cabbage","author":"Welsh, Irvine","year":null,"url":null,"placename":"Cally","snippet":"\u2014 This is too fuckin mad,Cally . . . n  there's you chattin up that Gillian lassie n aw, yadirty cunt . . .    "},{"title":"Reheated Cabbage","author":"Welsh, Irvine","year":null,"url":null,"placename":"Cally","snippet":"\u2014 Moan, Cally, thaire's a perty oan the night, at this cuntChizzie's.    "},{"title":"Reheated Cabbage","author":"Welsh, Irvine","year":null,"url":null,"placename":"Cally","snippet":"\u2014 Nae fuckin passengers the night, Cally, eh?    "},{"title":"Strong Mac,","author":"Crockett, S. R.","year":"1904-01-01","url":"http:\/\/babel.hathitrust.org\/cgi\/pt?id=uc2.ark:\/13960\/t3mw2c15b","placename":"Cally","snippet":"\"Then you will find out about Sidney Latimer, as you promised,\" she continued; \"you will come to Aline McQuhirr' s cottage and bring me news of what you find out down by the Gate House of Cally !\"    "},{"title":"Strong Mac,","author":"Crockett, S. R.","year":"1904-01-01","url":"http:\/\/babel.hathitrust.org\/cgi\/pt?id=uc2.ark:\/13960\/t3mw2c15b","placename":"Cally","snippet":"His horse, wounded and (some said dying) had been found straying on the cliffs near the Gate House of Cally.    "},{"title":"Correspondence of James Fenimore-Cooper \/","author":"Cooper, James Fenimore","year":"1922-01-01","url":"http:\/\/babel.hathitrust.org\/cgi\/pt?id=loc.ark:\/13960\/t2988v48x","placename":"Cally","snippet":"We were \"in school\" two hours, the three elder ones, Susie, Cally, and Charley, sitting round our Mother in the parlor or dining-room, while the author and The Spy were occupying the drawing-room.    "}]