[{"title":"The Letters of Robert Louis Stevenson - Volume 2","author":"Stevenson, Robert Louis","year":null,"url":"http:\/\/www.gutenberg.org\/ebooks\/637","placename":"Kirriemuir","snippet":"We received and we have already in fact distributed the gorgeous fahbrics of Kirriemuir.    "},{"title":"The Letters of Robert Louis Stevenson - Volume 2","author":"Stevenson, Robert Louis","year":null,"url":"http:\/\/www.gutenberg.org\/ebooks\/637","placename":"Kirriemuir","snippet":"Breathe it not in Kirriemuir:  tell it not to the daughters of Dundee!  What a nice extract this would make for the daily papers! and how it would facilitate my position here! . . .    "},{"title":"The Letters of Robert Louis Stevenson - Volume 2","author":"Stevenson, Robert Louis","year":null,"url":"http:\/\/www.gutenberg.org\/ebooks\/637","placename":"Kirriemuir","snippet":"By the way, I was twice in Kirriemuir, I believe in the year '71, when I was going on a visit to Glenogil.    "},{"title":"The Letters of Robert Louis Stevenson - Volume 2","author":"Stevenson, Robert Louis","year":null,"url":"http:\/\/www.gutenberg.org\/ebooks\/637","placename":"Kirriemuir","snippet":"I wonder my mother could resist the temptation of your proposed visit to Kirriemuir, which it was like your kindness to propose.    "},{"title":"The Works of Robert Louis Stevenson - Swanston Edition, Vol. 25","author":"Stevenson, Robert Louis","year":null,"url":"http:\/\/www.gutenberg.org\/ebooks\/30714","placename":"Kirriemuir","snippet":"Kirriemuir, xxv.    "},{"title":"The Works of Robert Louis Stevenson - Swanston Edition, Vol. 25","author":"Stevenson, Robert Louis","year":null,"url":"http:\/\/www.gutenberg.org\/ebooks\/30714","placename":"Kirriemuir","snippet":"We received and we have already in fact distributed thegorgeous fahbrics of Kirriemuir.    "},{"title":"The Works of Robert Louis Stevenson - Swanston Edition, Vol. 25","author":"Stevenson, Robert Louis","year":null,"url":"http:\/\/www.gutenberg.org\/ebooks\/30714","placename":"Kirriemuir","snippet":"Breathe it not inKirriemuir: tell it not to the daughters of Dundee! What a nice extractthis would make for the daily papers! and how it would facilitate myposition here!    "},{"title":"The Works of Robert Louis Stevenson - Swanston Edition, Vol. 25","author":"Stevenson, Robert Louis","year":null,"url":"http:\/\/www.gutenberg.org\/ebooks\/30714","placename":"Kirriemuir","snippet":"By the way, I was twice inKirriemuir, I believe in the year '71, when I was going on a visit toGlenogil.    "},{"title":"The Works of Robert Louis Stevenson - Swanston Edition, Vol. 25","author":"Stevenson, Robert Louis","year":null,"url":"http:\/\/www.gutenberg.org\/ebooks\/30714","placename":"Kirriemuir","snippet":"I wonder mymother could resist the temptation of your proposed visit to Kirriemuir,which it was like your kindness to propose.    "},{"title":"The World According to Bertie","author":"McCall Smith, Alexander","year":null,"url":null,"placename":"Kirriemuir","snippet":"\"His cousin married my cousin, up in Kirriemuir.    "},{"title":"The novels and tales of Robert Louis Stevenson.","author":"Stevenson, Robert Louis","year":"1903-01-01","url":"http:\/\/babel.hathitrust.org\/cgi\/pt?id=uc2.ark:\/13960\/t40r9nz7p","placename":"Kirriemuir","snippet":"We received and we have already in fact distributed the gorgeous fah- brics of Kirriemuir.    "},{"title":"The novels and tales of Robert Louis Stevenson.","author":"Stevenson, Robert Louis","year":"1903-01-01","url":"http:\/\/babel.hathitrust.org\/cgi\/pt?id=uc2.ark:\/13960\/t40r9nz7p","placename":"Kirriemuir","snippet":"Breathe it not in Kirriemuir:  tell it not to the daughters of Dundee! What a nice extract this would make for the daily papers ! and how it would facilitate my position here! . . .    "},{"title":"The novels and tales of Robert Louis Stevenson.","author":"Stevenson, Robert Louis","year":"1903-01-01","url":"http:\/\/babel.hathitrust.org\/cgi\/pt?id=uc2.ark:\/13960\/t40r9nz7p","placename":"Kirriemuir","snippet":"By the way, I was twice in Kirriemuir, I believe in the year '71, when I was going on a visit to Glenogil.    "},{"title":"The novels and tales of Robert Louis Stevenson.","author":"Stevenson, Robert Louis","year":"1903-01-01","url":"http:\/\/babel.hathitrust.org\/cgi\/pt?id=uc2.ark:\/13960\/t40r9nz7p","placename":"Kirriemuir","snippet":"I wonder my mother could resist the temptation of your proposed visit to Kirriemuir, which it was like your kindness to propose.    "},{"title":"A holiday in bed, and other sketches.","author":"Barrie, J. M.","year":"1892-01-01","url":"http:\/\/babel.hathitrust.org\/cgi\/pt?id=loc.ark:\/13960\/t3902n24v","placename":"Kirriemuir","snippet":"His brother had studied in Aberdeen with another famous native of Kirriemuir,  Dr. Alexander Whyte, of Free St. George's, Edinburgh.    "},{"title":"A holiday in bed, and other sketches.","author":"Barrie, J. M.","year":"1892-01-01","url":"http:\/\/babel.hathitrust.org\/cgi\/pt?id=loc.ark:\/13960\/t3902n24v","placename":"Kirriemuir","snippet":"Only a part of Mr. Barriers boyhood was spent in Kirriemuir.    "},{"title":"A holiday in bed, and other sketches.","author":"Barrie, J. M.","year":"1892-01-01","url":"http:\/\/babel.hathitrust.org\/cgi\/pt?id=loc.ark:\/13960\/t3902n24v","placename":"Kirriemuir","snippet":"Kirriemuir, as soberly stated by the Encyclo- pcedia Britannica^ is **a borough of barony and a market town of Forfarshire, Scotland, beautifully situated on an eminence above the glen through which the Gairie flows.    "},{"title":"A holiday in bed, and other sketches.","author":"Barrie, J. M.","year":"1892-01-01","url":"http:\/\/babel.hathitrust.org\/cgi\/pt?id=loc.ark:\/13960\/t3902n24v","placename":"Kirriemuir","snippet":"JAMES MATTHEW BARRIE was born at Kirriemuir, Forfarshire, on May 9, i860.    "}]