[{"title":"Spare Hours","author":"Brown, John","year":null,"url":"http:\/\/www.gutenberg.org\/ebooks\/27153","placename":"Ferryden","snippet":"The estate wad hae been mine too, had it    existed; but Neptune, ye ken, is an ill neighbor, and the sea    has washed it a' away but a sand bunker or twa, and the house I    bide in at Ferryden.\"    "},{"title":"Spare Hours","author":"Brown, John","year":null,"url":"http:\/\/www.gutenberg.org\/ebooks\/27153","placename":"Ferryden","snippet":"\"And henceforth, continued he, the Speldins of Ferryden shall    pyke the king's teeth at the coronation.    "},{"title":"Spare Hours","author":"Brown, John","year":null,"url":"http:\/\/www.gutenberg.org\/ebooks\/27153","placename":"Ferryden","snippet":"\"It was in the time of James the First,\" said she, \"that monarch    cam to pay a visit to the monks of Arbroath, and they brought    him to Ferryden to eat a fish dinner at the house o' ane o' my    forefathers.    "},{"title":"Spare Hours","author":"Brown, John","year":null,"url":"http:\/\/www.gutenberg.org\/ebooks\/27153","placename":"Ferryden","snippet":"The estate wad hae been mine too, had it    existed; but Neptune, ye ken, is an ill neighbor, and the sea    has washed it a' away but a sand bunker or twa, and the house I    bide in at Ferryden.\"    "},{"title":"Spare Hours","author":"Brown, John","year":null,"url":"http:\/\/www.gutenberg.org\/ebooks\/27153","placename":"Ferryden","snippet":"\"And henceforth, continued he, the Speldins of Ferryden shall    pyke the king's teeth at the coronation.    "},{"title":"Spare Hours","author":"Brown, John","year":null,"url":"http:\/\/www.gutenberg.org\/ebooks\/27153","placename":"Ferryden","snippet":"\"It was in the time of James the First,\" said she, \"that monarch    cam to pay a visit to the monks of Arbroath, and they brought    him to Ferryden to eat a fish dinner at the house o' ane o' my    forefathers.    "},{"title":"Spare Hours","author":"Brown, John","year":null,"url":"http:\/\/www.gutenberg.org\/ebooks\/27153","placename":"Ferryden","snippet":"The estate wad hae been mine too,    had it existed; but Neptune, ye ken, is an ill neighbor, and the    sea has washed it a' away but a sand bunker or twa, and the    house I bide in at Ferryden.\"    "},{"title":"Spare Hours","author":"Brown, John","year":null,"url":"http:\/\/www.gutenberg.org\/ebooks\/27153","placename":"Ferryden","snippet":"\"And henceforth, continued he, the Speldins of Ferryden shall    pyke the king's teeth at the coronation.    "},{"title":"Spare Hours","author":"Brown, John","year":null,"url":"http:\/\/www.gutenberg.org\/ebooks\/27153","placename":"Ferryden","snippet":"\"It was in the time of James the First,\" said she, \"that    monarch cam to pay a visit to the monks of Arbroath, and they    brought him to Ferryden to eat a fish dinner at the house o'    ane o' my forefathers.    "},{"title":"Spare hours...","author":"Brown, John","year":"1862-01-01","url":"http:\/\/babel.hathitrust.org\/cgi\/pt?id=loc.ark:\/13960\/t4sj2ch2j","placename":"Ferryden","snippet":"\" And henceforth, continued he, the Speldins of Ferryden  shall pyke the king's teeth at the coronation.    "},{"title":"Spare hours...","author":"Brown, John","year":"1862-01-01","url":"http:\/\/babel.hathitrust.org\/cgi\/pt?id=loc.ark:\/13960\/t4sj2ch2j","placename":"Ferryden","snippet":"\" It was in the time of James the First,\" said she, \" that monarch cam to pay a visit to the monks of Arbroath,  and they brought him to Ferryden to eat a fish dinner at the house o' ane o' my forefathers.    "}]