[{"title":"The house with the green shutters,","author":"Brown, George Douglas","year":"1902-01-01","url":"http:\/\/babel.hathitrust.org\/cgi\/pt?id=uc2.ark:\/13960\/t8rb71q8m","placename":"Coe","snippet":"The tumbler (Johnny Coe says it was a bottle, however; but I'm no avised o' that \u2014 I spiered Webster's wife, and I think my details are correct) \u2014 the tumbler went flying past his mother, and smashed the face o' the eight-day.    "},{"title":"The house with the green shutters,","author":"Brown, George Douglas","year":"1902-01-01","url":"http:\/\/babel.hathitrust.org\/cgi\/pt?id=uc2.ark:\/13960\/t8rb71q8m","placename":"Coe","snippet":"\" Hauf the bawbees is mine,\" his sister had skirled, \" and I daur ye to do ony siccan thing, John Coe! \"    "},{"title":"The house with the green shutters,","author":"Brown, George Douglas","year":"1902-01-01","url":"http:\/\/babel.hathitrust.org\/cgi\/pt?id=uc2.ark:\/13960\/t8rb71q8m","placename":"Coe","snippet":"It was after dark when Gourlay met Coe on the street.    "},{"title":"The house with the green shutters,","author":"Brown, George Douglas","year":"1902-01-01","url":"http:\/\/babel.hathitrust.org\/cgi\/pt?id=uc2.ark:\/13960\/t8rb71q8m","placename":"Coe","snippet":"Miss Coe looked after him for a moment ere she closed the door.    "},{"title":"The house with the green shutters,","author":"Brown, George Douglas","year":"1902-01-01","url":"http:\/\/babel.hathitrust.org\/cgi\/pt?id=uc2.ark:\/13960\/t8rb71q8m","placename":"Coe","snippet":"\" iSTo-a! \" she shrilled \u2014 for ]\\Iiss Coe answered ques-    "},{"title":"The house with the green shutters,","author":"Brown, George Douglas","year":"1902-01-01","url":"http:\/\/babel.hathitrust.org\/cgi\/pt?id=uc2.ark:\/13960\/t8rb71q8m","placename":"Coe","snippet":"It was Miss Coe herself who answered his knock at the door.    "},{"title":"The house with the green shutters,","author":"Brown, George Douglas","year":"1902-01-01","url":"http:\/\/babel.hathitrust.org\/cgi\/pt?id=uc2.ark:\/13960\/t8rb71q8m","placename":"Coe","snippet":"Coe was nowhere to be seen.    "},{"title":"The house with the green shutters,","author":"Brown, George Douglas","year":"1902-01-01","url":"http:\/\/babel.hathitrust.org\/cgi\/pt?id=uc2.ark:\/13960\/t8rb71q8m","placename":"Coe","snippet":"Johnny Coe, idle and well-to-pass, though he had no business of his own to attend to, was always present  where business men assembled.    "},{"title":"The house with the green shutters,","author":"Brown, George Douglas","year":"1902-01-01","url":"http:\/\/babel.hathitrust.org\/cgi\/pt?id=uc2.ark:\/13960\/t8rb71q8m","placename":"Coe","snippet":"He thought of trying Johnny Coe, for Johnny was of yielding nature, and had never been unfriendly.    "},{"title":"The house with the green shutters,","author":"Brown, George Douglas","year":"1902-01-01","url":"http:\/\/babel.hathitrust.org\/cgi\/pt?id=uc2.ark:\/13960\/t8rb71q8m","placename":"Coe","snippet":"\" Leave him alone! \" said Johnny Coe, who had been drinking too.    "},{"title":"The house with the green shutters,","author":"Brown, George Douglas","year":"1902-01-01","url":"http:\/\/babel.hathitrust.org\/cgi\/pt?id=uc2.ark:\/13960\/t8rb71q8m","placename":"Coe","snippet":"\" Clothes undoubtedly affect the character,\" said Johnny Coe.    "},{"title":"The house with the green shutters,","author":"Brown, George Douglas","year":"1902-01-01","url":"http:\/\/babel.hathitrust.org\/cgi\/pt?id=uc2.ark:\/13960\/t8rb71q8m","placename":"Coe","snippet":"\"A little ability's a dangerous thing,\" said Johnny Coe, who could think at times.    "},{"title":"The house with the green shutters,","author":"Brown, George Douglas","year":"1902-01-01","url":"http:\/\/babel.hathitrust.org\/cgi\/pt?id=uc2.ark:\/13960\/t8rb71q8m","placename":"Coe","snippet":"' What's the incense like in Notre Dame ? ' said Johnny Coe with his e'en big.    "},{"title":"The house with the green shutters,","author":"Brown, George Douglas","year":"1902-01-01","url":"http:\/\/babel.hathitrust.org\/cgi\/pt?id=uc2.ark:\/13960\/t8rb71q8m","placename":"Coe","snippet":"\" Men-folk are often like that about lassie-weans,\" said Johnny Coe.    "},{"title":"The house with the green shutters,","author":"Brown, George Douglas","year":"1902-01-01","url":"http:\/\/babel.hathitrust.org\/cgi\/pt?id=uc2.ark:\/13960\/t8rb71q8m","placename":"Coe","snippet":"So Johnny Coe took up his sapient parable.    "},{"title":"The house with the green shutters,","author":"Brown, George Douglas","year":"1902-01-01","url":"http:\/\/babel.hathitrust.org\/cgi\/pt?id=uc2.ark:\/13960\/t8rb71q8m","placename":"Coe","snippet":"\" Ou, he means to work a perfect revolution,\" said Jolinny Coe.    "},{"title":"The house with the green shutters,","author":"Brown, George Douglas","year":"1902-01-01","url":"http:\/\/babel.hathitrust.org\/cgi\/pt?id=uc2.ark:\/13960\/t8rb71q8m","placename":"Coe","snippet":"\" That was at the boy's birth, Mr. Coe?    "},{"title":"The house with the green shutters,","author":"Brown, George Douglas","year":"1902-01-01","url":"http:\/\/babel.hathitrust.org\/cgi\/pt?id=uc2.ark:\/13960\/t8rb71q8m","placename":"Coe","snippet":"Coe had told his story with enjoying gusto, and had told it well \u2014 for Johnny, though constantly snubbed by his fellows, was in many ways the ablest of them all.    "},{"title":"The house with the green shutters,","author":"Brown, George Douglas","year":"1902-01-01","url":"http:\/\/babel.hathitrust.org\/cgi\/pt?id=uc2.ark:\/13960\/t8rb71q8m","placename":"Coe","snippet":"\"He's approaching twelve,\" said Johnny Coe, who    "},{"title":"The house with the green shutters,","author":"Brown, George Douglas","year":"1902-01-01","url":"http:\/\/babel.hathitrust.org\/cgi\/pt?id=uc2.ark:\/13960\/t8rb71q8m","placename":"Coe","snippet":"\" Certainly, it maun be left to the Deacon,\" assented Johnny Coe, when he saw how the others were giving their opinion.    "},{"title":"The house with the green shutters,","author":"Brown, George Douglas","year":"1902-01-01","url":"http:\/\/babel.hathitrust.org\/cgi\/pt?id=uc2.ark:\/13960\/t8rb71q8m","placename":"Coe","snippet":"\" It's you maun speak to Gourlay, Deacon,\" said the Provost, brushing aside the reminiscent Coe.    "},{"title":"The house with the green shutters,","author":"Brown, George Douglas","year":"1902-01-01","url":"http:\/\/babel.hathitrust.org\/cgi\/pt?id=uc2.ark:\/13960\/t8rb71q8m","placename":"Coe","snippet":"\" I ken fine how he married her,\" said Johnny Coe.    "},{"title":"The house with the green shutters,","author":"Brown, George Douglas","year":"1902-01-01","url":"http:\/\/babel.hathitrust.org\/cgi\/pt?id=uc2.ark:\/13960\/t8rb71q8m","placename":"Coe","snippet":"\" Faith, that's so,\" said Tam Wylie and Johnny Coe together.    "},{"title":"The house with the green shutters,","author":"Brown, George Douglas","year":"1902-01-01","url":"http:\/\/babel.hathitrust.org\/cgi\/pt?id=uc2.ark:\/13960\/t8rb71q8m","placename":"Coe","snippet":"\" Man, you're right! That'll just be it, that'll just be it! Aye; aye; faith aye; and yon'll be his kist he's carrying! Man, you're right, Mr. Coe; you have just put your finger on't.    "},{"title":"The house with the green shutters,","author":"Brown, George Douglas","year":"1902-01-01","url":"http:\/\/babel.hathitrust.org\/cgi\/pt?id=uc2.ark:\/13960\/t8rb71q8m","placename":"Coe","snippet":"\" I'll wager ye,\" cried Johnny Coe quickly, speaking more loudly than usual in the animation of discovery, \" I'll wager ye Gourlay has quarrelled him and put him to the door! \"    "},{"title":"The house with the green shutters,","author":"Brown, George Douglas","year":"1902-01-01","url":"http:\/\/babel.hathitrust.org\/cgi\/pt?id=uc2.ark:\/13960\/t8rb71q8m","placename":"Coe","snippet":"\"Here's a man coming down the brae!\" announced Johnny Coe in a solemn voice, as if a man \" coming down the brae \" was something unusual.    "},{"title":"The house with the green shutters,","author":"Brown, George Douglas","year":"1902-01-01","url":"http:\/\/babel.hathitrust.org\/cgi\/pt?id=uc2.ark:\/13960\/t8rb71q8m","placename":"Coe","snippet":"\" They say he sits late studying,\" said Johnny Coe.    "},{"title":"The house with the green shutters,","author":"Brown, George Douglas","year":"1902-01-01","url":"http:\/\/babel.hathitrust.org\/cgi\/pt?id=uc2.ark:\/13960\/t8rb71q8m","placename":"Coe","snippet":"Johnny Coe, and Tam Wylie, and the baker, were decent  enough fellows in their way, but the others were the sons of scandal.    "},{"title":"The house with the green shutters,","author":"Brown, George Douglas","year":"1902-01-01","url":"http:\/\/babel.hathitrust.org\/cgi\/pt?id=uc2.ark:\/13960\/t8rb71q8m","placename":"Coe","snippet":"\" A-ah, but then, ye see, he has the abeelity that comes from character,\" said Johnny Coe, who was a sage philosopher.    "},{"title":"A Holiday Tour in Europe. Described in a series of letters written for The Public Ledger, etc","author":"Cook, Joel.","year":"1879-01-01","url":"https:\/\/historicaltexts.jisc.ac.uk\/bl-000772835","placename":"Coe","snippet":"The Coe is an insignificantstream, a torrent in the rainy season, but now almost dried up,but the valley in which it flows has considerable breadth, andon both sides the bold peaks rise up, the whole scene presenting an appearance of utter cheerlessness and inhospitality.    "},{"title":"A Holiday Tour in Europe. Described in a series of letters written for The Public Ledger, etc","author":"Cook, Joel.","year":"1879-01-01","url":"https:\/\/historicaltexts.jisc.ac.uk\/bl-000772835","placename":"Coe","snippet":"A littlebrook called the Coe, rising at an elevation of about nine hundred feet above the sea, flows westerly among the huge peaksof this portion of the Highlands, and at a distance of aboutten miles from its source falls into Loch Leven.    "}]