[{"title":"The Works of Robert Louis Stevenson - Swanston Edition, Vol. 23","author":"Stevenson, Robert Louis","year":null,"url":"http:\/\/www.gutenberg.org\/ebooks\/30894","placename":"Pitlochry","snippet":"[_Kinnaird Cottage, Pitlochry, August 1881._]    "},{"title":"The Works of Robert Louis Stevenson - Swanston Edition, Vol. 23","author":"Stevenson, Robert Louis","year":null,"url":"http:\/\/www.gutenberg.org\/ebooks\/30894","placename":"Pitlochry","snippet":"_Pitlochry, if you please [August], 1881._    "},{"title":"The Works of Robert Louis Stevenson - Swanston Edition, Vol. 23","author":"Stevenson, Robert Louis","year":null,"url":"http:\/\/www.gutenberg.org\/ebooks\/30894","placename":"Pitlochry","snippet":"_Kinnaird Cottage, Pitlochry, July 1881._    "},{"title":"The Works of Robert Louis Stevenson - Swanston Edition, Vol. 23","author":"Stevenson, Robert Louis","year":null,"url":"http:\/\/www.gutenberg.org\/ebooks\/30894","placename":"Pitlochry","snippet":"_Kinnaird Cottage, Pitlochry [July 1881]._    "},{"title":"The Works of Robert Louis Stevenson - Swanston Edition, Vol. 23","author":"Stevenson, Robert Louis","year":null,"url":"http:\/\/www.gutenberg.org\/ebooks\/30894","placename":"Pitlochry","snippet":"_Kinnaird Cottage, Pitlochry [July 1881]._    "},{"title":"The Works of Robert Louis Stevenson - Swanston Edition, Vol. 23","author":"Stevenson, Robert Louis","year":null,"url":"http:\/\/www.gutenberg.org\/ebooks\/30894","placename":"Pitlochry","snippet":"_Kinnaird Cottage, Pitlochry [July 1881]._    "},{"title":"The Works of Robert Louis Stevenson - Swanston Edition, Vol. 23","author":"Stevenson, Robert Louis","year":null,"url":"http:\/\/www.gutenberg.org\/ebooks\/30894","placename":"Pitlochry","snippet":"_Kinnaird Cottage, Pitlochry, July 2nd, 1881._    "},{"title":"The Works of Robert Louis Stevenson - Swanston Edition, Vol. 23","author":"Stevenson, Robert Louis","year":null,"url":"http:\/\/www.gutenberg.org\/ebooks\/30894","placename":"Pitlochry","snippet":"_Kinnaird Cottage, Pitlochry, June 30, 1881._    "},{"title":"The Works of Robert Louis Stevenson - Swanston Edition, Vol. 23","author":"Stevenson, Robert Louis","year":null,"url":"http:\/\/www.gutenberg.org\/ebooks\/30894","placename":"Pitlochry","snippet":"_Kinnaird Cottage, Pitlochry, June 24,1881._    "},{"title":"The Works of Robert Louis Stevenson - Swanston Edition, Vol. 23","author":"Stevenson, Robert Louis","year":null,"url":"http:\/\/www.gutenberg.org\/ebooks\/30894","placename":"Pitlochry","snippet":"_Kinnaird Cottage, Pitlochry [June 1881]._    "},{"title":"The Works of Robert Louis Stevenson - Swanston Edition, Vol. 23","author":"Stevenson, Robert Louis","year":null,"url":"http:\/\/www.gutenberg.org\/ebooks\/30894","placename":"Pitlochry","snippet":"_Kinnaird Cottage, Pitlochry [June 1881]._    "},{"title":"The Works of Robert Louis Stevenson - Swanston Edition, Vol. 23","author":"Stevenson, Robert Louis","year":null,"url":"http:\/\/www.gutenberg.org\/ebooks\/30894","placename":"Pitlochry","snippet":"_Kinnaird Cottage, Pitlochry, Wednesday, June 21, 1881._    "},{"title":"The Works of Robert Louis Stevenson - Swanston Edition, Vol. 23","author":"Stevenson, Robert Louis","year":null,"url":"http:\/\/www.gutenberg.org\/ebooks\/30894","placename":"Pitlochry","snippet":"_Kinnaird Cottage, Pitlochry [June 1881]._    "},{"title":"The Works of Robert Louis Stevenson - Swanston Edition, Vol. 23","author":"Stevenson, Robert Louis","year":null,"url":"http:\/\/www.gutenberg.org\/ebooks\/30894","placename":"Pitlochry","snippet":"_Kinnaird Cottage, Pitlochry, June 6, 1881._    "},{"title":"The Works of Robert Louis Stevenson - Swanston Edition, Vol. 23","author":"Stevenson, Robert Louis","year":null,"url":"http:\/\/www.gutenberg.org\/ebooks\/30894","placename":"Pitlochry","snippet":"At Pitlochry, Stevenson was for some weeks in good health and working   order.    "},{"title":"The Works of Robert Louis Stevenson - Swanston Edition, Vol. 23","author":"Stevenson, Robert Louis","year":null,"url":"http:\/\/www.gutenberg.org\/ebooks\/30894","placename":"Pitlochry","snippet":"At Pitlochry Stevenson was for a while able to enjoy his life and towork well, writing two of the strongest of his short stories of Scottishlife and superstition, _Thrawn Janet_ and _The Merry Men_, originallydesigned to form part of a volume to be written by himself and his wifein collaboration.    "},{"title":"The Works of Robert Louis Stevenson - Swanston Edition, Vol. 23","author":"Stevenson, Robert Louis","year":null,"url":"http:\/\/www.gutenberg.org\/ebooks\/30894","placename":"Pitlochry","snippet":"Thence the whole party againwent to the Highlands, this time to Pitlochry and Braemar.    "},{"title":"The Works of Robert Louis Stevenson - Swanston Edition, Vol. 23","author":"Stevenson, Robert Louis","year":null,"url":"http:\/\/www.gutenberg.org\/ebooks\/30894","placename":"Pitlochry","snippet":"[_Kinnaird Cottage, Pitlochry, August 1881._]    "},{"title":"The Works of Robert Louis Stevenson - Swanston Edition, Vol. 23","author":"Stevenson, Robert Louis","year":null,"url":"http:\/\/www.gutenberg.org\/ebooks\/30894","placename":"Pitlochry","snippet":"_Pitlochry, if you please [August], 1881._    "},{"title":"The Works of Robert Louis Stevenson - Swanston Edition, Vol. 23","author":"Stevenson, Robert Louis","year":null,"url":"http:\/\/www.gutenberg.org\/ebooks\/30894","placename":"Pitlochry","snippet":"_Kinnaird Cottage, Pitlochry, July 1881._    "},{"title":"The Works of Robert Louis Stevenson - Swanston Edition, Vol. 23","author":"Stevenson, Robert Louis","year":null,"url":"http:\/\/www.gutenberg.org\/ebooks\/30894","placename":"Pitlochry","snippet":"_Kinnaird Cottage, Pitlochry [July 1881]._    "},{"title":"The Works of Robert Louis Stevenson - Swanston Edition, Vol. 23","author":"Stevenson, Robert Louis","year":null,"url":"http:\/\/www.gutenberg.org\/ebooks\/30894","placename":"Pitlochry","snippet":"_Kinnaird Cottage, Pitlochry [July 1881]._    "},{"title":"The Works of Robert Louis Stevenson - Swanston Edition, Vol. 23","author":"Stevenson, Robert Louis","year":null,"url":"http:\/\/www.gutenberg.org\/ebooks\/30894","placename":"Pitlochry","snippet":"_Kinnaird Cottage, Pitlochry [July 1881]._    "},{"title":"The Works of Robert Louis Stevenson - Swanston Edition, Vol. 23","author":"Stevenson, Robert Louis","year":null,"url":"http:\/\/www.gutenberg.org\/ebooks\/30894","placename":"Pitlochry","snippet":"_Kinnaird Cottage, Pitlochry, July 2nd, 1881._    "},{"title":"The Works of Robert Louis Stevenson - Swanston Edition, Vol. 23","author":"Stevenson, Robert Louis","year":null,"url":"http:\/\/www.gutenberg.org\/ebooks\/30894","placename":"Pitlochry","snippet":"_Kinnaird Cottage, Pitlochry, June 30, 1881._    "},{"title":"The Works of Robert Louis Stevenson - Swanston Edition, Vol. 23","author":"Stevenson, Robert Louis","year":null,"url":"http:\/\/www.gutenberg.org\/ebooks\/30894","placename":"Pitlochry","snippet":"_Kinnaird Cottage, Pitlochry, June 24,1881._    "},{"title":"The Works of Robert Louis Stevenson - Swanston Edition, Vol. 23","author":"Stevenson, Robert Louis","year":null,"url":"http:\/\/www.gutenberg.org\/ebooks\/30894","placename":"Pitlochry","snippet":"_Kinnaird Cottage, Pitlochry [June 1881]._    "},{"title":"The Works of Robert Louis Stevenson - Swanston Edition, Vol. 23","author":"Stevenson, Robert Louis","year":null,"url":"http:\/\/www.gutenberg.org\/ebooks\/30894","placename":"Pitlochry","snippet":"_Kinnaird Cottage, Pitlochry [June 1881]._    "},{"title":"The Works of Robert Louis Stevenson - Swanston Edition, Vol. 23","author":"Stevenson, Robert Louis","year":null,"url":"http:\/\/www.gutenberg.org\/ebooks\/30894","placename":"Pitlochry","snippet":"_Kinnaird Cottage, Pitlochry, Wednesday, June 21, 1881._    "},{"title":"The Works of Robert Louis Stevenson - Swanston Edition, Vol. 23","author":"Stevenson, Robert Louis","year":null,"url":"http:\/\/www.gutenberg.org\/ebooks\/30894","placename":"Pitlochry","snippet":"_Kinnaird Cottage, Pitlochry [June 1881]._    "},{"title":"The Works of Robert Louis Stevenson - Swanston Edition, Vol. 23","author":"Stevenson, Robert Louis","year":null,"url":"http:\/\/www.gutenberg.org\/ebooks\/30894","placename":"Pitlochry","snippet":"_Kinnaird Cottage, Pitlochry, June 6, 1881._    "},{"title":"The Works of Robert Louis Stevenson - Swanston Edition, Vol. 23","author":"Stevenson, Robert Louis","year":null,"url":"http:\/\/www.gutenberg.org\/ebooks\/30894","placename":"Pitlochry","snippet":"At Pitlochry, Stevenson was for some weeks in good health and working   order.    "},{"title":"The Works of Robert Louis Stevenson - Swanston Edition, Vol. 23","author":"Stevenson, Robert Louis","year":null,"url":"http:\/\/www.gutenberg.org\/ebooks\/30894","placename":"Pitlochry","snippet":"At Pitlochry Stevenson was for a while able to enjoy his life and towork well, writing two of the strongest of his short stories of Scottishlife and superstition, _Thrawn Janet_ and _The Merry Men_, originallydesigned to form part of a volume to be written by himself and his wifein collaboration.    "},{"title":"The Works of Robert Louis Stevenson - Swanston Edition, Vol. 23","author":"Stevenson, Robert Louis","year":null,"url":"http:\/\/www.gutenberg.org\/ebooks\/30894","placename":"Pitlochry","snippet":"Thence the whole party againwent to the Highlands, this time to Pitlochry and Braemar.    "},{"title":"Europe from May to December,","author":"Williams, Rudolph.","year":null,"url":"http:\/\/babel.hathitrust.org\/cgi\/pt?id=loc.ark:\/13960\/t6640dz3n","placename":"Pitlochry","snippet":"At Pitlochry, on our return by train, we picked up our baggage again, and pursued our journey.    "},{"title":"Europe from May to December,","author":"Williams, Rudolph.","year":null,"url":"http:\/\/babel.hathitrust.org\/cgi\/pt?id=loc.ark:\/13960\/t6640dz3n","placename":"Pitlochry","snippet":"At Pitlochry we left the train at three o'clock or a little later, and having fortified ourselves with roast beef, bread and butter, we started with the conveyances, which we always have with us, for Killiecrankie Station via Killiecrankie Pass, the distance by rail being three and a half miles, but greater by our route.    "},{"title":"The novels and tales of Robert Louis Stevenson.","author":"Stevenson, Robert Louis","year":"1903-01-01","url":"http:\/\/babel.hathitrust.org\/cgi\/pt?id=uc2.ark:\/13960\/t9v11xp78","placename":"Pitlochry","snippet":"KINNAIRD COTTAGE, PITLOCHRY [July, MY DEAR MR. HAMMERTON, (There goes the second M ; it is a certainty.) Thank you for your prompt and kind answer, little as I deserved it, though I hope to show you I was less undeserving than I seemed.    "},{"title":"The novels and tales of Robert Louis Stevenson.","author":"Stevenson, Robert Louis","year":"1903-01-01","url":"http:\/\/babel.hathitrust.org\/cgi\/pt?id=uc2.ark:\/13960\/t8nc5vd9n","placename":"Pitlochry","snippet":"Was there ever a more complete justification of the rule of Horace ? Here, thinking of quite other things, I had stumbled on the solution, or perhaps I should rather say (in stagewright phrase) the Curtain or final Tableau of a story conceived long before on the moors between Pitlochry and Strathardle, conceived in the Highland rain, in the blend of the smell of heather and bog-plants, and with a mind full of the Athole correspondence and the memories of the dumlicide Justice.    "},{"title":"Essays of travel and in the art of writing,","author":"Stevenson, Robert Louis","year":"1905-01-01","url":"http:\/\/babel.hathitrust.org\/cgi\/pt?id=loc.ark:\/13960\/t5t730p42","placename":"Pitlochry","snippet":"Here, thinking of quite other things, I had stumbled on the solution, or perhaps I should rather say (in stagevk'right phrase) the Curtain or final Tableau of a story conceived long before on the moors between Pitlochry and Strathardle, conceived in the Highland  rain, in the blend of the smell of heather and bog-plants, and with a mind full of the Athole correspondence  and the memories of the dumlicide Justice.    "},{"title":"The works of Robert Louis Stevenson;","author":"Stevenson, Robert Louis","year":"1906-01-01","url":"http:\/\/babel.hathitrust.org\/cgi\/pt?id=uc2.ark:\/13960\/t5s75m18c","placename":"Pitlochry","snippet":"The Body Snatcher was written in June, 1881, at Kin- naird Cottage, Pitlochry, and was originally intended to form one of a series of tales of terror, or, as Stevenson called them, \" crawlers,\" which had been planned in collaboration with :\\Irs.    "},{"title":"The novels and tales of Robert Louis Stevenson.","author":"Stevenson, Robert Louis","year":"1903-01-01","url":"http:\/\/babel.hathitrust.org\/cgi\/pt?id=uc2.ark:\/13960\/t05x2nn94","placename":"Pitlochry","snippet":"KiNNAiRD Cottage, Pitlochry, yw\/}' 2\u00ab^, 1881.    "},{"title":"The novels and tales of Robert Louis Stevenson.","author":"Stevenson, Robert Louis","year":"1903-01-01","url":"http:\/\/babel.hathitrust.org\/cgi\/pt?id=uc2.ark:\/13960\/t05x2nn94","placename":"Pitlochry","snippet":"Pitlochry, y^w^ ^o, 1881.    "},{"title":"Journal of a Summer Tour in the Perthshire and Inverness-shire Highlands","author":"Roger, James Cruikshank.","year":"1898-01-01","url":"https:\/\/historicaltexts.jisc.ac.uk\/bl-003135275","placename":"Pitlochry","snippet":"Saturday, May 22nd.\u2014Breakfasted at theCockburn Hotel, and started for Pitlochry at11.20 a.m.    "}]