[{"title":"The Edinburgh gazetteer, or geographical dictionary ...","author":null,"year":"1822-01-01","url":"http:\/\/babel.hathitrust.org\/cgi\/pt?id=yale.39002088370268","placename":"Doubs","snippet":"OaNANS, a town in the east of France,department of the Doubs, on the smallriver Louve.    "},{"title":"The Edinburgh gazetteer, or geographical dictionary ...","author":null,"year":"1822-01-01","url":"http:\/\/babel.hathitrust.org\/cgi\/pt?id=yale.39002088370268","placename":"Doubs","snippet":"N.Mouthe, a small town iu the east ofFrance, department of the Doubs.    "},{"title":"The Edinburgh gazetteer, or geographical dictionary ...","author":null,"year":"1822-01-01","url":"http:\/\/babel.hathitrust.org\/cgi\/pt?id=yale.39002088370268","placename":"Doubs","snippet":"Mothe, a large village in the east ofFrance, department of the Doubs, near thesource of the river of that name.    "},{"title":"The Edinburgh gazetteer, or geographical dictionary ...","author":null,"year":"1822-01-01","url":"http:\/\/babel.hathitrust.org\/cgi\/pt?id=yale.39002088370268","placename":"Doubs","snippet":"Morteau, a town in the east of France,department of the Doubs, situated on theriver Doubs.    "},{"title":"The Edinburgh gazetteer, or geographical dictionary ...","author":null,"year":"1822-01-01","url":"http:\/\/babel.hathitrust.org\/cgi\/pt?id=yale.39002088370268","placename":"Doubs","snippet":"Morteau, a town in the east of France,department of the Doubs, situated on theriver Doubs.    "},{"title":"The Edinburgh gazetteer, or geographical dictionary ...","author":null,"year":"1822-01-01","url":"http:\/\/babel.hathitrust.org\/cgi\/pt?id=yale.39002088370268","placename":"Doubs","snippet":"Montb-elliard, a town of France, department of the Doubs, near the riverAleine.    "},{"title":"The Edinburgh gazetteer, or geographical dictionary ...","author":null,"year":"1822-01-01","url":"http:\/\/babel.hathitrust.org\/cgi\/pt?id=yale.39002088370268","placename":"Doubs","snippet":"Lougnon, i.'Oignon, a river of France,department of the Doubs, which, after acourse of 65 miles, falls into the Saone, nearPontarlier.    "},{"title":"Romance of War ... New edition","author":"Grant, James","year":null,"url":"https:\/\/historicaltexts.jisc.ac.uk\/bl-001488209","placename":"Doubs","snippet":"I succeeded my father in the humbleoccupation of gardener to the family of this Monsieur Maurice de Mesmai,at the castle of Quinsay, a noble chateau, built on the banks of theDoubs, which flows through Besangon.    "},{"title":"Romance of War ... New edition","author":"Grant, James","year":null,"url":"https:\/\/historicaltexts.jisc.ac.uk\/bl-001488209","placename":"Doubs","snippet":"' What! the gardener at my jovial old Chateau of Quinsay, on the banksof the Doubs ? Impossible ! he was destroyed when I blew up the hall,with all the base republican mechanics who filled it.'    "}]